<?xml version="1.0" encoding="UTF-8"?> 
<kml xmlns="http://www.opengis.net/kml/2.2" 
     xmlns:gx="http://www.google.com/kml/ext/2.2" 
     xmlns:kml="http://www.opengis.net/kml/2.2"
     xmlns:atom="http://www.w3.org/2005/Atom"> 
  <Document> 
    <name>gps_traj.kml</name> 
    <Placemark> 
      <name>Trajectoire</name> 
      <LineString> 
        <tessellate>1</tessellate> 
        <coordinates> 
3.43415791,46.34068540,283.466
3.43415791,46.34068540,283.467
3.43415791,46.34068541,283.467
3.43415791,46.34068541,283.467
3.43415790,46.34068542,283.467
3.43415790,46.34068542,283.466
3.43415790,46.34068542,283.466
3.43415789,46.34068541,283.466
3.43415790,46.34068541,283.466
3.43415789,46.34068541,283.466
3.43415789,46.34068541,283.466
3.43415788,46.34068542,283.465
3.43415789,46.34068542,283.465
3.43415789,46.34068542,283.465
3.43415789,46.34068541,283.464
3.43415788,46.34068542,283.465
3.43415787,46.34068542,283.466
3.43415787,46.34068541,283.465
3.43415786,46.34068542,283.464
3.43415787,46.34068541,283.465
3.43415803,46.34068536,283.464
3.43415844,46.34068521,283.462
3.43415908,46.34068498,283.461
3.43415992,46.34068462,283.462
3.43416094,46.34068420,283.466
3.43416208,46.34068378,283.46
3.43416318,46.34068336,283.458
3.43416424,46.34068297,283.459
3.43416531,46.34068253,283.456
3.43416639,46.34068207,283.455
3.43416751,46.34068162,283.455
3.43416879,46.34068107,283.455
3.43417009,46.34068055,283.456
3.43417140,46.34068005,283.453
3.43417265,46.34067955,283.453
3.43417388,46.34067904,283.45
3.43417504,46.34067848,283.45
3.43417623,46.34067792,283.451
3.43417742,46.34067742,283.448
3.43417859,46.34067695,283.447
3.43417978,46.34067652,283.447
3.43418100,46.34067615,283.446
3.43418215,46.34067572,283.448
3.43418326,46.34067529,283.447
3.43418437,46.34067485,283.449
3.43418548,46.34067440,283.455
3.43418663,46.34067400,283.455
3.43418775,46.34067361,283.455
3.43418889,46.34067321,283.454
3.43419002,46.34067281,283.453
3.43419113,46.34067242,283.457
3.43419220,46.34067193,283.456
3.43419331,46.34067147,283.451
3.43419442,46.34067101,283.453
3.43419548,46.34067054,283.454
3.43419653,46.34067006,283.45
3.43419758,46.34066960,283.453
3.43419863,46.34066915,283.45
3.43419967,46.34066869,283.454
3.43420074,46.34066825,283.453
3.43420179,46.34066781,283.453
3.43420287,46.34066736,283.454
3.43420396,46.34066691,283.451
3.43420501,46.34066646,283.449
3.43420609,46.34066603,283.447
3.43420717,46.34066559,283.447
3.43420826,46.34066517,283.446
3.43420933,46.34066474,283.45
3.43421043,46.34066433,283.452
3.43421153,46.34066392,283.452
3.43421262,46.34066351,283.453
3.43421373,46.34066309,283.452
3.43421483,46.34066265,283.451
3.43421594,46.34066221,283.449
3.43421703,46.34066180,283.445
3.43421814,46.34066138,283.443
3.43421924,46.34066097,283.448
3.43422031,46.34066056,283.447
3.43422138,46.34066016,283.448
3.43422247,46.34065973,283.447
3.43422355,46.34065933,283.447
3.43422463,46.34065890,283.446
3.43422570,46.34065847,283.448
3.43422682,46.34065803,283.449
3.43422792,46.34065760,283.445
3.43422903,46.34065719,283.443
3.43423013,46.34065674,283.445
3.43423121,46.34065630,283.444
3.43423232,46.34065587,283.443
3.43423342,46.34065544,283.439
3.43423453,46.34065502,283.436
3.43423562,46.34065465,283.435
3.43423674,46.34065423,283.438
3.43423783,46.34065382,283.439
3.43423896,46.34065338,283.44
3.43424010,46.34065295,283.441
3.43424124,46.34065250,283.444
3.43424238,46.34065205,283.443
3.43424352,46.34065160,283.441
3.43424466,46.34065113,283.444
3.43424582,46.34065066,283.443
3.43424698,46.34065017,283.444
3.43424816,46.34064967,283.445
3.43424932,46.34064915,283.448
3.43425047,46.34064863,283.445
3.43425161,46.34064808,283.448
3.43425272,46.34064752,283.444
3.43425382,46.34064694,283.44
3.43425492,46.34064635,283.438
3.43425601,46.34064575,283.435
3.43425708,46.34064514,283.434
3.43425816,46.34064453,283.433
3.43425922,46.34064390,283.435
3.43426021,46.34064320,283.435
3.43426117,46.34064247,283.434
3.43426212,46.34064173,283.434
3.43426309,46.34064098,283.431
3.43426407,46.34064021,283.428
3.43426500,46.34063940,283.427
3.43426580,46.34063854,283.424
3.43426648,46.34063765,283.423
3.43426709,46.34063672,283.421
3.43426777,46.34063585,283.42
3.43426854,46.34063500,283.419
3.43426930,46.34063417,283.416
3.43427002,46.34063333,283.41
3.43427065,46.34063246,283.409
3.43427109,46.34063155,283.411
3.43427157,46.34063065,283.41
3.43427209,46.34062980,283.411
3.43427267,46.34062897,283.408
3.43427333,46.34062820,283.407
3.43427404,46.34062750,283.405
3.43427477,46.34062678,283.407
3.43427543,46.34062605,283.41
3.43427607,46.34062533,283.412
3.43427660,46.34062457,283.411
3.43427718,46.34062382,283.413
3.43427776,46.34062309,283.412
3.43427828,46.34062233,283.416
3.43427877,46.34062159,283.417
3.43427919,46.34062081,283.419
3.43427959,46.34062004,283.421
3.43428001,46.34061931,283.425
3.43428049,46.34061855,283.428
3.43428096,46.34061785,283.425
3.43428151,46.34061715,283.425
3.43428206,46.34061646,283.424
3.43428264,46.34061578,283.423
3.43428325,46.34061511,283.423
3.43428391,46.34061447,283.419
3.43428459,46.34061380,283.414
3.43428528,46.34061311,283.417
3.43428594,46.34061243,283.419
3.43428667,46.34061177,283.416
3.43428747,46.34061113,283.414
3.43428831,46.34061053,283.412
3.43428914,46.34060993,283.407
3.43428995,46.34060929,283.402
3.43429078,46.34060863,283.403
3.43429165,46.34060799,283.401
3.43429253,46.34060735,283.404
3.43429341,46.34060670,283.408
3.43429428,46.34060605,283.413
3.43429514,46.34060537,283.415
3.43429598,46.34060469,283.417
3.43429680,46.34060398,283.415
3.43429761,46.34060325,283.413
3.43429842,46.34060253,283.415
3.43429925,46.34060182,283.411
3.43430004,46.34060111,283.406
3.43430091,46.34060045,283.404
3.43430177,46.34059979,283.398
3.43430262,46.34059914,283.397
3.43430345,46.34059846,283.392
3.43430427,46.34059777,283.391
3.43430509,46.34059709,283.394
3.43430595,46.34059644,283.394
3.43430681,46.34059581,283.391
3.43430766,46.34059517,283.391
3.43430846,46.34059451,283.394
3.43430924,46.34059380,283.395
3.43431001,46.34059308,283.394
3.43431079,46.34059237,283.395
3.43431158,46.34059167,283.397
3.43431241,46.34059098,283.395
3.43431329,46.34059035,283.394
3.43431415,46.34058970,283.393
3.43431497,46.34058907,283.391
3.43431580,46.34058839,283.391
3.43431665,46.34058773,283.387
3.43431753,46.34058708,283.388
3.43431841,46.34058644,283.387
3.43431927,46.34058579,283.384
3.43432015,46.34058514,283.383
3.43432107,46.34058452,283.38
3.43432194,46.34058389,283.375
3.43432284,46.34058323,283.377
3.43432367,46.34058258,283.375
3.43432449,46.34058191,283.372
3.43432529,46.34058121,283.368
3.43432611,46.34058056,283.368
3.43432697,46.34057994,283.368
3.43432784,46.34057932,283.363
3.43432870,46.34057870,283.362
3.43432952,46.34057806,283.361
3.43433027,46.34057743,283.362
3.43433105,46.34057682,283.36
3.43433181,46.34057618,283.361
3.43433256,46.34057551,283.362
3.43433329,46.34057487,283.36
3.43433407,46.34057419,283.365
3.43433486,46.34057352,283.363
3.43433567,46.34057285,283.363
3.43433650,46.34057219,283.365
3.43433731,46.34057153,283.363
3.43433811,46.34057092,283.358
3.43433895,46.34057030,283.36
3.43433981,46.34056969,283.359
3.43434065,46.34056911,283.357
3.43434148,46.34056848,283.357
3.43434229,46.34056785,283.356
3.43434312,46.34056723,283.356
3.43434398,46.34056664,283.356
3.43434486,46.34056606,283.352
3.43434578,46.34056548,283.351
3.43434673,46.34056494,283.349
3.43434770,46.34056440,283.348
3.43434867,46.34056385,283.351
3.43434965,46.34056334,283.346
3.43435063,46.34056284,283.346
3.43435158,46.34056232,283.345
3.43435251,46.34056177,283.346
3.43435340,46.34056117,283.346
3.43435428,46.34056060,283.341
3.43435518,46.34055999,283.345
3.43435609,46.34055944,283.342
3.43435705,46.34055886,283.341
3.43435798,46.34055829,283.343
3.43435890,46.34055771,283.343
3.43435983,46.34055714,283.344
3.43436066,46.34055653,283.342
3.43436153,46.34055592,283.342
3.43436239,46.34055530,283.343
3.43436327,46.34055470,283.343
3.43436416,46.34055414,283.344
3.43436510,46.34055358,283.34
3.43436603,46.34055301,283.339
3.43436695,46.34055241,283.338
3.43436786,46.34055179,283.34
3.43436877,46.34055120,283.34
3.43436969,46.34055059,283.34
3.43437064,46.34055002,283.339
3.43437159,46.34054944,283.341
3.43437255,46.34054885,283.339
3.43437343,46.34054824,283.34
3.43437426,46.34054758,283.341
3.43437509,46.34054690,283.34
3.43437591,46.34054624,283.338
3.43437675,46.34054563,283.337
3.43437767,46.34054507,283.335
3.43437868,46.34054462,283.332
3.43437967,46.34054417,283.329
3.43438055,46.34054365,283.329
3.43438143,46.34054313,283.33
3.43438227,46.34054261,283.33
3.43438307,46.34054209,283.332
3.43438387,46.34054158,283.336
3.43438473,46.34054114,283.337
3.43438553,46.34054069,283.336
3.43438639,46.34054025,283.337
3.43438718,46.34053978,283.336
3.43438797,46.34053931,283.336
3.43438877,46.34053889,283.332
3.43438957,46.34053848,283.331
3.43439037,46.34053813,283.326
3.43439123,46.34053786,283.322
3.43439207,46.34053764,283.317
3.43439295,46.34053740,283.32
3.43439380,46.34053721,283.315
3.43439471,46.34053701,283.315
3.43439554,46.34053683,283.312
3.43439645,46.34053665,283.317
3.43439735,46.34053651,283.314
3.43439829,46.34053640,283.312
3.43439933,46.34053623,283.315
3.43440044,46.34053601,283.321
3.43440155,46.34053578,283.329
3.43440274,46.34053563,283.333
3.43440392,46.34053554,283.33
3.43440514,46.34053546,283.335
3.43440632,46.34053549,283.331
3.43440755,46.34053550,283.327
3.43440879,46.34053547,283.327
3.43441000,46.34053544,283.324
3.43441128,46.34053540,283.326
3.43441253,46.34053544,283.326
3.43441374,46.34053557,283.323
3.43441496,46.34053570,283.32
3.43441624,46.34053582,283.319
3.43441750,46.34053591,283.319
3.43441879,46.34053591,283.317
3.43442010,46.34053580,283.317
3.43442144,46.34053571,283.32
3.43442276,46.34053570,283.316
3.43442406,46.34053569,283.314
3.43442534,46.34053581,283.312
3.43442658,46.34053590,283.31
3.43442780,46.34053597,283.307
3.43442906,46.34053601,283.306
3.43443035,46.34053606,283.305
3.43443160,46.34053619,283.305
3.43443280,46.34053637,283.305
3.43443400,46.34053657,283.303
3.43443520,46.34053674,283.302
3.43443642,46.34053689,283.301
3.43443767,46.34053692,283.299
3.43443893,46.34053693,283.301
3.43444014,46.34053692,283.304
3.43444113,46.34053689,283.306
3.43444188,46.34053687,283.306
3.43444226,46.34053688,283.305
3.43444237,46.34053689,283.304
3.43444231,46.34053690,283.303
3.43444217,46.34053688,283.301
3.43444200,46.34053684,283.299
3.43444209,46.34053682,283.3
3.43444224,46.34053678,283.3
3.43444230,46.34053675,283.299
3.43444230,46.34053676,283.297
3.43444234,46.34053676,283.295
3.43444230,46.34053673,283.293
3.43444224,46.34053670,283.293
3.43444216,46.34053670,283.291
3.43444210,46.34053669,283.289
3.43444204,46.34053669,283.288
3.43444198,46.34053673,283.286
3.43444191,46.34053675,283.286
3.43444186,46.34053676,283.287
3.43444180,46.34053678,283.286
3.43444174,46.34053681,283.286
3.43444174,46.34053682,283.284
3.43444174,46.34053682,283.285
3.43444173,46.34053682,283.284
3.43444174,46.34053682,283.283
3.43444173,46.34053682,283.281
3.43444174,46.34053682,283.281
3.43444176,46.34053681,283.281
3.43444176,46.34053680,283.28
3.43444177,46.34053679,283.279
3.43444178,46.34053679,283.279
3.43444177,46.34053679,283.279
3.43444178,46.34053679,283.277
3.43444177,46.34053679,283.278
3.43444178,46.34053678,283.278
3.43444178,46.34053678,283.278
3.43444178,46.34053678,283.277
3.43444180,46.34053677,283.277
3.43444180,46.34053677,283.276
3.43444182,46.34053676,283.275
3.43444183,46.34053676,283.275
3.43444182,46.34053676,283.275
3.43444183,46.34053676,283.275
3.43444183,46.34053676,283.275
3.43444183,46.34053676,283.274
3.43444183,46.34053675,283.274
3.43444183,46.34053675,283.273
3.43444184,46.34053675,283.273
3.43444184,46.34053675,283.272
3.43444185,46.34053674,283.271
3.43444185,46.34053675,283.272
3.43444185,46.34053675,283.272
        </coordinates> 
      </LineString> 
    </Placemark> 
  </Document> 
</kml> 
