<?xml version="1.0" encoding="UTF-8"?> 
<kml xmlns="http://www.opengis.net/kml/2.2" 
     xmlns:gx="http://www.google.com/kml/ext/2.2" 
     xmlns:kml="http://www.opengis.net/kml/2.2"
     xmlns:atom="http://www.w3.org/2005/Atom"> 
  <Document> 
    <name>gps_traj.kml</name> 
    <Placemark> 
      <name>Trajectoire</name> 
      <LineString> 
        <tessellate>1</tessellate> 
        <coordinates> 
3.11006775,45.76271567,407.284
3.11006774,45.76271566,407.284
3.11006774,45.76271566,407.284
3.11006776,45.76271567,407.288
3.11006774,45.76271567,407.287
3.11006774,45.76271567,407.284
3.11006774,45.76271568,407.284
3.11006776,45.76271569,407.284
3.11006774,45.76271568,407.279
3.11006774,45.76271569,407.28
3.11006775,45.76271569,407.281
3.11006775,45.76271569,407.279
3.11006776,45.76271569,407.279
3.11006775,45.76271569,407.281
3.11006780,45.76271571,407.283
3.11006792,45.76271573,407.282
3.11006806,45.76271574,407.284
3.11006817,45.76271576,407.287
3.11006829,45.76271577,407.287
3.11006840,45.76271577,407.287
3.11006850,45.76271576,407.284
3.11006863,45.76271576,407.281
3.11006880,45.76271575,407.274
3.11006897,45.76271577,407.267
3.11006915,45.76271578,407.264
3.11006934,45.76271582,407.27
3.11006958,45.76271584,407.274
3.11006988,45.76271588,407.281
3.11007020,45.76271591,407.286
3.11007051,45.76271594,407.284
3.11007073,45.76271595,407.286
3.11007092,45.76271596,407.282
3.11007113,45.76271597,407.274
3.11007139,45.76271599,407.268
3.11007165,45.76271603,407.267
3.11007186,45.76271610,407.269
3.11007201,45.76271616,407.275
3.11007210,45.76271620,407.274
3.11007220,45.76271620,407.274
3.11007231,45.76271620,407.274
3.11007242,45.76271620,407.274
3.11007253,45.76271620,407.275
3.11007263,45.76271619,407.269
3.11007276,45.76271622,407.267
3.11007293,45.76271627,407.263
3.11007314,45.76271633,407.262
3.11007338,45.76271638,407.269
3.11007367,45.76271642,407.274
3.11007407,45.76271647,407.269
3.11007449,45.76271654,407.263
3.11007492,45.76271660,407.256
3.11007549,45.76271667,407.259
3.11007618,45.76271672,407.271
3.11007686,45.76271678,407.265
3.11007760,45.76271687,407.263
3.11007823,45.76271702,407.273
3.11007870,45.76271710,407.256
3.11007921,45.76271719,407.257
3.11007975,45.76271723,407.261
3.11008022,45.76271725,407.257
3.11008056,45.76271725,407.244
3.11008099,45.76271725,407.26
3.11008139,45.76271729,407.262
3.11008175,45.76271734,407.262
3.11008208,45.76271740,407.255
3.11008250,45.76271752,407.259
3.11008284,45.76271754,407.259
3.11008314,45.76271754,407.267
3.11008348,45.76271756,407.269
3.11008385,45.76271759,407.264
3.11008421,45.76271763,407.265
3.11008449,45.76271767,407.264
3.11008480,45.76271766,407.266
3.11008508,45.76271759,407.268
3.11008530,45.76271753,407.277
3.11008548,45.76271748,407.276
3.11008563,45.76271741,407.282
3.11008577,45.76271732,407.287
3.11008597,45.76271727,407.295
3.11008618,45.76271721,407.3
3.11008646,45.76271712,407.295
3.11008675,45.76271701,407.303
3.11008707,45.76271687,407.312
3.11008749,45.76271678,407.309
3.11008800,45.76271671,407.315
3.11008843,45.76271665,407.338
3.11008897,45.76271671,407.333
3.11008940,45.76271683,407.328
3.11008992,45.76271711,407.332
3.11009031,45.76271748,407.303
3.11009070,45.76271798,407.28
3.11009114,45.76271847,407.274
3.11009159,45.76271874,407.269
3.11009198,45.76271877,407.258
3.11009238,45.76271867,407.255
3.11009288,45.76271853,407.278
3.11009324,45.76271838,407.295
3.11009364,45.76271835,407.292
3.11009403,45.76271843,407.286
3.11009438,45.76271854,407.285
3.11009487,45.76271862,407.273
3.11009548,45.76271872,407.277
3.11009609,45.76271878,407.275
3.11009673,45.76271874,407.279
3.11009732,45.76271863,407.292
3.11009786,45.76271860,407.282
3.11009827,45.76271869,407.284
3.11009863,45.76271892,407.29
3.11009887,45.76271912,407.276
3.11009905,45.76271931,407.28
3.11009915,45.76271950,407.283
3.11009928,45.76271969,407.28
3.11009949,45.76271986,407.284
3.11009974,45.76271999,407.275
3.11010003,45.76272010,407.271
3.11010039,45.76272032,407.292
3.11010077,45.76272047,407.289
3.11010120,45.76272058,407.272
3.11010169,45.76272066,407.277
3.11010226,45.76272063,407.277
3.11010290,45.76272051,407.262
3.11010342,45.76272033,407.272
3.11010390,45.76271988,407.264
3.11010449,45.76271952,407.295
3.11010510,45.76271936,407.29
3.11010561,45.76271937,407.295
3.11010621,45.76271950,407.278
3.11010682,45.76271970,407.29
3.11010748,45.76271989,407.276
3.11010804,45.76272007,407.274
3.11010859,45.76272017,407.28
3.11010910,45.76272013,407.288
3.11010956,45.76272007,407.297
3.11011004,45.76272011,407.286
3.11011043,45.76272015,407.279
3.11011085,45.76272015,407.289
3.11011130,45.76272019,407.294
3.11011166,45.76272019,407.289
3.11011205,45.76272021,407.29
3.11011243,45.76272024,407.297
3.11011281,45.76272027,407.301
3.11011324,45.76272036,407.296
3.11011362,45.76272046,407.294
3.11011401,45.76272055,407.294
3.11011442,45.76272061,407.292
3.11011478,45.76272066,407.297
3.11011518,45.76272073,407.307
3.11011556,45.76272078,407.301
3.11011592,45.76272080,407.295
3.11011619,45.76272080,407.298
3.11011650,45.76272086,407.304
3.11011668,45.76272089,407.298
3.11011689,45.76272093,407.296
3.11011712,45.76272099,407.293
3.11011738,45.76272101,407.289
3.11011772,45.76272102,407.29
3.11011809,45.76272099,407.293
3.11011855,45.76272090,407.299
3.11011902,45.76272079,407.302
3.11011954,45.76272068,407.304
3.11012012,45.76272056,407.31
3.11012084,45.76272042,407.327
3.11012153,45.76272021,407.327
3.11012222,45.76272011,407.329
3.11012272,45.76272034,407.325
3.11012318,45.76272074,407.312
3.11012355,45.76272136,407.295
3.11012401,45.76272183,407.287
3.11012436,45.76272204,407.273
3.11012488,45.76272206,407.284
3.11012552,45.76272199,407.295
3.11012608,45.76272178,407.298
3.11012662,45.76272163,407.317
3.11012707,45.76272160,407.309
3.11012744,45.76272169,407.304
3.11012799,45.76272194,407.303
3.11012839,45.76272215,407.286
3.11012881,45.76272226,407.293
3.11012939,45.76272232,407.308
3.11012986,45.76272236,407.301
3.11013019,45.76272247,407.295
3.11013044,45.76272264,407.296
3.11013063,45.76272278,407.284
3.11013083,45.76272303,407.285
3.11013105,45.76272327,407.277
3.11013131,45.76272348,407.275
3.11013154,45.76272349,407.276
3.11013177,45.76272350,407.279
3.11013208,45.76272343,407.285
3.11013242,45.76272328,407.291
3.11013293,45.76272307,407.288
3.11013372,45.76272283,407.266
3.11013453,45.76272265,407.275
3.11013525,45.76272263,407.279
3.11013593,45.76272268,407.289
3.11013653,45.76272287,407.284
3.11013697,45.76272307,407.276
3.11013745,45.76272325,407.274
3.11013794,45.76272341,407.276
3.11013839,45.76272353,407.272
3.11013885,45.76272355,407.271
3.11013926,45.76272345,407.27
3.11013965,45.76272346,407.279
3.11014007,45.76272354,407.286
3.11014042,45.76272361,407.277
3.11014078,45.76272368,407.272
3.11014125,45.76272375,407.277
3.11014167,45.76272376,407.285
3.11014214,45.76272377,407.288
3.11014252,45.76272370,407.292
3.11014289,45.76272362,407.294
3.11014323,45.76272356,407.305
3.11014355,45.76272347,407.311
3.11014388,45.76272333,407.326
3.11014420,45.76272316,407.344
3.11014460,45.76272309,407.336
3.11014508,45.76272311,407.326
3.11014554,45.76272321,407.316
3.11014595,45.76272333,407.298
3.11014638,45.76272355,407.297
3.11014677,45.76272389,407.294
3.11014718,45.76272434,407.29
3.11014771,45.76272464,407.284
3.11014824,45.76272465,407.28
3.11014881,45.76272460,407.286
3.11014947,45.76272453,407.285
3.11015011,45.76272451,407.285
3.11015063,45.76272449,407.289
3.11015112,45.76272459,407.286
3.11015147,45.76272478,407.278
3.11015186,45.76272489,407.275
3.11015228,45.76272495,407.275
3.11015274,45.76272491,407.281
3.11015317,45.76272488,407.286
3.11015359,45.76272489,407.287
3.11015400,45.76272493,407.28
3.11015435,45.76272497,407.281
3.11015471,45.76272504,407.283
3.11015510,45.76272516,407.283
3.11015549,45.76272526,407.269
3.11015598,45.76272540,407.276
3.11015635,45.76272546,407.278
3.11015671,45.76272556,407.272
3.11015700,45.76272574,407.268
3.11015721,45.76272591,407.269
3.11015737,45.76272600,407.266
3.11015756,45.76272615,407.275
3.11015779,45.76272633,407.27
3.11015800,45.76272647,407.264
3.11015817,45.76272657,407.266
3.11015841,45.76272667,407.252
3.11015879,45.76272680,407.259
3.11015923,45.76272690,407.27
3.11015965,45.76272689,407.259
3.11016015,45.76272680,407.251
3.11016087,45.76272663,407.269
3.11016162,45.76272640,407.276
3.11016227,45.76272626,407.277
3.11016282,45.76272620,407.288
3.11016344,45.76272633,407.283
3.11016386,45.76272647,407.284
3.11016430,45.76272669,407.283
3.11016480,45.76272691,407.271
3.11016525,45.76272698,407.277
3.11016572,45.76272693,407.279
3.11016629,45.76272693,407.288
3.11016677,45.76272690,407.283
3.11016721,45.76272693,407.275
3.11016764,45.76272704,407.271
3.11016811,45.76272719,407.284
3.11016847,45.76272728,407.277
3.11016872,45.76272732,407.272
3.11016888,45.76272734,407.266
3.11016901,45.76272735,407.267
3.11016906,45.76272736,407.266
3.11016906,45.76272737,407.267
3.11016902,45.76272735,407.265
3.11016903,45.76272735,407.258
3.11016903,45.76272733,407.262
3.11016905,45.76272732,407.261
3.11016904,45.76272735,407.26
3.11016904,45.76272736,407.261
3.11016903,45.76272736,407.259
3.11016904,45.76272734,407.264
3.11016904,45.76272734,407.261
3.11016904,45.76272734,407.262
3.11016902,45.76272733,407.265
3.11016903,45.76272732,407.265
3.11016903,45.76272732,407.267
3.11016904,45.76272732,407.268
3.11016904,45.76272732,407.268
3.11016904,45.76272732,407.269
3.11016904,45.76272732,407.269
3.11016904,45.76272731,407.266
3.11016904,45.76272732,407.27
3.11016905,45.76272732,407.272
3.11016905,45.76272732,407.271
        </coordinates> 
      </LineString> 
    </Placemark> 
  </Document> 
</kml> 
