<?xml version="1.0" encoding="UTF-8"?> 
<kml xmlns="http://www.opengis.net/kml/2.2" 
     xmlns:gx="http://www.google.com/kml/ext/2.2" 
     xmlns:kml="http://www.opengis.net/kml/2.2"
     xmlns:atom="http://www.w3.org/2005/Atom"> 
  <Document> 
    <name>gps_traj.kml</name> 
    <Placemark> 
      <name>Trajectoire</name> 
      <LineString> 
        <tessellate>1</tessellate> 
        <coordinates> 
3.43374375,46.34112879,283.924
3.43374374,46.34112878,283.925
3.43374374,46.34112878,283.927
3.43374375,46.34112878,283.927
3.43374374,46.34112878,283.927
3.43374374,46.34112877,283.926
3.43374373,46.34112877,283.926
3.43374374,46.34112877,283.927
3.43374374,46.34112877,283.928
3.43374375,46.34112877,283.926
3.43374376,46.34112877,283.927
3.43374375,46.34112878,283.926
3.43374376,46.34112877,283.928
3.43374375,46.34112877,283.928
3.43374375,46.34112877,283.928
3.43374374,46.34112877,283.927
3.43374375,46.34112878,283.929
3.43374374,46.34112878,283.928
3.43374378,46.34112886,283.929
3.43374388,46.34112904,283.93
3.43374404,46.34112933,283.929
3.43374415,46.34112977,283.925
3.43374417,46.34113032,283.924
3.43374405,46.34113099,283.915
3.43374389,46.34113180,283.904
3.43374387,46.34113277,283.901
3.43374413,46.34113352,283.908
3.43374448,46.34113447,283.907
3.43374499,46.34113551,283.913
3.43374546,46.34113663,283.916
3.43374584,46.34113780,283.912
3.43374607,46.34113898,283.913
3.43374607,46.34114016,283.923
3.43374591,46.34114116,283.923
3.43374555,46.34114205,283.911
3.43374509,46.34114313,283.897
3.43374492,46.34114418,283.894
3.43374504,46.34114508,283.889
3.43374550,46.34114592,283.882
3.43374591,46.34114678,283.864
3.43374660,46.34114777,283.863
3.43374771,46.34114858,283.879
3.43374891,46.34114928,283.891
3.43374976,46.34115007,283.89
3.43375026,46.34115096,283.901
3.43375070,46.34115188,283.908
3.43375112,46.34115274,283.9
3.43375155,46.34115363,283.893
3.43375198,46.34115452,283.881
3.43375220,46.34115526,283.882
3.43375249,46.34115612,283.88
3.43375244,46.34115703,283.864
3.43375211,46.34115796,283.839
3.43375215,46.34115880,283.848
3.43375258,46.34115934,283.856
3.43375336,46.34115974,283.854
3.43375466,46.34116001,283.869
3.43375618,46.34116046,283.888
3.43375742,46.34116113,283.897
3.43375829,46.34116178,283.911
3.43375900,46.34116261,283.898
3.43375952,46.34116330,283.894
3.43375970,46.34116416,283.87
3.43375968,46.34116535,283.854
3.43375978,46.34116633,283.849
3.43376025,46.34116731,283.846
3.43376127,46.34116817,283.854
3.43376248,46.34116890,283.85
3.43376363,46.34116954,283.846
3.43376451,46.34117036,283.85
3.43376521,46.34117134,283.853
3.43376595,46.34117215,283.853
3.43376680,46.34117288,283.851
3.43376787,46.34117348,283.862
3.43376891,46.34117411,283.859
3.43376984,46.34117489,283.855
3.43377061,46.34117570,283.854
3.43377150,46.34117654,283.854
3.43377225,46.34117743,283.842
3.43377330,46.34117815,283.849
3.43377434,46.34117872,283.847
3.43377558,46.34117929,283.86
3.43377659,46.34117984,283.86
3.43377768,46.34118032,283.87
3.43377869,46.34118068,283.866
3.43377965,46.34118114,283.868
3.43378058,46.34118159,283.869
3.43378141,46.34118210,283.862
3.43378211,46.34118270,283.842
3.43378271,46.34118338,283.824
3.43378344,46.34118414,283.8
3.43378431,46.34118472,283.799
3.43378527,46.34118519,283.787
3.43378629,46.34118561,283.787
3.43378729,46.34118599,283.783
3.43378829,46.34118625,283.783
3.43378937,46.34118656,283.779
3.43379035,46.34118685,283.774
3.43379138,46.34118715,283.771
3.43379243,46.34118743,283.772
3.43379347,46.34118773,283.769
3.43379449,46.34118819,283.767
3.43379523,46.34118867,283.769
3.43379601,46.34118923,283.759
3.43379667,46.34118986,283.75
3.43379750,46.34119037,283.753
3.43379839,46.34119078,283.756
3.43379933,46.34119114,283.757
3.43380028,46.34119147,283.76
3.43380119,46.34119180,283.761
3.43380204,46.34119221,283.765
3.43380279,46.34119267,283.758
3.43380352,46.34119322,283.752
3.43380428,46.34119379,283.747
3.43380510,46.34119429,283.744
3.43380603,46.34119472,283.741
3.43380691,46.34119516,283.732
3.43380783,46.34119558,283.732
3.43380892,46.34119594,283.736
3.43380997,46.34119628,283.733
3.43381115,46.34119673,283.736
3.43381226,46.34119720,283.73
3.43381342,46.34119769,283.731
3.43381461,46.34119810,283.73
3.43381588,46.34119847,283.73
3.43381721,46.34119875,283.729
3.43381845,46.34119899,283.729
3.43381981,46.34119926,283.731
3.43382119,46.34119957,283.733
3.43382264,46.34119983,283.735
3.43382400,46.34120006,283.731
3.43382538,46.34120021,283.731
3.43382677,46.34120026,283.734
3.43382805,46.34120026,283.736
3.43382944,46.34120036,283.745
3.43383072,46.34120048,283.746
3.43383200,46.34120075,283.745
3.43383330,46.34120113,283.747
3.43383451,46.34120150,283.742
3.43383569,46.34120160,283.748
3.43383694,46.34120168,283.75
3.43383817,46.34120166,283.756
3.43383936,46.34120164,283.763
3.43384058,46.34120166,283.762
3.43384172,46.34120180,283.759
3.43384277,46.34120204,283.76
3.43384372,46.34120238,283.754
3.43384469,46.34120271,283.75
3.43384557,46.34120305,283.743
3.43384654,46.34120336,283.737
3.43384757,46.34120357,283.739
3.43384852,46.34120376,283.736
3.43384961,46.34120387,283.732
3.43385062,46.34120401,283.734
3.43385160,46.34120422,283.726
3.43385269,46.34120446,283.727
3.43385368,46.34120467,283.728
3.43385454,46.34120484,283.726
3.43385553,46.34120507,283.727
3.43385649,46.34120529,283.729
3.43385731,46.34120556,283.725
3.43385800,46.34120586,283.718
3.43385874,46.34120616,283.716
3.43385951,46.34120641,283.711
3.43386036,46.34120640,283.71
3.43386132,46.34120629,283.711
3.43386237,46.34120621,283.719
3.43386312,46.34120649,283.725
3.43386347,46.34120676,283.722
3.43386363,46.34120716,283.72
3.43386373,46.34120770,283.715
3.43386387,46.34120826,283.71
3.43386411,46.34120876,283.715
3.43386469,46.34120913,283.714
3.43386551,46.34120943,283.719
3.43386640,46.34120972,283.722
3.43386723,46.34121009,283.724
3.43386781,46.34121064,283.726
3.43386826,46.34121124,283.721
3.43386873,46.34121192,283.72
3.43386919,46.34121252,283.714
3.43386981,46.34121311,283.715
3.43387050,46.34121368,283.72
3.43387124,46.34121418,283.723
3.43387212,46.34121473,283.733
3.43387304,46.34121521,283.744
3.43387392,46.34121578,283.752
3.43387460,46.34121635,283.749
3.43387515,46.34121691,283.754
3.43387560,46.34121752,283.754
3.43387611,46.34121810,283.756
3.43387658,46.34121879,283.755
3.43387706,46.34121944,283.75
3.43387766,46.34122011,283.748
3.43387831,46.34122071,283.752
3.43387905,46.34122130,283.755
3.43387975,46.34122193,283.76
3.43388053,46.34122250,283.763
3.43388135,46.34122306,283.773
3.43388224,46.34122361,283.781
3.43388314,46.34122418,283.784
3.43388400,46.34122480,283.788
3.43388479,46.34122544,283.79
3.43388550,46.34122616,283.79
3.43388609,46.34122689,283.791
3.43388666,46.34122762,283.79
3.43388742,46.34122833,283.793
3.43388833,46.34122903,283.8
3.43388927,46.34122967,283.803
3.43389012,46.34123042,283.805
3.43389087,46.34123121,283.805
3.43389168,46.34123202,283.808
3.43389255,46.34123271,283.819
3.43389354,46.34123326,283.827
3.43389460,46.34123372,283.833
3.43389566,46.34123419,283.837
3.43389672,46.34123471,283.838
3.43389765,46.34123533,283.832
3.43389858,46.34123601,283.836
3.43389956,46.34123663,283.837
3.43390061,46.34123715,283.839
3.43390169,46.34123756,283.841
3.43390269,46.34123796,283.842
3.43390363,46.34123841,283.838
3.43390459,46.34123887,283.837
3.43390554,46.34123929,283.837
3.43390656,46.34123970,283.838
3.43390765,46.34124010,283.842
3.43390875,46.34124042,283.844
3.43390984,46.34124068,283.843
3.43391093,46.34124096,283.844
3.43391195,46.34124130,283.845
3.43391288,46.34124178,283.839
3.43391369,46.34124234,283.829
3.43391448,46.34124290,283.821
3.43391540,46.34124338,283.818
3.43391643,46.34124373,283.818
3.43391747,46.34124399,283.816
3.43391859,46.34124422,283.816
3.43391971,46.34124459,283.818
3.43392065,46.34124505,283.814
3.43392140,46.34124552,283.805
3.43392217,46.34124597,283.799
3.43392297,46.34124646,283.796
3.43392384,46.34124687,283.794
3.43392476,46.34124716,283.795
3.43392573,46.34124735,283.8
3.43392676,46.34124744,283.805
3.43392779,46.34124750,283.814
3.43392871,46.34124766,283.816
3.43392944,46.34124790,283.816
3.43393012,46.34124814,283.813
3.43393085,46.34124837,283.811
3.43393161,46.34124861,283.812
3.43393244,46.34124880,283.815
3.43393330,46.34124895,283.817
3.43393417,46.34124912,283.819
3.43393510,46.34124930,283.823
3.43393606,46.34124958,283.83
3.43393698,46.34125000,283.829
3.43393789,46.34125048,283.826
3.43393886,46.34125090,283.822
3.43393995,46.34125127,283.828
3.43394109,46.34125160,283.832
3.43394227,46.34125181,283.83
3.43394360,46.34125176,283.831
3.43394501,46.34125169,283.841
3.43394643,46.34125175,283.851
3.43394766,46.34125196,283.854
3.43394868,46.34125226,283.857
3.43394949,46.34125280,283.851
3.43395021,46.34125341,283.849
3.43395100,46.34125399,283.841
3.43395191,46.34125445,283.843
3.43395295,46.34125476,283.845
3.43395405,46.34125503,283.854
3.43395512,46.34125526,283.857
3.43395612,46.34125560,283.857
3.43395697,46.34125602,283.858
3.43395775,46.34125650,283.861
3.43395847,46.34125699,283.858
3.43395926,46.34125744,283.861
3.43396004,46.34125790,283.857
3.43396095,46.34125826,283.856
3.43396192,46.34125857,283.856
3.43396291,46.34125887,283.858
3.43396385,46.34125918,283.858
3.43396477,46.34125955,283.854
3.43396561,46.34125998,283.85
3.43396643,46.34126043,283.848
3.43396721,46.34126086,283.848
3.43396796,46.34126117,283.847
3.43396875,46.34126145,283.85
3.43396961,46.34126170,283.852
3.43397051,46.34126194,283.857
3.43397135,46.34126223,283.856
3.43397213,46.34126259,283.855
3.43397279,46.34126303,283.856
3.43397344,46.34126348,283.851
3.43397424,46.34126392,283.853
3.43397505,46.34126440,283.853
3.43397597,46.34126483,283.857
3.43397688,46.34126533,283.861
3.43397778,46.34126591,283.862
3.43397856,46.34126654,283.862
3.43397937,46.34126721,283.863
3.43398015,46.34126781,283.867
3.43398088,46.34126844,283.866
3.43398147,46.34126918,283.862
3.43398186,46.34126997,283.855
3.43398220,46.34127077,283.85
3.43398265,46.34127144,283.851
3.43398342,46.34127206,283.855
3.43398417,46.34127272,283.854
3.43398498,46.34127339,283.863
3.43398569,46.34127400,283.866
3.43398622,46.34127465,283.865
3.43398665,46.34127545,283.856
3.43398690,46.34127632,283.841
3.43398713,46.34127714,283.829
3.43398749,46.34127791,283.82
3.43398798,46.34127865,283.809
3.43398868,46.34127927,283.81
3.43398957,46.34127972,283.808
3.43399056,46.34128019,283.813
3.43399139,46.34128080,283.809
3.43399198,46.34128152,283.805
3.43399237,46.34128235,283.796
3.43399270,46.34128316,283.788
3.43399323,46.34128396,283.783
3.43399389,46.34128465,283.784
3.43399480,46.34128522,283.789
3.43399581,46.34128579,283.798
3.43399681,46.34128628,283.803
3.43399781,46.34128681,283.811
3.43399876,46.34128738,283.817
3.43399961,46.34128799,283.814
3.43400045,46.34128869,283.817
3.43400141,46.34128930,283.826
3.43400242,46.34128984,283.829
3.43400339,46.34129039,283.833
3.43400441,46.34129097,283.841
3.43400541,46.34129150,283.839
3.43400639,46.34129202,283.843
3.43400734,46.34129262,283.844
3.43400831,46.34129325,283.841
3.43400939,46.34129383,283.845
3.43401064,46.34129437,283.847
3.43401174,46.34129474,283.851
3.43401264,46.34129501,283.856
3.43401330,46.34129522,283.858
3.43401364,46.34129541,283.857
3.43401376,46.34129556,283.853
3.43401377,46.34129566,283.852
3.43401371,46.34129570,283.849
3.43401363,46.34129569,283.847
3.43401364,46.34129566,283.85
3.43401370,46.34129565,283.849
3.43401367,46.34129565,283.848
3.43401365,46.34129565,283.848
3.43401364,46.34129568,283.846
3.43401365,46.34129567,283.849
3.43401366,46.34129566,283.844
3.43401368,46.34129565,283.845
3.43401365,46.34129567,283.84
3.43401366,46.34129566,283.843
3.43401366,46.34129566,283.844
3.43401366,46.34129565,283.847
3.43401367,46.34129564,283.845
3.43401366,46.34129564,283.846
3.43401366,46.34129565,283.846
3.43401365,46.34129566,283.844
3.43401366,46.34129565,283.844
3.43401366,46.34129564,283.843
3.43401367,46.34129564,283.842
3.43401367,46.34129564,283.841
3.43401367,46.34129564,283.84
3.43401368,46.34129564,283.839
3.43401368,46.34129564,283.839
3.43401367,46.34129564,283.838
3.43401367,46.34129565,283.837
3.43401368,46.34129564,283.837
3.43401368,46.34129564,283.835
3.43401368,46.34129564,283.836
3.43401368,46.34129564,283.835
3.43401368,46.34129565,283.834
3.43401368,46.34129564,283.835
3.43401368,46.34129564,283.835
3.43401368,46.34129564,283.834
3.43401368,46.34129563,283.834
3.43401367,46.34129564,283.835
3.43401369,46.34129563,283.835
3.43401366,46.34129564,283.835
3.43401364,46.34129565,283.837
3.43401363,46.34129565,283.837
3.43401360,46.34129565,283.839
3.43401358,46.34129566,283.84
3.43401357,46.34129566,283.84
3.43401358,46.34129566,283.842
3.43401358,46.34129566,283.841
3.43401358,46.34129566,283.841
3.43401358,46.34129565,283.843
3.43401359,46.34129565,283.843
3.43401359,46.34129565,283.844
3.43401360,46.34129565,283.844
3.43401361,46.34129564,283.846
3.43401362,46.34129564,283.846
3.43401362,46.34129564,283.847
3.43401361,46.34129565,283.845
3.43401360,46.34129565,283.846
3.43401361,46.34129564,283.847
3.43401360,46.34129565,283.848
3.43401360,46.34129565,283.847
3.43401360,46.34129566,283.847
3.43401359,46.34129565,283.847
3.43401359,46.34129565,283.848
3.43401359,46.34129566,283.847
3.43401358,46.34129566,283.847
3.43401358,46.34129566,283.847
3.43401359,46.34129566,283.848
3.43401358,46.34129566,283.847
3.43401358,46.34129566,283.848
3.43401359,46.34129565,283.848
3.43401359,46.34129565,283.846
3.43401360,46.34129564,283.846
3.43401360,46.34129565,283.845
3.43401360,46.34129564,283.846
3.43401361,46.34129563,283.845
3.43401361,46.34129564,283.844
3.43401361,46.34129564,283.844
3.43401361,46.34129563,283.844
        </coordinates> 
      </LineString> 
    </Placemark> 
  </Document> 
</kml> 
