<?xml version="1.0" encoding="UTF-8"?> 
<kml xmlns="http://www.opengis.net/kml/2.2" 
     xmlns:gx="http://www.google.com/kml/ext/2.2" 
     xmlns:kml="http://www.opengis.net/kml/2.2"
     xmlns:atom="http://www.w3.org/2005/Atom"> 
  <Document> 
    <name>gps_traj.kml</name> 
    <Placemark> 
      <name>Trajectoire</name> 
      <LineString> 
        <tessellate>1</tessellate> 
        <coordinates> 
3.43619246,46.34045072,281.118
3.43619247,46.34045072,281.118
3.43619247,46.34045071,281.118
3.43619248,46.34045072,281.121
3.43619248,46.34045073,281.123
3.43619248,46.34045073,281.123
3.43619248,46.34045073,281.124
3.43619248,46.34045072,281.123
3.43619250,46.34045072,281.124
3.43619250,46.34045072,281.125
3.43619251,46.34045072,281.124
3.43619250,46.34045072,281.124
3.43619251,46.34045073,281.124
3.43619250,46.34045073,281.123
3.43619249,46.34045074,281.124
3.43619248,46.34045074,281.125
3.43619248,46.34045075,281.126
3.43619248,46.34045074,281.125
3.43619242,46.34045077,281.125
3.43619217,46.34045089,281.128
3.43619179,46.34045112,281.131
3.43619124,46.34045143,281.135
3.43619042,46.34045182,281.138
3.43618934,46.34045223,281.146
3.43618813,46.34045265,281.14
3.43618685,46.34045302,281.139
3.43618559,46.34045332,281.139
3.43618418,46.34045358,281.136
3.43618285,46.34045388,281.134
3.43618158,46.34045429,281.126
3.43618026,46.34045482,281.134
3.43617914,46.34045540,281.144
3.43617812,46.34045609,281.145
3.43617703,46.34045677,281.151
3.43617574,46.34045726,281.165
3.43617449,46.34045756,281.166
3.43617317,46.34045795,281.159
3.43617182,46.34045832,281.154
3.43617068,46.34045879,281.14
3.43616964,46.34045932,281.146
3.43616856,46.34045994,281.145
3.43616746,46.34046054,281.156
3.43616651,46.34046119,281.157
3.43616550,46.34046176,281.154
3.43616442,46.34046230,281.146
3.43616329,46.34046287,281.134
3.43616219,46.34046349,281.13
3.43616122,46.34046421,281.142
3.43616029,46.34046494,281.151
3.43615945,46.34046562,281.148
3.43615839,46.34046635,281.154
3.43615740,46.34046707,281.159
3.43615639,46.34046782,281.155
3.43615554,46.34046861,281.172
3.43615485,46.34046939,281.165
3.43615418,46.34047032,281.165
3.43615350,46.34047116,281.165
3.43615267,46.34047195,281.164
3.43615188,46.34047286,281.178
3.43615127,46.34047375,281.177
3.43615063,46.34047466,281.176
3.43615009,46.34047559,281.178
3.43614978,46.34047666,281.176
3.43614937,46.34047758,281.184
3.43614894,46.34047851,281.189
3.43614845,46.34047938,281.191
3.43614797,46.34048024,281.193
3.43614718,46.34048097,281.204
3.43614649,46.34048182,281.201
3.43614589,46.34048258,281.201
3.43614528,46.34048341,281.204
3.43614492,46.34048429,281.203
3.43614465,46.34048518,281.206
3.43614439,46.34048600,281.213
3.43614417,46.34048683,281.215
3.43614404,46.34048767,281.227
3.43614397,46.34048852,281.227
3.43614383,46.34048935,281.228
3.43614344,46.34049017,281.226
3.43614274,46.34049093,281.228
3.43614201,46.34049164,281.222
3.43614150,46.34049247,281.218
3.43614104,46.34049328,281.227
3.43614093,46.34049421,281.228
3.43614091,46.34049515,281.243
3.43614093,46.34049611,281.26
3.43614097,46.34049709,281.268
3.43614081,46.34049803,281.265
3.43614039,46.34049883,281.259
3.43613973,46.34049966,281.255
3.43613909,46.34050042,281.261
3.43613846,46.34050119,281.259
3.43613777,46.34050200,281.263
3.43613719,46.34050285,281.263
3.43613661,46.34050372,281.254
3.43613585,46.34050458,281.253
3.43613517,46.34050535,281.259
3.43613475,46.34050621,281.252
3.43613432,46.34050706,281.257
3.43613395,46.34050788,281.264
3.43613355,46.34050875,281.262
3.43613322,46.34050964,281.264
3.43613284,46.34051060,281.267
3.43613262,46.34051151,281.28
3.43613233,46.34051244,281.278
3.43613220,46.34051339,281.27
3.43613198,46.34051426,281.273
3.43613181,46.34051513,281.278
3.43613160,46.34051598,281.282
3.43613127,46.34051679,281.283
3.43613101,46.34051767,281.286
3.43613085,46.34051845,281.286
3.43613059,46.34051924,281.277
3.43613030,46.34052006,281.279
3.43612982,46.34052089,281.278
3.43612942,46.34052171,281.27
3.43612910,46.34052249,281.265
3.43612870,46.34052339,281.268
3.43612848,46.34052422,281.274
3.43612833,46.34052511,281.28
3.43612813,46.34052599,281.274
3.43612787,46.34052684,281.286
3.43612751,46.34052767,281.29
3.43612709,46.34052842,281.283
3.43612665,46.34052931,281.291
3.43612615,46.34053007,281.284
3.43612575,46.34053085,281.291
3.43612557,46.34053172,281.298
3.43612552,46.34053268,281.292
3.43612534,46.34053360,281.301
3.43612521,46.34053448,281.303
3.43612504,46.34053545,281.307
3.43612470,46.34053634,281.315
3.43612443,46.34053718,281.326
3.43612438,46.34053808,281.317
3.43612413,46.34053898,281.315
3.43612378,46.34053978,281.314
3.43612344,46.34054064,281.304
3.43612314,46.34054153,281.297
3.43612296,46.34054235,281.304
3.43612278,46.34054321,281.314
3.43612276,46.34054417,281.309
3.43612271,46.34054511,281.313
3.43612276,46.34054606,281.323
3.43612303,46.34054708,281.316
3.43612304,46.34054799,281.335
3.43612309,46.34054898,281.331
3.43612307,46.34054974,281.308
3.43612305,46.34055067,281.305
3.43612316,46.34055152,281.309
3.43612318,46.34055247,281.29
3.43612303,46.34055341,281.298
3.43612292,46.34055439,281.309
3.43612310,46.34055526,281.313
3.43612339,46.34055604,281.308
3.43612376,46.34055681,281.311
3.43612396,46.34055770,281.313
3.43612398,46.34055840,281.319
3.43612382,46.34055931,281.325
3.43612345,46.34056020,281.331
3.43612340,46.34056094,281.322
3.43612351,46.34056176,281.329
3.43612367,46.34056250,281.333
3.43612398,46.34056335,281.344
3.43612417,46.34056409,281.335
3.43612421,46.34056481,281.342
3.43612413,46.34056568,281.341
3.43612403,46.34056647,281.305
3.43612383,46.34056731,281.306
3.43612354,46.34056818,281.314
3.43612334,46.34056900,281.315
3.43612344,46.34056982,281.332
3.43612341,46.34057060,281.343
3.43612327,46.34057155,281.344
3.43612313,46.34057234,281.35
3.43612268,46.34057324,281.347
3.43612177,46.34057394,281.332
3.43612086,46.34057469,281.353
3.43612036,46.34057551,281.356
3.43612013,46.34057638,281.353
3.43612008,46.34057721,281.353
3.43612017,46.34057804,281.349
3.43612054,46.34057925,281.373
3.43612058,46.34058003,281.37
3.43612051,46.34058094,281.375
3.43612025,46.34058176,281.375
3.43611987,46.34058247,281.375
3.43611928,46.34058308,281.397
3.43611897,46.34058388,281.393
3.43611874,46.34058477,281.404
3.43611873,46.34058565,281.403
3.43611892,46.34058662,281.409
3.43611918,46.34058765,281.394
3.43611908,46.34058851,281.396
3.43611898,46.34058940,281.389
3.43611869,46.34059025,281.393
3.43611842,46.34059114,281.383
3.43611797,46.34059200,281.393
3.43611774,46.34059289,281.399
3.43611743,46.34059378,281.392
3.43611724,46.34059482,281.395
3.43611709,46.34059568,281.39
3.43611693,46.34059665,281.386
3.43611661,46.34059760,281.409
3.43611653,46.34059848,281.397
3.43611638,46.34059941,281.391
3.43611623,46.34060035,281.401
3.43611633,46.34060117,281.401
3.43611640,46.34060209,281.413
3.43611634,46.34060282,281.43
3.43611633,46.34060355,281.42
3.43611623,46.34060427,281.426
3.43611624,46.34060501,281.408
3.43611622,46.34060565,281.41
3.43611636,46.34060628,281.401
3.43611652,46.34060711,281.398
3.43611665,46.34060801,281.409
3.43611668,46.34060881,281.413
3.43611663,46.34060946,281.415
3.43611637,46.34061015,281.401
3.43611603,46.34061091,281.39
3.43611581,46.34061175,281.4
3.43611549,46.34061275,281.393
3.43611538,46.34061372,281.387
3.43611513,46.34061449,281.382
3.43611476,46.34061515,281.395
3.43611462,46.34061590,281.386
3.43611463,46.34061661,281.366
3.43611446,46.34061747,281.368
3.43611413,46.34061835,281.373
3.43611378,46.34061909,281.374
3.43611335,46.34061982,281.366
3.43611284,46.34062067,281.369
3.43611269,46.34062148,281.394
3.43611303,46.34062228,281.416
3.43611362,46.34062307,281.436
3.43611453,46.34062393,281.462
3.43611554,46.34062472,281.497
3.43611632,46.34062550,281.51
3.43611697,46.34062640,281.511
3.43611703,46.34062717,281.529
3.43611690,46.34062790,281.529
3.43611667,46.34062831,281.528
3.43611594,46.34062888,281.512
3.43611510,46.34062941,281.515
3.43611434,46.34063005,281.513
3.43611385,46.34063077,281.488
3.43611329,46.34063164,281.508
3.43611297,46.34063263,281.519
3.43611231,46.34063340,281.514
3.43611128,46.34063410,281.511
3.43611012,46.34063466,281.472
3.43610909,46.34063544,281.471
3.43610843,46.34063623,281.468
3.43610807,46.34063696,281.485
3.43610856,46.34063778,281.501
3.43610960,46.34063849,281.516
3.43611049,46.34063926,281.535
3.43611097,46.34064002,281.549
3.43611101,46.34064077,281.544
3.43611068,46.34064154,281.54
3.43611023,46.34064239,281.53
3.43610996,46.34064309,281.537
3.43610993,46.34064392,281.541
3.43611016,46.34064483,281.547
3.43611032,46.34064578,281.567
3.43611038,46.34064678,281.579
3.43611020,46.34064769,281.589
3.43610993,46.34064863,281.584
3.43610961,46.34064957,281.592
3.43610938,46.34065044,281.58
3.43610911,46.34065136,281.584
3.43610881,46.34065233,281.586
3.43610852,46.34065330,281.587
3.43610818,46.34065420,281.589
3.43610798,46.34065512,281.607
3.43610783,46.34065604,281.616
3.43610795,46.34065682,281.616
3.43610824,46.34065767,281.617
3.43610840,46.34065860,281.641
3.43610840,46.34065946,281.643
3.43610837,46.34066028,281.651
3.43610846,46.34066102,281.651
3.43610836,46.34066194,281.658
3.43610817,46.34066284,281.663
3.43610799,46.34066367,281.653
3.43610783,46.34066446,281.642
3.43610760,46.34066531,281.629
3.43610742,46.34066624,281.61
3.43610713,46.34066718,281.607
3.43610699,46.34066806,281.602
3.43610682,46.34066890,281.603
3.43610665,46.34066971,281.606
3.43610634,46.34067048,281.606
3.43610604,46.34067123,281.598
3.43610565,46.34067201,281.601
3.43610534,46.34067273,281.6
3.43610506,46.34067346,281.593
3.43610514,46.34067417,281.6
3.43610547,46.34067486,281.602
3.43610582,46.34067571,281.618
3.43610599,46.34067642,281.623
3.43610594,46.34067714,281.623
3.43610558,46.34067786,281.621
3.43610494,46.34067851,281.617
3.43610427,46.34067919,281.606
3.43610365,46.34067998,281.595
3.43610324,46.34068081,281.586
3.43610292,46.34068171,281.6
3.43610292,46.34068257,281.608
3.43610312,46.34068354,281.601
3.43610322,46.34068454,281.606
3.43610347,46.34068541,281.618
3.43610355,46.34068637,281.636
3.43610339,46.34068730,281.637
3.43610306,46.34068836,281.652
3.43610284,46.34068930,281.664
3.43610250,46.34069020,281.668
3.43610221,46.34069111,281.662
3.43610233,46.34069199,281.688
3.43610272,46.34069290,281.697
3.43610308,46.34069381,281.722
3.43610352,46.34069473,281.726
3.43610381,46.34069563,281.744
3.43610392,46.34069653,281.754
3.43610378,46.34069728,281.761
3.43610342,46.34069812,281.772
3.43610303,46.34069883,281.775
3.43610264,46.34069950,281.771
3.43610223,46.34070023,281.768
3.43610196,46.34070105,281.767
3.43610170,46.34070194,281.757
3.43610133,46.34070278,281.755
3.43610069,46.34070355,281.75
3.43610009,46.34070442,281.751
3.43609961,46.34070529,281.74
3.43609914,46.34070607,281.727
3.43609873,46.34070697,281.713
3.43609856,46.34070797,281.715
3.43609852,46.34070871,281.712
3.43609838,46.34070967,281.717
3.43609842,46.34071050,281.723
3.43609872,46.34071141,281.732
3.43609938,46.34071242,281.746
3.43609995,46.34071337,281.755
3.43610021,46.34071438,281.764
3.43610024,46.34071522,281.765
3.43609997,46.34071599,281.775
3.43609929,46.34071656,281.772
3.43609867,46.34071728,281.773
3.43609831,46.34071790,281.779
3.43609822,46.34071867,281.782
3.43609818,46.34071952,281.796
3.43609814,46.34072041,281.794
3.43609788,46.34072120,281.804
3.43609745,46.34072195,281.802
3.43609681,46.34072267,281.791
3.43609599,46.34072349,281.786
3.43609538,46.34072434,281.789
3.43609484,46.34072508,281.779
3.43609424,46.34072592,281.771
3.43609364,46.34072686,281.774
3.43609308,46.34072770,281.769
3.43609273,46.34072861,281.773
3.43609256,46.34072960,281.779
3.43609241,46.34073061,281.782
3.43609233,46.34073165,281.785
3.43609222,46.34073256,281.788
3.43609207,46.34073343,281.793
3.43609175,46.34073430,281.797
3.43609113,46.34073522,281.802
3.43609039,46.34073602,281.795
3.43608973,46.34073683,281.788
3.43608919,46.34073771,281.783
3.43608892,46.34073864,281.787
3.43608894,46.34073959,281.798
3.43608911,46.34074047,281.809
3.43608927,46.34074143,281.813
3.43608930,46.34074229,281.799
3.43608920,46.34074314,281.8
3.43608909,46.34074400,281.8
3.43608905,46.34074481,281.798
3.43608908,46.34074561,281.8
3.43608913,46.34074644,281.799
3.43608906,46.34074731,281.796
3.43608889,46.34074813,281.787
3.43608867,46.34074898,281.78
3.43608851,46.34074979,281.777
3.43608859,46.34075064,281.785
3.43608872,46.34075143,281.794
3.43608885,46.34075220,281.797
3.43608889,46.34075297,281.8
3.43608884,46.34075371,281.799
3.43608861,46.34075444,281.798
3.43608833,46.34075511,281.792
3.43608808,46.34075587,281.781
3.43608790,46.34075666,281.776
3.43608784,46.34075751,281.782
3.43608788,46.34075832,281.784
3.43608797,46.34075912,281.79
3.43608795,46.34075999,281.786
3.43608791,46.34076082,281.797
3.43608778,46.34076164,281.794
3.43608752,46.34076254,281.803
3.43608723,46.34076341,281.805
3.43608709,46.34076424,281.813
3.43608710,46.34076512,281.818
3.43608705,46.34076597,281.816
3.43608697,46.34076687,281.816
3.43608678,46.34076778,281.816
3.43608661,46.34076853,281.82
3.43608640,46.34076941,281.823
3.43608610,46.34077034,281.825
3.43608587,46.34077118,281.83
3.43608593,46.34077205,281.836
3.43608594,46.34077293,281.845
3.43608597,46.34077386,281.856
3.43608609,46.34077472,281.859
3.43608620,46.34077565,281.865
3.43608634,46.34077659,281.865
3.43608638,46.34077755,281.867
3.43608634,46.34077852,281.875
3.43608621,46.34077944,281.866
3.43608620,46.34078037,281.872
3.43608629,46.34078126,281.877
3.43608647,46.34078211,281.88
3.43608671,46.34078300,281.886
3.43608692,46.34078383,281.888
3.43608706,46.34078470,281.89
3.43608711,46.34078553,281.893
3.43608720,46.34078635,281.898
3.43608729,46.34078724,281.901
3.43608746,46.34078816,281.903
3.43608770,46.34078906,281.902
3.43608797,46.34079004,281.908
3.43608781,46.34079100,281.917
3.43608762,46.34079185,281.919
3.43608733,46.34079265,281.921
3.43608716,46.34079353,281.916
3.43608719,46.34079445,281.916
3.43608750,46.34079535,281.918
3.43608795,46.34079620,281.925
3.43608830,46.34079705,281.942
3.43608851,46.34079788,281.948
3.43608849,46.34079874,281.942
3.43608830,46.34079958,281.941
3.43608817,46.34080049,281.937
3.43608822,46.34080135,281.941
3.43608844,46.34080218,281.949
3.43608881,46.34080298,281.956
3.43608906,46.34080384,281.959
3.43608921,46.34080471,281.96
3.43608923,46.34080558,281.968
3.43608921,46.34080642,281.965
3.43608902,46.34080730,281.957
3.43608865,46.34080829,281.947
3.43608833,46.34080919,281.943
3.43608807,46.34081017,281.943
3.43608801,46.34081108,281.946
3.43608821,46.34081194,281.943
3.43608858,46.34081286,281.945
3.43608908,46.34081386,281.957
3.43608940,46.34081482,281.973
3.43608952,46.34081581,281.981
3.43608947,46.34081671,281.985
3.43608936,46.34081764,281.986
3.43608925,46.34081867,281.988
3.43608924,46.34081970,281.992
3.43608932,46.34082072,281.989
3.43608949,46.34082163,281.997
3.43608964,46.34082259,282.007
3.43608960,46.34082355,282.012
3.43608946,46.34082434,282.007
3.43608920,46.34082512,282.001
3.43608902,46.34082606,281.998
3.43608896,46.34082699,282.001
3.43608914,46.34082786,282.003
3.43608947,46.34082866,282.004
3.43608974,46.34082948,282.009
3.43608973,46.34083031,282.004
3.43608950,46.34083118,281.998
3.43608915,46.34083195,281.99
3.43608877,46.34083269,281.973
3.43608862,46.34083364,281.961
3.43608866,46.34083456,281.967
3.43608893,46.34083541,281.97
3.43608920,46.34083627,281.969
3.43608940,46.34083723,281.959
3.43608972,46.34083809,281.95
3.43609019,46.34083902,281.952
3.43609046,46.34084002,281.965
3.43609062,46.34084088,281.963
3.43609055,46.34084168,281.957
3.43609021,46.34084250,281.951
3.43608988,46.34084332,281.952
3.43608976,46.34084413,281.945
3.43608989,46.34084498,281.945
3.43609006,46.34084584,281.944
3.43609017,46.34084674,281.947
3.43609017,46.34084759,281.952
3.43609022,46.34084833,281.957
3.43609035,46.34084908,281.955
3.43609042,46.34084987,281.958
3.43609053,46.34085068,281.962
3.43609048,46.34085141,281.955
3.43609024,46.34085217,281.947
3.43608979,46.34085305,281.942
3.43608968,46.34085389,281.938
3.43608988,46.34085464,281.942
3.43609019,46.34085546,281.944
3.43609052,46.34085644,281.945
3.43609072,46.34085736,281.947
3.43609072,46.34085824,281.951
3.43609038,46.34085915,281.941
3.43608993,46.34085995,281.933
3.43608957,46.34086076,281.924
3.43608946,46.34086159,281.928
3.43608963,46.34086233,281.919
3.43609000,46.34086318,281.927
3.43609036,46.34086399,281.937
3.43609056,46.34086475,281.933
3.43609052,46.34086547,281.938
3.43609022,46.34086619,281.936
3.43608993,46.34086684,281.941
3.43608949,46.34086753,281.942
3.43608905,46.34086819,281.93
3.43608855,46.34086890,281.925
3.43608824,46.34086964,281.922
3.43608808,46.34087044,281.928
3.43608796,46.34087122,281.926
3.43608777,46.34087203,281.925
3.43608746,46.34087278,281.923
3.43608709,46.34087356,281.916
3.43608664,46.34087438,281.916
3.43608616,46.34087511,281.913
3.43608578,46.34087574,281.916
3.43608539,46.34087643,281.909
3.43608495,46.34087722,281.904
3.43608450,46.34087802,281.904
3.43608405,46.34087889,281.909
3.43608379,46.34087966,281.906
3.43608342,46.34088046,281.901
3.43608299,46.34088122,281.902
3.43608249,46.34088199,281.9
3.43608211,46.34088277,281.899
3.43608190,46.34088363,281.905
3.43608166,46.34088451,281.915
3.43608142,46.34088531,281.909
3.43608124,46.34088606,281.911
3.43608120,46.34088688,281.915
3.43608114,46.34088778,281.925
3.43608109,46.34088868,281.932
3.43608109,46.34088962,281.942
3.43608106,46.34089058,281.952
3.43608083,46.34089152,281.961
3.43608040,46.34089236,281.961
3.43607982,46.34089318,281.963
3.43607914,46.34089399,281.965
3.43607850,46.34089471,281.961
3.43607787,46.34089541,281.962
3.43607752,46.34089627,281.959
3.43607746,46.34089710,281.968
3.43607730,46.34089787,281.97
3.43607696,46.34089866,281.973
3.43607654,46.34089943,281.978
3.43607602,46.34090020,281.98
3.43607540,46.34090089,281.974
3.43607481,46.34090153,281.978
3.43607438,46.34090224,281.975
3.43607405,46.34090304,281.982
3.43607378,46.34090392,281.993
3.43607340,46.34090475,281.999
3.43607294,46.34090549,281.997
3.43607254,46.34090630,281.994
3.43607210,46.34090716,281.995
3.43607170,46.34090797,282.002
3.43607117,46.34090870,281.997
3.43607054,46.34090949,281.98
3.43606974,46.34091030,281.973
3.43606910,46.34091117,281.975
3.43606856,46.34091195,281.984
3.43606809,46.34091270,281.985
3.43606754,46.34091346,281.995
3.43606689,46.34091421,281.991
3.43606625,46.34091497,281.992
3.43606559,46.34091569,281.994
3.43606499,46.34091645,281.995
3.43606447,46.34091715,281.994
3.43606398,46.34091793,281.994
3.43606357,46.34091880,281.997
3.43606309,46.34091963,282.006
3.43606259,46.34092050,282.009
3.43606207,46.34092133,282.006
3.43606141,46.34092213,282.007
3.43606073,46.34092287,282.004
3.43606007,46.34092362,282.0
3.43605948,46.34092442,282.004
3.43605899,46.34092519,282.018
3.43605861,46.34092593,282.024
3.43605825,46.34092667,282.018
3.43605774,46.34092739,282.01
3.43605720,46.34092810,282.01
3.43605656,46.34092887,282.022
3.43605601,46.34092958,282.019
3.43605544,46.34093026,282.024
3.43605474,46.34093088,282.017
3.43605419,46.34093153,282.017
3.43605368,46.34093223,282.006
3.43605333,46.34093301,282.011
3.43605322,46.34093383,282.021
3.43605316,46.34093477,282.023
3.43605287,46.34093565,282.029
3.43605236,46.34093638,282.028
3.43605157,46.34093701,282.019
3.43605056,46.34093759,282.008
3.43604932,46.34093817,281.991
3.43604825,46.34093880,281.992
3.43604757,46.34093953,281.986
3.43604713,46.34094033,281.987
3.43604688,46.34094117,281.993
3.43604652,46.34094210,282.005
3.43604605,46.34094296,282.016
3.43604544,46.34094367,282.022
3.43604474,46.34094431,282.016
3.43604408,46.34094500,282.01
3.43604342,46.34094573,282.015
3.43604295,46.34094652,282.025
3.43604258,46.34094732,282.031
3.43604220,46.34094808,282.037
3.43604169,46.34094880,282.041
3.43604096,46.34094944,282.044
3.43604013,46.34095014,282.045
3.43603946,46.34095081,282.031
3.43603868,46.34095149,282.034
3.43603794,46.34095221,282.032
3.43603736,46.34095294,282.032
3.43603700,46.34095371,282.035
3.43603673,46.34095454,282.041
3.43603620,46.34095531,282.043
3.43603549,46.34095602,282.047
3.43603466,46.34095664,282.041
3.43603388,46.34095730,282.042
3.43603314,46.34095803,282.044
3.43603234,46.34095882,282.051
3.43603169,46.34095961,282.056
3.43603116,46.34096031,282.053
3.43603063,46.34096102,282.052
3.43603013,46.34096179,282.05
3.43602958,46.34096263,282.049
3.43602888,46.34096343,282.053
3.43602828,46.34096417,282.061
3.43602761,46.34096495,282.067
3.43602682,46.34096565,282.068
3.43602599,46.34096627,282.065
3.43602527,46.34096701,282.069
3.43602468,46.34096778,282.067
3.43602414,46.34096857,282.082
3.43602366,46.34096944,282.092
3.43602322,46.34097036,282.095
3.43602256,46.34097114,282.1
3.43602180,46.34097188,282.099
3.43602094,46.34097252,282.101
3.43602002,46.34097312,282.098
3.43601923,46.34097378,282.094
3.43601856,46.34097446,282.089
3.43601799,46.34097522,282.088
3.43601744,46.34097600,282.091
3.43601678,46.34097680,282.095
3.43601608,46.34097750,282.097
3.43601546,46.34097823,282.098
3.43601479,46.34097895,282.094
3.43601391,46.34097963,282.09
3.43601308,46.34098031,282.088
3.43601252,46.34098098,282.089
3.43601203,46.34098176,282.096
3.43601153,46.34098252,282.099
3.43601096,46.34098333,282.104
3.43601038,46.34098405,282.114
3.43600983,46.34098480,282.118
3.43600921,46.34098550,282.121
3.43600856,46.34098615,282.116
3.43600781,46.34098685,282.12
3.43600708,46.34098752,282.121
3.43600633,46.34098801,282.12
3.43600549,46.34098853,282.116
3.43600474,46.34098901,282.118
3.43600396,46.34098952,282.123
3.43600325,46.34099003,282.121
3.43600237,46.34099053,282.119
3.43600156,46.34099099,282.116
3.43600083,46.34099140,282.115
3.43600002,46.34099188,282.123
3.43599915,46.34099232,282.127
3.43599834,46.34099284,282.135
3.43599748,46.34099338,282.14
3.43599647,46.34099385,282.142
3.43599555,46.34099420,282.139
3.43599469,46.34099466,282.128
3.43599386,46.34099522,282.123
3.43599303,46.34099588,282.132
3.43599213,46.34099653,282.134
3.43599121,46.34099716,282.134
3.43599014,46.34099776,282.142
3.43598922,46.34099840,282.138
3.43598813,46.34099887,282.136
3.43598699,46.34099930,282.137
3.43598589,46.34099966,282.124
3.43598477,46.34099999,282.112
3.43598363,46.34100045,282.1
3.43598256,46.34100089,282.111
3.43598151,46.34100145,282.109
3.43598056,46.34100206,282.11
3.43597949,46.34100264,282.131
3.43597860,46.34100329,282.129
3.43597763,46.34100391,282.14
3.43597652,46.34100450,282.151
3.43597543,46.34100511,282.147
3.43597441,46.34100561,282.151
3.43597332,46.34100616,282.148
3.43597226,46.34100677,282.152
3.43597124,46.34100742,282.148
3.43597032,46.34100807,282.163
3.43596943,46.34100870,282.172
3.43596857,46.34100935,282.182
3.43596775,46.34101010,282.185
3.43596688,46.34101079,282.196
3.43596597,46.34101135,282.195
3.43596501,46.34101183,282.184
3.43596400,46.34101227,282.187
3.43596304,46.34101266,282.183
3.43596211,46.34101310,282.181
3.43596125,46.34101363,282.184
3.43596059,46.34101436,282.195
3.43595982,46.34101508,282.193
3.43595911,46.34101590,282.192
3.43595836,46.34101672,282.198
3.43595744,46.34101738,282.199
3.43595633,46.34101792,282.198
3.43595515,46.34101840,282.188
3.43595400,46.34101887,282.18
3.43595292,46.34101938,282.169
3.43595189,46.34101991,282.167
3.43595090,46.34102072,282.171
3.43594997,46.34102150,282.169
3.43594904,46.34102221,282.174
3.43594802,46.34102276,282.168
3.43594692,46.34102335,282.167
3.43594581,46.34102392,282.16
3.43594482,46.34102452,282.158
3.43594410,46.34102520,282.165
3.43594343,46.34102599,282.174
3.43594278,46.34102686,282.188
3.43594212,46.34102769,282.196
3.43594146,46.34102841,282.201
3.43594063,46.34102904,282.202
3.43593974,46.34102962,282.193
3.43593890,46.34103019,282.195
3.43593807,46.34103073,282.189
3.43593726,46.34103135,282.188
3.43593651,46.34103202,282.197
3.43593574,46.34103263,282.197
3.43593493,46.34103332,282.197
3.43593415,46.34103399,282.194
3.43593346,46.34103467,282.189
3.43593263,46.34103534,282.184
3.43593159,46.34103590,282.178
3.43593049,46.34103648,282.184
3.43592945,46.34103693,282.188
3.43592850,46.34103736,282.181
3.43592768,46.34103792,282.17
3.43592695,46.34103862,282.178
3.43592621,46.34103939,282.18
3.43592548,46.34104006,282.184
3.43592475,46.34104079,282.185
3.43592394,46.34104144,282.185
3.43592304,46.34104198,282.185
3.43592197,46.34104250,282.186
3.43592091,46.34104298,282.18
3.43591992,46.34104338,282.178
3.43591901,46.34104382,282.175
3.43591810,46.34104434,282.18
3.43591719,46.34104483,282.184
3.43591620,46.34104533,282.18
3.43591518,46.34104589,282.178
3.43591422,46.34104635,282.178
3.43591321,46.34104683,282.173
3.43591226,46.34104730,282.164
3.43591130,46.34104785,282.163
3.43591046,46.34104850,282.161
3.43590983,46.34104922,282.166
3.43590900,46.34104995,282.176
3.43590823,46.34105060,282.181
3.43590744,46.34105120,282.188
3.43590663,46.34105184,282.181
3.43590579,46.34105249,282.188
3.43590496,46.34105306,282.188
3.43590412,46.34105364,282.189
3.43590328,46.34105421,282.188
3.43590241,46.34105467,282.186
3.43590141,46.34105519,282.182
3.43590033,46.34105554,282.177
3.43589922,46.34105585,282.175
3.43589812,46.34105619,282.174
3.43589719,46.34105667,282.173
3.43589648,46.34105731,282.178
3.43589589,46.34105806,282.176
3.43589526,46.34105888,282.191
3.43589441,46.34105958,282.196
3.43589346,46.34106014,282.2
3.43589259,46.34106062,282.197
3.43589162,46.34106111,282.195
3.43589060,46.34106166,282.195
3.43588966,46.34106224,282.203
3.43588877,46.34106291,282.204
3.43588790,46.34106355,282.212
3.43588687,46.34106416,282.211
3.43588591,46.34106476,282.217
3.43588504,46.34106529,282.216
3.43588417,46.34106583,282.218
3.43588331,46.34106634,282.227
3.43588244,46.34106680,282.222
3.43588170,46.34106720,282.228
3.43588110,46.34106755,282.233
3.43588078,46.34106778,282.238
3.43588069,46.34106794,282.241
3.43588074,46.34106805,282.24
3.43588079,46.34106806,282.243
3.43588081,46.34106802,282.237
3.43588077,46.34106800,282.236
3.43588076,46.34106798,282.24
3.43588076,46.34106799,282.238
3.43588079,46.34106801,282.237
3.43588078,46.34106802,282.238
3.43588076,46.34106801,282.236
3.43588076,46.34106800,282.238
3.43588076,46.34106799,282.239
3.43588079,46.34106800,282.238
3.43588079,46.34106801,282.238
3.43588079,46.34106800,282.236
3.43588078,46.34106798,282.236
3.43588078,46.34106798,282.237
3.43588078,46.34106799,282.237
3.43588077,46.34106799,282.238
3.43588076,46.34106800,282.236
3.43588076,46.34106800,282.235
3.43588078,46.34106800,282.236
3.43588078,46.34106800,282.237
3.43588078,46.34106799,282.235
3.43588078,46.34106800,282.236
3.43588077,46.34106800,282.238
3.43588077,46.34106800,282.238
3.43588078,46.34106800,282.239
3.43588077,46.34106799,282.24
3.43588077,46.34106799,282.24
3.43588077,46.34106799,282.238
3.43588077,46.34106800,282.239
3.43588077,46.34106800,282.239
3.43588076,46.34106800,282.239
3.43588077,46.34106799,282.24
3.43588077,46.34106799,282.24
3.43588076,46.34106799,282.241
3.43588076,46.34106799,282.24
3.43588077,46.34106800,282.24
3.43588077,46.34106801,282.241
3.43588077,46.34106800,282.241
3.43588078,46.34106800,282.24
3.43588078,46.34106801,282.241
3.43588078,46.34106802,282.24
3.43588079,46.34106801,282.241
3.43588080,46.34106800,282.241
3.43588079,46.34106800,282.241
3.43588080,46.34106800,282.241
3.43588080,46.34106800,282.243
3.43588080,46.34106800,282.242
3.43588079,46.34106800,282.244
3.43588079,46.34106801,282.243
3.43588080,46.34106800,282.244
3.43588080,46.34106800,282.242
3.43588080,46.34106800,282.243
3.43588081,46.34106800,282.242
3.43588081,46.34106800,282.241
3.43588081,46.34106800,282.241
3.43588081,46.34106800,282.241
3.43588081,46.34106800,282.243
3.43588081,46.34106800,282.242
3.43588081,46.34106800,282.24
3.43588081,46.34106801,282.241
3.43588082,46.34106800,282.239
3.43588081,46.34106800,282.241
        </coordinates> 
      </LineString> 
    </Placemark> 
  </Document> 
</kml> 
