<?xml version="1.0" encoding="UTF-8"?> 
<kml xmlns="http://www.opengis.net/kml/2.2" 
     xmlns:gx="http://www.google.com/kml/ext/2.2" 
     xmlns:kml="http://www.opengis.net/kml/2.2"
     xmlns:atom="http://www.w3.org/2005/Atom"> 
  <Document> 
    <name>gps_traj.kml</name> 
    <Placemark> 
      <name>Trajectoire</name> 
      <LineString> 
        <tessellate>1</tessellate> 
        <coordinates> 
3.10994317,45.76274285,407.226
3.10994317,45.76274284,407.224
3.10994317,45.76274285,407.223
3.10994317,45.76274284,407.222
3.10994318,45.76274285,407.223
3.10994315,45.76274286,407.224
3.10994316,45.76274286,407.225
3.10994317,45.76274287,407.226
3.10994315,45.76274287,407.226
3.10994316,45.76274287,407.225
3.10994316,45.76274289,407.224
3.10994334,45.76274300,407.224
3.10994369,45.76274322,407.225
3.10994421,45.76274352,407.229
3.10994493,45.76274403,407.226
3.10994578,45.76274465,407.234
3.10994690,45.76274537,407.229
3.10994827,45.76274619,407.23
3.10994987,45.76274712,407.232
3.10995174,45.76274820,407.236
3.10995363,45.76274937,407.23
3.10995556,45.76275065,407.235
3.10995758,45.76275197,407.232
3.10995977,45.76275332,407.227
3.10996186,45.76275465,407.228
3.10996403,45.76275599,407.228
3.10996620,45.76275741,407.223
3.10996843,45.76275872,407.223
3.10997075,45.76275993,407.227
3.10997300,45.76276116,407.223
3.10997531,45.76276240,407.226
3.10997755,45.76276360,407.224
3.10997975,45.76276470,407.232
3.10998202,45.76276582,407.22
3.10998427,45.76276691,407.226
3.10998636,45.76276791,407.223
3.10998846,45.76276898,407.216
3.10999052,45.76277006,407.215
3.10999258,45.76277111,407.211
3.10999464,45.76277219,407.212
3.10999675,45.76277329,407.212
3.10999866,45.76277433,407.206
3.11000068,45.76277543,407.199
3.11000278,45.76277652,407.199
3.11000461,45.76277749,407.205
3.11000665,45.76277857,407.207
3.11000876,45.76277968,407.202
3.11001070,45.76278074,407.206
3.11001279,45.76278182,407.189
3.11001497,45.76278283,407.183
3.11001712,45.76278386,407.187
3.11001921,45.76278458,407.174
3.11002158,45.76278558,407.184
3.11002384,45.76278662,407.174
3.11002605,45.76278765,407.178
3.11002837,45.76278864,407.181
3.11003065,45.76278957,407.166
3.11003306,45.76279034,407.184
3.11003547,45.76279100,407.181
3.11003801,45.76279151,407.18
3.11004065,45.76279226,407.192
3.11004306,45.76279291,407.191
3.11004534,45.76279366,407.189
3.11004763,45.76279453,407.19
3.11004990,45.76279524,407.181
3.11005227,45.76279600,407.183
3.11005469,45.76279670,407.178
3.11005682,45.76279725,407.178
3.11005935,45.76279771,407.181
3.11006164,45.76279815,407.181
3.11006380,45.76279878,407.178
3.11006622,45.76279967,407.163
3.11006812,45.76280031,407.165
3.11007033,45.76280098,407.153
3.11007276,45.76280166,407.156
3.11007462,45.76280242,407.151
3.11007690,45.76280314,407.125
3.11007937,45.76280385,407.142
3.11008120,45.76280431,407.147
3.11008349,45.76280494,407.157
3.11008595,45.76280570,407.161
3.11008787,45.76280628,407.147
3.11009016,45.76280699,407.161
3.11009245,45.76280785,407.156
3.11009454,45.76280859,407.146
3.11009689,45.76280929,407.155
3.11009912,45.76281001,407.167
3.11010119,45.76281068,407.159
3.11010339,45.76281163,407.149
3.11010551,45.76281247,407.161
3.11010780,45.76281326,407.168
3.11010999,45.76281386,407.168
3.11011236,45.76281438,407.18
3.11011491,45.76281503,407.178
3.11011733,45.76281557,407.161
3.11011960,45.76281638,407.147
3.11012163,45.76281736,407.163
3.11012378,45.76281833,407.164
3.11012602,45.76281903,407.15
3.11012828,45.76281968,407.175
3.11013068,45.76282023,407.19
3.11013311,45.76282080,407.185
3.11013553,45.76282147,407.211
3.11013765,45.76282241,407.186
3.11013963,45.76282356,407.176
3.11014159,45.76282463,407.168
3.11014364,45.76282562,407.159
3.11014586,45.76282631,407.162
3.11014818,45.76282692,407.155
3.11015062,45.76282741,407.163
3.11015286,45.76282809,407.174
3.11015523,45.76282886,407.158
3.11015720,45.76282989,407.144
3.11015940,45.76283071,407.14
3.11016153,45.76283159,407.154
3.11016380,45.76283233,407.15
3.11016600,45.76283317,407.154
3.11016815,45.76283415,407.138
3.11017031,45.76283503,407.143
3.11017251,45.76283582,407.153
3.11017469,45.76283670,407.147
3.11017676,45.76283759,407.152
3.11017883,45.76283845,407.14
3.11018097,45.76283932,407.141
3.11018310,45.76284020,407.14
3.11018516,45.76284116,407.134
3.11018740,45.76284194,407.14
3.11018960,45.76284279,407.127
3.11019174,45.76284356,407.125
3.11019400,45.76284448,407.135
3.11019633,45.76284526,407.141
3.11019851,45.76284599,407.131
3.11020087,45.76284686,407.124
3.11020326,45.76284764,407.13
3.11020540,45.76284851,407.118
3.11020776,45.76284926,407.128
3.11021028,45.76284988,407.135
3.11021240,45.76285035,407.141
3.11021487,45.76285111,407.16
3.11021718,45.76285185,407.158
3.11021921,45.76285254,407.161
3.11022153,45.76285336,407.148
3.11022378,45.76285402,407.154
3.11022600,45.76285453,407.138
3.11022859,45.76285528,407.144
3.11023079,45.76285595,407.14
3.11023299,45.76285685,407.135
3.11023539,45.76285771,407.144
3.11023765,45.76285843,407.148
3.11023972,45.76285910,407.139
3.11024238,45.76285973,407.139
3.11024459,45.76286029,407.141
3.11024686,45.76286099,407.133
3.11024929,45.76286178,407.139
3.11025144,45.76286226,407.135
3.11025383,45.76286288,407.131
3.11025613,45.76286364,407.133
3.11025829,45.76286427,407.129
3.11026063,45.76286487,407.124
3.11026303,45.76286542,407.136
3.11026522,45.76286597,407.132
3.11026753,45.76286658,407.114
3.11026982,45.76286726,407.127
3.11027197,45.76286800,407.112
3.11027409,45.76286888,407.116
3.11027630,45.76286952,407.115
3.11027855,45.76287020,407.108
3.11028087,45.76287070,407.117
3.11028327,45.76287131,407.122
3.11028568,45.76287190,407.148
3.11028806,45.76287255,407.144
3.11029039,45.76287319,407.146
3.11029268,45.76287380,407.158
3.11029501,45.76287444,407.149
3.11029733,45.76287506,407.148
3.11029961,45.76287576,407.148
3.11030200,45.76287636,407.145
3.11030423,45.76287692,407.147
3.11030659,45.76287746,407.161
3.11030907,45.76287813,407.161
3.11031132,45.76287864,407.172
3.11031366,45.76287935,407.164
3.11031600,45.76287998,407.157
3.11031837,45.76288063,407.167
3.11032080,45.76288130,407.19
3.11032311,45.76288195,407.168
3.11032545,45.76288266,407.158
3.11032783,45.76288330,407.166
3.11033019,45.76288396,407.152
3.11033243,45.76288459,407.12
3.11033473,45.76288529,407.114
3.11033700,45.76288599,407.102
3.11033934,45.76288660,407.123
3.11034167,45.76288727,407.113
3.11034416,45.76288773,407.147
3.11034644,45.76288830,407.134
3.11034884,45.76288882,407.138
3.11035111,45.76288944,407.14
3.11035335,45.76289023,407.134
3.11035563,45.76289084,407.14
3.11035794,45.76289150,407.137
3.11036033,45.76289208,407.14
3.11036271,45.76289258,407.147
3.11036502,45.76289314,407.142
3.11036753,45.76289376,407.149
3.11036987,45.76289442,407.157
3.11037221,45.76289500,407.154
3.11037448,45.76289570,407.153
3.11037688,45.76289630,407.15
3.11037926,45.76289692,407.155
3.11038151,45.76289756,407.157
3.11038386,45.76289821,407.159
3.11038625,45.76289881,407.155
3.11038856,45.76289930,407.154
3.11039089,45.76289996,407.149
3.11039327,45.76290054,407.146
3.11039555,45.76290119,407.136
3.11039781,45.76290187,407.137
3.11040014,45.76290248,407.135
3.11040247,45.76290307,407.151
3.11040480,45.76290368,407.138
3.11040710,45.76290429,407.144
3.11040935,45.76290495,407.138
3.11041165,45.76290561,407.138
3.11041393,45.76290619,407.132
3.11041628,45.76290669,407.13
3.11041864,45.76290725,407.136
3.11042093,45.76290785,407.133
3.11042323,45.76290853,407.134
3.11042551,45.76290910,407.134
3.11042776,45.76290976,407.129
3.11043010,45.76291044,407.126
3.11043243,45.76291106,407.128
3.11043470,45.76291167,407.121
3.11043698,45.76291232,407.123
3.11043926,45.76291293,407.116
3.11044162,45.76291357,407.109
3.11044402,45.76291417,407.127
3.11044633,45.76291486,407.118
3.11044869,45.76291551,407.126
3.11045102,45.76291609,407.126
3.11045340,45.76291671,407.12
3.11045574,45.76291732,407.121
3.11045810,45.76291792,407.119
3.11046042,45.76291857,407.116
3.11046266,45.76291922,407.111
3.11046496,45.76291988,407.117
3.11046716,45.76292044,407.118
3.11046937,45.76292108,407.11
3.11047150,45.76292170,407.114
3.11047357,45.76292247,407.113
3.11047563,45.76292319,407.113
3.11047761,45.76292400,407.107
3.11047957,45.76292479,407.103
3.11048148,45.76292556,407.114
3.11048352,45.76292643,407.11
3.11048533,45.76292728,407.11
3.11048723,45.76292832,407.106
3.11048915,45.76292935,407.11
3.11049112,45.76293025,407.106
3.11049310,45.76293126,407.113
3.11049510,45.76293225,407.115
3.11049704,45.76293328,407.125
3.11049892,45.76293440,407.116
3.11050074,45.76293549,407.101
3.11050254,45.76293666,407.096
3.11050441,45.76293770,407.093
3.11050617,45.76293875,407.104
3.11050807,45.76293990,407.096
3.11050987,45.76294089,407.118
3.11051139,45.76294196,407.113
3.11051302,45.76294325,407.11
3.11051439,45.76294439,407.112
3.11051582,45.76294563,407.113
3.11051730,45.76294697,407.085
3.11051868,45.76294817,407.091
3.11052014,45.76294947,407.094
3.11052170,45.76295080,407.105
3.11052307,45.76295207,407.105
3.11052433,45.76295348,407.098
3.11052563,45.76295506,407.115
3.11052678,45.76295650,407.104
3.11052790,45.76295809,407.103
3.11052873,45.76295962,407.092
3.11052958,45.76296124,407.088
3.11053046,45.76296287,407.084
3.11053121,45.76296450,407.069
3.11053208,45.76296617,407.054
3.11053320,45.76296772,407.057
3.11053437,45.76296923,407.056
3.11053556,45.76297079,407.044
3.11053684,45.76297231,407.042
3.11053814,45.76297384,407.048
3.11053927,45.76297533,407.045
3.11054011,45.76297705,407.024
3.11054113,45.76297850,407.024
3.11054223,45.76297985,407.027
3.11054318,45.76298144,407.026
3.11054397,45.76298281,407.005
3.11054482,45.76298445,407.009
3.11054561,45.76298618,407.0
3.11054618,45.76298744,406.995
3.11054691,45.76298913,406.991
3.11054758,45.76299081,406.986
3.11054824,45.76299229,406.982
3.11054894,45.76299410,406.985
3.11054954,45.76299576,406.977
3.11055006,45.76299748,406.973
3.11055044,45.76299945,406.975
3.11055078,45.76300117,406.952
3.11055122,45.76300291,406.936
3.11055192,45.76300472,406.934
3.11055235,45.76300652,406.921
3.11055263,45.76300840,406.906
3.11055328,45.76301032,406.907
3.11055422,45.76301194,406.91
3.11055531,45.76301352,406.912
3.11055653,45.76301530,406.914
3.11055775,45.76301688,406.909
3.11055901,45.76301857,406.906
3.11056023,45.76302029,406.89
3.11056133,45.76302198,406.894
3.11056234,45.76302377,406.899
3.11056317,45.76302545,406.881
3.11056387,45.76302718,406.856
3.11056487,45.76302889,406.853
3.11056594,45.76303028,406.849
3.11056731,45.76303174,406.838
3.11056895,45.76303319,406.845
3.11057033,45.76303463,406.861
3.11057155,45.76303615,406.845
3.11057263,45.76303782,406.846
3.11057362,45.76303949,406.832
3.11057465,45.76304103,406.824
3.11057577,45.76304274,406.814
3.11057689,45.76304435,406.806
3.11057815,45.76304596,406.807
3.11057952,45.76304754,406.812
3.11058079,45.76304902,406.796
3.11058225,45.76305047,406.793
3.11058388,45.76305198,406.795
3.11058541,45.76305348,406.798
3.11058682,45.76305491,406.783
3.11058813,45.76305638,406.782
3.11058944,45.76305790,406.77
3.11059072,45.76305952,406.766
3.11059193,45.76306105,406.76
3.11059310,45.76306258,406.741
3.11059423,45.76306417,406.73
3.11059522,45.76306574,406.716
3.11059649,45.76306744,406.704
3.11059773,45.76306880,406.688
3.11059900,45.76307024,406.677
3.11060049,45.76307187,406.671
3.11060196,45.76307331,406.671
3.11060339,45.76307465,406.655
3.11060499,45.76307609,406.654
3.11060657,45.76307756,406.65
3.11060815,45.76307892,406.646
3.11060981,45.76308032,406.65
3.11061137,45.76308162,406.64
3.11061302,45.76308300,406.643
3.11061453,45.76308431,406.65
3.11061591,45.76308569,406.64
3.11061743,45.76308717,406.626
3.11061897,45.76308849,406.623
3.11062076,45.76308969,406.633
3.11062261,45.76309097,406.64
3.11062429,45.76309207,406.62
3.11062597,45.76309348,406.632
3.11062757,45.76309488,406.625
3.11062880,45.76309625,406.612
3.11063021,45.76309783,406.605
3.11063175,45.76309935,406.6
3.11063330,45.76310070,406.602
3.11063502,45.76310199,406.593
3.11063696,45.76310340,406.591
3.11063867,45.76310461,406.592
3.11064054,45.76310589,406.599
3.11064235,45.76310727,406.601
3.11064404,45.76310866,406.587
3.11064585,45.76311016,406.593
3.11064747,45.76311156,406.586
3.11064901,45.76311304,406.57
3.11065060,45.76311470,406.546
3.11065229,45.76311619,406.545
3.11065383,45.76311749,406.527
3.11065566,45.76311889,406.519
3.11065749,45.76312040,406.521
3.11065929,45.76312167,406.509
3.11066133,45.76312297,406.501
3.11066324,45.76312411,406.491
3.11066499,45.76312534,406.479
3.11066684,45.76312682,406.471
3.11066845,45.76312802,406.446
3.11067034,45.76312922,406.439
3.11067253,45.76313043,406.428
3.11067447,45.76313153,406.436
3.11067632,45.76313256,406.421
3.11067816,45.76313373,406.408
3.11067981,45.76313479,406.394
3.11068137,45.76313591,406.372
3.11068324,45.76313708,406.387
3.11068505,45.76313806,406.384
3.11068681,45.76313906,406.371
3.11068860,45.76314014,406.368
3.11069041,45.76314105,406.358
3.11069205,45.76314203,406.345
3.11069377,45.76314331,406.34
3.11069532,45.76314451,406.344
3.11069664,45.76314555,406.339
3.11069842,45.76314669,406.338
3.11070020,45.76314797,406.341
3.11070190,45.76314912,406.338
3.11070382,45.76315013,406.333
3.11070605,45.76315105,406.352
3.11070825,45.76315194,406.364
3.11071048,45.76315288,406.372
3.11071246,45.76315380,406.381
3.11071432,45.76315485,406.376
3.11071599,45.76315619,406.377
3.11071760,45.76315743,406.394
3.11071916,45.76315875,406.376
3.11072070,45.76316009,406.357
3.11072245,45.76316138,406.351
3.11072447,45.76316260,406.354
3.11072631,45.76316367,406.351
3.11072832,45.76316480,406.353
3.11073051,45.76316597,406.357
3.11073245,45.76316708,406.363
3.11073450,45.76316819,406.353
3.11073687,45.76316926,406.373
3.11073900,45.76317023,406.385
3.11074090,45.76317134,406.37
3.11074275,45.76317262,406.368
3.11074446,45.76317388,406.347
3.11074610,45.76317529,406.332
3.11074774,45.76317672,406.334
3.11074943,45.76317792,406.306
3.11075150,45.76317907,406.316
3.11075365,45.76318009,406.312
3.11075580,45.76318103,406.3
3.11075806,45.76318204,406.31
3.11076010,45.76318320,406.312
3.11076192,45.76318431,406.307
3.11076372,45.76318548,406.294
3.11076559,45.76318684,406.289
3.11076730,45.76318804,406.29
3.11076898,45.76318925,406.277
3.11077084,45.76319049,406.283
3.11077264,45.76319160,406.273
3.11077456,45.76319281,406.272
3.11077643,45.76319395,406.262
3.11077828,45.76319491,406.26
3.11078036,45.76319605,406.255
3.11078221,45.76319732,406.261
3.11078390,45.76319836,406.247
3.11078570,45.76319968,406.243
3.11078751,45.76320097,406.243
3.11078910,45.76320218,406.236
3.11079061,45.76320341,406.221
3.11079224,45.76320457,406.224
3.11079378,45.76320574,406.215
3.11079533,45.76320693,406.221
3.11079661,45.76320823,406.219
3.11079785,45.76320954,406.209
3.11079899,45.76321101,406.196
3.11080013,45.76321219,406.19
3.11080179,45.76321344,406.193
3.11080351,45.76321472,406.196
3.11080472,45.76321600,406.193
3.11080589,45.76321753,406.18
3.11080685,45.76321893,406.191
3.11080737,45.76322037,406.183
3.11080793,45.76322193,406.16
3.11080863,45.76322336,406.142
3.11080943,45.76322482,406.153
3.11081029,45.76322622,406.148
3.11081122,45.76322762,406.145
3.11081255,45.76322912,406.171
3.11081344,45.76323070,406.167
3.11081415,45.76323223,406.195
3.11081461,45.76323377,406.178
3.11081483,45.76323536,406.174
3.11081488,45.76323694,406.179
3.11081510,45.76323870,406.176
3.11081544,45.76324006,406.19
3.11081612,45.76324163,406.195
3.11081644,45.76324363,406.202
3.11081627,45.76324514,406.198
3.11081622,45.76324647,406.182
3.11081570,45.76324836,406.172
3.11081541,45.76324983,406.183
3.11081551,45.76325133,406.167
3.11081547,45.76325306,406.17
3.11081503,45.76325442,406.135
3.11081410,45.76325590,406.124
3.11081341,45.76325777,406.148
3.11081301,45.76325896,406.117
3.11081284,45.76326057,406.134
3.11081210,45.76326226,406.151
3.11081125,45.76326359,406.132
3.11081043,45.76326535,406.128
3.11080944,45.76326676,406.133
3.11080870,45.76326821,406.132
3.11080784,45.76326997,406.13
3.11080717,45.76327166,406.156
3.11080640,45.76327308,406.16
3.11080551,45.76327482,406.158
3.11080479,45.76327677,406.14
3.11080357,45.76327814,406.152
3.11080238,45.76327965,406.144
3.11080111,45.76328101,406.144
3.11079998,45.76328261,406.132
3.11079901,45.76328421,406.128
3.11079802,45.76328568,406.124
3.11079678,45.76328709,406.136
3.11079544,45.76328850,406.141
3.11079423,45.76328977,406.139
3.11079288,45.76329091,406.139
3.11079152,45.76329226,406.143
3.11079017,45.76329353,406.13
3.11078861,45.76329484,406.13
3.11078730,45.76329613,406.136
3.11078592,45.76329740,406.132
3.11078431,45.76329869,406.121
3.11078257,45.76329977,406.113
3.11078086,45.76330101,406.115
3.11077913,45.76330224,406.118
3.11077754,45.76330356,406.109
3.11077592,45.76330477,406.117
3.11077427,45.76330616,406.127
3.11077275,45.76330737,406.122
3.11077105,45.76330855,406.126
3.11076942,45.76330971,406.108
3.11076761,45.76331079,406.113
3.11076575,45.76331184,406.103
3.11076405,45.76331274,406.087
3.11076227,45.76331397,406.098
3.11076074,45.76331511,406.118
3.11075936,45.76331624,406.13
3.11075772,45.76331738,406.119
3.11075590,45.76331848,406.137
3.11075408,45.76331948,406.134
3.11075234,45.76332049,406.126
3.11075042,45.76332151,406.141
3.11074855,45.76332243,406.137
3.11074669,45.76332329,406.132
3.11074440,45.76332427,406.138
3.11074247,45.76332517,406.158
3.11074056,45.76332618,406.157
3.11073843,45.76332718,406.158
3.11073660,45.76332818,406.165
3.11073484,45.76332930,406.166
3.11073306,45.76333051,406.169
3.11073105,45.76333157,406.185
3.11072906,45.76333253,406.184
3.11072695,45.76333339,406.179
3.11072499,45.76333419,406.184
3.11072297,45.76333507,406.195
3.11072096,45.76333594,406.211
3.11071898,45.76333698,406.22
3.11071723,45.76333808,406.219
3.11071527,45.76333917,406.226
3.11071320,45.76334013,406.236
3.11071120,45.76334102,406.236
3.11070897,45.76334172,406.233
3.11070672,45.76334239,406.227
3.11070431,45.76334302,406.239
3.11070246,45.76334393,406.258
3.11070058,45.76334501,406.283
3.11069865,45.76334632,406.291
3.11069682,45.76334730,406.296
3.11069464,45.76334822,406.327
3.11069262,45.76334888,406.304
3.11069072,45.76334950,406.322
3.11068874,45.76334996,406.314
3.11068644,45.76335049,406.328
3.11068445,45.76335102,406.327
3.11068239,45.76335156,406.313
3.11068010,45.76335215,406.333
3.11067799,45.76335256,406.333
3.11067603,45.76335284,406.337
3.11067427,45.76335309,406.334
3.11067269,45.76335343,406.341
3.11067129,45.76335382,406.348
3.11067022,45.76335422,406.36
3.11066939,45.76335456,406.363
3.11066873,45.76335478,406.359
3.11066847,45.76335484,406.367
3.11066841,45.76335482,406.369
3.11066850,45.76335473,406.367
3.11066861,45.76335458,406.36
3.11066862,45.76335455,406.361
3.11066857,45.76335463,406.361
3.11066861,45.76335466,406.361
3.11066865,45.76335463,406.362
3.11066862,45.76335463,406.36
3.11066862,45.76335463,406.358
3.11066864,45.76335462,406.363
3.11066860,45.76335461,406.362
        </coordinates> 
      </LineString> 
    </Placemark> 
  </Document> 
</kml> 
