<?xml version="1.0" encoding="UTF-8"?> 
<kml xmlns="http://www.opengis.net/kml/2.2" 
     xmlns:gx="http://www.google.com/kml/ext/2.2" 
     xmlns:kml="http://www.opengis.net/kml/2.2"
     xmlns:atom="http://www.w3.org/2005/Atom"> 
  <Document> 
    <name>gps_traj.kml</name> 
    <Placemark> 
      <name>Trajectoire</name> 
      <LineString> 
        <tessellate>1</tessellate> 
        <coordinates> 
3.11063115,45.76306950,406.712
3.11063115,45.76306950,406.713
3.11063114,45.76306947,406.712
3.11063115,45.76306948,406.717
3.11063119,45.76306949,406.714
3.11063119,45.76306948,406.711
3.11063118,45.76306952,406.709
3.11063120,45.76306978,406.708
3.11063125,45.76307011,406.709
3.11063138,45.76307058,406.704
3.11063151,45.76307123,406.705
3.11063166,45.76307209,406.703
3.11063179,45.76307308,406.695
3.11063167,45.76307435,406.685
3.11063166,45.76307580,406.679
3.11063175,45.76307740,406.688
3.11063180,45.76307903,406.668
3.11063183,45.76308090,406.666
3.11063192,45.76308267,406.659
3.11063215,45.76308452,406.657
3.11063224,45.76308644,406.646
3.11063231,45.76308829,406.623
3.11063265,45.76309026,406.629
3.11063311,45.76309210,406.633
3.11063344,45.76309414,406.629
3.11063359,45.76309618,406.614
3.11063379,45.76309801,406.627
3.11063364,45.76309997,406.609
3.11063360,45.76310197,406.608
3.11063351,45.76310379,406.591
3.11063353,45.76310578,406.59
3.11063359,45.76310780,406.587
3.11063385,45.76310980,406.587
3.11063409,45.76311187,406.583
3.11063421,45.76311370,406.566
3.11063419,45.76311526,406.575
3.11063411,45.76311722,406.563
3.11063395,45.76311906,406.538
3.11063368,45.76312067,406.535
3.11063337,45.76312245,406.516
3.11063317,45.76312428,406.505
3.11063310,45.76312574,406.477
3.11063327,45.76312748,406.467
3.11063395,45.76312918,406.472
3.11063502,45.76313089,406.468
3.11063528,45.76313284,406.5
3.11063545,45.76313456,406.515
3.11063555,45.76313597,406.499
3.11063514,45.76313727,406.451
3.11063450,45.76313876,406.441
3.11063375,45.76314020,406.43
3.11063321,45.76314165,406.404
3.11063277,45.76314329,406.408
3.11063232,45.76314476,406.402
3.11063198,45.76314645,406.396
3.11063189,45.76314809,406.383
3.11063216,45.76314968,406.384
3.11063261,45.76315147,406.403
3.11063289,45.76315322,406.412
3.11063302,45.76315502,406.415
3.11063310,45.76315681,406.43
3.11063277,45.76315861,406.435
3.11063219,45.76316015,406.437
3.11063152,45.76316169,406.417
3.11063090,45.76316346,406.42
3.11063053,45.76316488,406.417
3.11063034,45.76316648,406.409
3.11063026,45.76316822,406.419
3.11063038,45.76316973,406.418
3.11063042,45.76317147,406.428
3.11063008,45.76317315,406.43
3.11062948,45.76317483,406.418
3.11062879,45.76317649,406.417
3.11062812,45.76317824,406.425
3.11062777,45.76317991,406.428
3.11062741,45.76318164,406.418
3.11062732,45.76318347,406.43
3.11062737,45.76318532,406.438
3.11062746,45.76318723,406.452
3.11062733,45.76318901,406.456
3.11062695,45.76319085,406.463
3.11062658,45.76319258,406.462
3.11062607,45.76319415,406.453
3.11062554,45.76319592,406.457
3.11062508,45.76319766,406.448
3.11062479,45.76319934,406.453
3.11062439,45.76320109,406.443
3.11062427,45.76320275,406.454
3.11062391,45.76320424,406.433
3.11062331,45.76320596,406.432
3.11062264,45.76320753,406.418
3.11062175,45.76320910,406.409
3.11062082,45.76321071,406.414
3.11062009,45.76321218,406.417
3.11061964,45.76321387,406.404
3.11061934,45.76321567,406.425
3.11061932,45.76321732,406.42
3.11061901,45.76321901,406.431
3.11061846,45.76322077,406.441
3.11061786,45.76322227,406.442
3.11061701,45.76322393,406.445
3.11061599,45.76322560,406.431
3.11061504,45.76322722,406.427
3.11061439,45.76322872,406.433
3.11061380,45.76323046,406.436
3.11061318,45.76323222,406.427
3.11061260,45.76323374,406.42
3.11061191,45.76323549,406.427
3.11061117,45.76323720,406.437
3.11061052,45.76323864,406.427
3.11060995,45.76324055,406.451
3.11060962,45.76324211,406.446
3.11060929,45.76324367,406.439
3.11060859,45.76324545,406.45
3.11060812,45.76324734,406.453
3.11060783,45.76324900,406.451
3.11060713,45.76325065,406.453
3.11060624,45.76325249,406.448
3.11060553,45.76325415,406.449
3.11060501,45.76325592,406.452
3.11060440,45.76325770,406.463
3.11060391,45.76325943,406.459
3.11060350,45.76326131,406.475
3.11060309,45.76326298,406.485
3.11060262,45.76326464,406.479
3.11060228,45.76326628,406.474
3.11060187,45.76326821,406.479
3.11060157,45.76326987,406.48
3.11060092,45.76327149,406.469
3.11060017,45.76327332,406.475
3.11059980,45.76327477,406.475
3.11059926,45.76327660,406.466
3.11059874,45.76327826,406.466
3.11059840,45.76327987,406.466
3.11059821,45.76328162,406.48
3.11059797,45.76328331,406.471
3.11059771,45.76328484,406.463
3.11059719,45.76328657,406.471
3.11059671,45.76328838,406.483
3.11059622,45.76328986,406.478
3.11059536,45.76329138,406.483
3.11059448,45.76329302,406.478
3.11059370,45.76329446,406.474
3.11059297,45.76329610,406.483
3.11059248,45.76329761,406.486
3.11059205,45.76329931,406.484
3.11059180,45.76330094,406.484
3.11059128,45.76330263,406.507
3.11059070,45.76330431,406.505
3.11059014,45.76330590,406.496
3.11058935,45.76330751,406.495
3.11058859,45.76330928,406.504
3.11058781,45.76331093,406.507
3.11058735,45.76331267,406.515
3.11058686,45.76331451,406.526
3.11058640,45.76331625,406.519
3.11058589,45.76331801,406.529
3.11058540,45.76331971,406.538
3.11058496,45.76332143,406.554
3.11058449,45.76332313,406.536
3.11058395,45.76332483,406.551
3.11058354,45.76332650,406.567
3.11058299,45.76332817,406.555
3.11058244,45.76333001,406.555
3.11058226,45.76333175,406.554
3.11058201,45.76333356,406.555
3.11058167,45.76333550,406.558
3.11058103,45.76333732,406.567
3.11058035,45.76333929,406.577
3.11057995,45.76334108,406.573
3.11057947,45.76334293,406.562
3.11057922,45.76334485,406.563
3.11057909,45.76334670,406.572
3.11057920,45.76334844,406.584
3.11057904,45.76335040,406.583
3.11057862,45.76335214,406.579
3.11057827,45.76335378,406.566
3.11057751,45.76335550,406.563
3.11057673,45.76335702,406.542
3.11057596,45.76335862,406.528
3.11057553,45.76336028,406.532
3.11057520,45.76336193,406.526
3.11057504,45.76336360,406.538
3.11057487,45.76336536,406.54
3.11057450,45.76336707,406.527
3.11057391,45.76336886,406.516
3.11057329,45.76337042,406.512
3.11057298,45.76337212,406.514
3.11057283,45.76337400,406.529
3.11057273,45.76337580,406.544
3.11057261,45.76337770,406.546
3.11057254,45.76337964,406.561
3.11057223,45.76338170,406.561
3.11057175,45.76338348,406.573
3.11057144,45.76338525,406.578
3.11057056,45.76338707,406.548
3.11056972,45.76338887,406.548
3.11056901,45.76339056,406.552
3.11056848,45.76339230,406.542
3.11056833,45.76339399,406.548
3.11056829,45.76339577,406.543
3.11056845,45.76339756,406.534
3.11056883,45.76339923,406.52
3.11056897,45.76340112,406.524
3.11056874,45.76340288,406.527
3.11056853,45.76340449,406.51
3.11056777,45.76340616,406.508
3.11056697,45.76340766,406.5
3.11056610,45.76340914,406.492
3.11056553,45.76341078,406.494
3.11056528,45.76341223,406.481
3.11056500,45.76341397,406.485
3.11056445,45.76341557,406.485
3.11056371,45.76341708,406.484
3.11056289,45.76341867,406.485
3.11056192,45.76342006,406.479
3.11056075,45.76342134,406.463
3.11055928,45.76342271,406.452
3.11055803,45.76342402,406.447
3.11055692,45.76342540,406.444
3.11055574,45.76342692,406.444
3.11055464,45.76342835,406.453
3.11055347,45.76342994,406.453
3.11055219,45.76343137,406.447
3.11055074,45.76343281,406.453
3.11054921,45.76343423,406.438
3.11054769,45.76343553,406.45
3.11054624,45.76343696,406.439
3.11054481,45.76343842,406.449
3.11054342,45.76343990,406.439
3.11054212,45.76344145,406.452
3.11054079,45.76344292,406.453
3.11053936,45.76344429,406.445
3.11053783,45.76344569,406.451
3.11053640,45.76344699,406.445
3.11053481,45.76344823,406.433
3.11053321,45.76344951,406.438
3.11053160,45.76345082,406.431
3.11052992,45.76345212,406.437
3.11052834,45.76345335,406.424
3.11052670,45.76345460,406.418
3.11052505,45.76345574,406.424
3.11052322,45.76345684,406.421
3.11052139,45.76345797,406.418
3.11051952,45.76345894,406.409
3.11051747,45.76345983,406.405
3.11051557,45.76346084,406.391
3.11051363,45.76346194,406.392
3.11051160,45.76346307,406.387
3.11050970,45.76346435,406.385
3.11050781,45.76346560,406.365
3.11050591,45.76346692,406.372
3.11050397,45.76346826,406.37
3.11050196,45.76346945,406.354
3.11049980,45.76347050,406.371
3.11049767,45.76347150,406.36
3.11049547,45.76347251,406.357
3.11049324,45.76347355,406.329
3.11049126,45.76347462,406.323
3.11048927,45.76347580,406.319
3.11048732,45.76347716,406.315
3.11048552,45.76347835,406.308
3.11048382,45.76347956,406.272
3.11048179,45.76348066,406.267
3.11047989,45.76348175,406.247
3.11047770,45.76348276,406.257
3.11047585,45.76348382,406.243
3.11047379,45.76348485,406.218
3.11047185,45.76348601,406.219
3.11046999,45.76348717,406.209
3.11046817,45.76348825,406.194
3.11046636,45.76348945,406.216
3.11046445,45.76349057,406.184
3.11046259,45.76349167,406.193
3.11046072,45.76349294,406.194
3.11045901,45.76349398,406.173
3.11045694,45.76349505,406.2
3.11045518,45.76349640,406.173
3.11045325,45.76349756,406.17
3.11045164,45.76349895,406.144
3.11044977,45.76350027,406.141
3.11044806,45.76350162,406.16
3.11044632,45.76350287,406.139
3.11044471,45.76350437,406.146
3.11044311,45.76350554,406.134
3.11044157,45.76350710,406.13
3.11043995,45.76350830,406.137
3.11043826,45.76350963,406.136
3.11043683,45.76351097,406.117
3.11043527,45.76351238,406.115
3.11043350,45.76351355,406.123
3.11043181,45.76351497,406.117
3.11043020,45.76351630,406.109
3.11042857,45.76351767,406.116
3.11042705,45.76351919,406.103
3.11042578,45.76352076,406.125
3.11042458,45.76352241,406.113
3.11042341,45.76352400,406.104
3.11042203,45.76352557,406.116
3.11042064,45.76352717,406.117
3.11041924,45.76352871,406.114
3.11041798,45.76353022,406.115
3.11041666,45.76353190,406.109
3.11041539,45.76353339,406.115
3.11041437,45.76353492,406.105
3.11041321,45.76353648,406.097
3.11041195,45.76353806,406.109
3.11041096,45.76353953,406.096
3.11040984,45.76354111,406.094
3.11040882,45.76354266,406.087
3.11040766,45.76354410,406.093
3.11040651,45.76354558,406.082
3.11040553,45.76354709,406.077
3.11040427,45.76354854,406.077
3.11040311,45.76355008,406.077
3.11040213,45.76355164,406.086
3.11040104,45.76355321,406.078
3.11039996,45.76355476,406.055
3.11039873,45.76355626,406.056
3.11039761,45.76355772,406.051
3.11039624,45.76355920,406.069
3.11039513,45.76356068,406.068
3.11039398,45.76356223,406.065
3.11039283,45.76356388,406.063
3.11039165,45.76356542,406.075
3.11039064,45.76356707,406.051
3.11038942,45.76356861,406.067
3.11038842,45.76357010,406.064
3.11038718,45.76357165,406.068
3.11038599,45.76357322,406.055
3.11038463,45.76357477,406.063
3.11038312,45.76357623,406.059
3.11038185,45.76357773,406.049
3.11038068,45.76357922,406.042
3.11037945,45.76358077,406.047
3.11037816,45.76358224,406.051
3.11037726,45.76358381,406.054
3.11037622,45.76358542,406.059
3.11037530,45.76358701,406.063
3.11037439,45.76358851,406.051
3.11037329,45.76359015,406.055
3.11037223,45.76359169,406.039
3.11037117,45.76359317,406.043
3.11036996,45.76359471,406.058
3.11036895,45.76359629,406.045
3.11036802,45.76359792,406.027
3.11036705,45.76359967,406.04
3.11036589,45.76360116,406.027
3.11036454,45.76360259,406.043
3.11036312,45.76360400,406.055
3.11036197,45.76360563,406.045
3.11036065,45.76360701,406.04
3.11035956,45.76360848,406.034
3.11035845,45.76361005,406.043
3.11035752,45.76361165,406.034
3.11035677,45.76361321,406.024
3.11035599,45.76361490,406.021
3.11035527,45.76361648,406.023
3.11035435,45.76361810,406.02
3.11035327,45.76361968,406.031
3.11035209,45.76362112,406.045
3.11035085,45.76362248,406.05
3.11034952,45.76362392,406.052
3.11034801,45.76362526,406.034
3.11034683,45.76362666,406.041
3.11034589,45.76362806,406.041
3.11034502,45.76362949,406.041
3.11034400,45.76363111,406.033
3.11034308,45.76363264,406.043
3.11034196,45.76363393,406.042
3.11034061,45.76363529,406.048
3.11033914,45.76363642,406.045
3.11033764,45.76363739,406.052
3.11033582,45.76363831,406.035
3.11033401,45.76363926,406.032
3.11033224,45.76364023,406.024
3.11033043,45.76364127,406.021
3.11032873,45.76364233,406.016
3.11032707,45.76364352,406.018
3.11032538,45.76364485,406.023
3.11032374,45.76364615,406.022
3.11032200,45.76364746,406.035
3.11032018,45.76364875,406.04
3.11031828,45.76364987,406.046
3.11031624,45.76365105,406.037
3.11031432,45.76365227,406.035
3.11031242,45.76365334,406.046
3.11031056,45.76365451,406.034
3.11030876,45.76365572,406.043
3.11030687,45.76365691,406.022
3.11030497,45.76365813,406.018
3.11030323,45.76365931,406.052
3.11030143,45.76366050,406.023
3.11029962,45.76366162,406.029
3.11029773,45.76366256,406.04
3.11029587,45.76366343,406.042
3.11029402,45.76366431,406.041
3.11029213,45.76366525,406.042
3.11029014,45.76366611,406.046
3.11028819,45.76366702,406.033
3.11028616,45.76366782,406.029
3.11028403,45.76366862,406.038
3.11028199,45.76366926,406.044
3.11027987,45.76366990,406.041
3.11027769,45.76367062,406.05
3.11027544,45.76367114,406.039
3.11027324,45.76367186,406.052
3.11027105,45.76367250,406.042
3.11026883,45.76367325,406.036
3.11026656,45.76367389,406.047
3.11026435,45.76367453,406.024
3.11026219,45.76367518,406.027
3.11025989,45.76367582,406.026
3.11025769,45.76367649,406.041
3.11025551,45.76367716,406.039
3.11025331,45.76367783,406.03
3.11025114,45.76367859,406.04
3.11024895,45.76367926,406.036
3.11024690,45.76367981,406.046
3.11024468,45.76368027,406.044
3.11024258,45.76368077,406.029
3.11024048,45.76368116,406.042
3.11023824,45.76368162,406.04
3.11023608,45.76368192,406.046
3.11023387,45.76368225,406.056
3.11023168,45.76368267,406.04
3.11022938,45.76368296,406.039
3.11022710,45.76368324,406.063
3.11022483,45.76368338,406.058
3.11022259,45.76368342,406.063
3.11022012,45.76368340,406.054
3.11021789,45.76368325,406.049
3.11021551,45.76368306,406.043
3.11021302,45.76368307,406.041
3.11021048,45.76368315,406.053
3.11020804,45.76368327,406.055
3.11020554,45.76368340,406.045
3.11020297,45.76368327,406.053
3.11020035,45.76368354,406.069
3.11019796,45.76368353,406.07
3.11019574,45.76368369,406.071
3.11019325,45.76368356,406.075
3.11019086,45.76368339,406.092
3.11018845,45.76368325,406.099
3.11018597,45.76368326,406.09
3.11018355,45.76368340,406.104
3.11018122,45.76368353,406.121
3.11017862,45.76368334,406.137
3.11017647,45.76368333,406.121
3.11017424,45.76368325,406.12
3.11017179,45.76368302,406.123
3.11016960,45.76368279,406.139
3.11016733,45.76368246,406.131
3.11016492,45.76368208,406.127
3.11016295,45.76368176,406.129
3.11016063,45.76368126,406.126
3.11015830,45.76368069,406.14
3.11015621,45.76368017,406.133
3.11015380,45.76367960,406.137
3.11015165,45.76367884,406.133
3.11014949,45.76367819,406.134
3.11014729,45.76367762,406.132
3.11014507,45.76367700,406.127
3.11014276,45.76367638,406.137
3.11014054,45.76367575,406.144
3.11013843,45.76367515,406.141
3.11013626,45.76367435,406.14
3.11013413,45.76367364,406.143
3.11013203,45.76367286,406.148
3.11012997,45.76367208,406.145
3.11012800,45.76367132,406.139
3.11012606,45.76367054,406.139
3.11012402,45.76366977,406.144
3.11012218,45.76366896,406.138
3.11012021,45.76366816,406.146
3.11011828,45.76366740,406.148
3.11011644,45.76366661,406.157
3.11011447,45.76366573,406.164
3.11011260,45.76366488,406.161
3.11011085,45.76366397,406.169
3.11010904,45.76366304,406.177
3.11010733,45.76366189,406.18
3.11010566,45.76366077,406.183
3.11010395,45.76365960,406.189
3.11010225,45.76365837,406.187
3.11010051,45.76365708,406.192
3.11009878,45.76365586,406.2
3.11009707,45.76365460,406.207
3.11009529,45.76365330,406.215
3.11009363,45.76365205,406.209
3.11009185,45.76365086,406.216
3.11009008,45.76364957,406.222
3.11008840,45.76364832,406.228
3.11008661,45.76364712,406.234
3.11008489,45.76364595,406.237
3.11008322,45.76364471,406.242
3.11008152,45.76364346,406.245
3.11007985,45.76364221,406.247
3.11007809,45.76364104,406.25
3.11007638,45.76363982,406.255
3.11007458,45.76363855,406.267
3.11007296,45.76363744,406.266
3.11007127,45.76363612,406.282
3.11006971,45.76363490,406.285
3.11006822,45.76363360,406.281
3.11006665,45.76363239,406.288
3.11006506,45.76363114,406.291
3.11006338,45.76362970,406.298
3.11006187,45.76362842,406.31
3.11006020,45.76362720,406.318
3.11005848,45.76362596,406.323
3.11005680,45.76362471,406.329
3.11005521,45.76362335,406.343
3.11005358,45.76362210,406.344
3.11005186,45.76362077,406.348
3.11005030,45.76361944,406.356
3.11004877,45.76361800,406.365
3.11004732,45.76361674,406.362
3.11004586,45.76361523,406.357
3.11004453,45.76361362,406.363
3.11004332,45.76361232,406.365
3.11004159,45.76361083,406.367
3.11004001,45.76360950,406.375
3.11003841,45.76360824,406.383
3.11003665,45.76360682,406.392
3.11003499,45.76360554,406.402
3.11003348,45.76360413,406.405
3.11003205,45.76360262,406.403
3.11003071,45.76360130,406.404
3.11002929,45.76359983,406.4
3.11002763,45.76359833,406.406
3.11002631,45.76359702,406.395
3.11002490,45.76359553,406.402
3.11002334,45.76359410,406.404
3.11002190,45.76359275,406.402
3.11002030,45.76359145,406.417
3.11001873,45.76359008,406.414
3.11001739,45.76358866,406.413
3.11001604,45.76358714,406.412
3.11001479,45.76358564,406.41
3.11001345,45.76358432,406.404
3.11001201,45.76358285,406.405
3.11001045,45.76358147,406.408
3.11000886,45.76358012,406.419
3.11000741,45.76357871,406.413
3.11000604,45.76357719,406.428
3.11000474,45.76357588,406.423
3.11000335,45.76357459,406.427
3.11000193,45.76357311,406.426
3.11000062,45.76357154,406.422
3.10999924,45.76357020,406.435
3.10999778,45.76356880,406.439
3.10999638,45.76356720,406.438
3.10999516,45.76356582,406.433
3.10999380,45.76356432,406.437
3.10999246,45.76356275,406.441
3.10999129,45.76356125,406.438
3.10999006,45.76355960,406.442
3.10998887,45.76355807,406.451
3.10998761,45.76355667,406.437
3.10998609,45.76355525,406.439
3.10998457,45.76355371,406.446
3.10998316,45.76355222,406.439
3.10998177,45.76355068,406.444
3.10998026,45.76354919,406.451
3.10997898,45.76354779,406.44
3.10997772,45.76354621,406.446
3.10997660,45.76354475,406.437
3.10997527,45.76354318,406.446
3.10997396,45.76354176,406.447
3.10997254,45.76354040,406.457
3.10997104,45.76353908,406.462
3.10996970,45.76353776,406.455
3.10996871,45.76353626,406.455
3.10996774,45.76353472,406.441
3.10996688,45.76353321,406.44
3.10996598,45.76353169,406.434
3.10996496,45.76353022,406.441
3.10996357,45.76352888,406.461
3.10996212,45.76352769,406.456
3.10996092,45.76352619,406.458
3.10996014,45.76352466,406.468
3.10995950,45.76352318,406.459
3.10995906,45.76352163,406.45
3.10995852,45.76352000,406.445
3.10995798,45.76351837,406.446
3.10995717,45.76351686,406.451
3.10995628,45.76351521,406.457
3.10995538,45.76351370,406.461
3.10995462,45.76351212,406.466
3.10995400,45.76351045,406.452
3.10995339,45.76350885,406.456
3.10995273,45.76350726,406.457
3.10995194,45.76350555,406.464
3.10995117,45.76350387,406.479
3.10995046,45.76350231,406.491
3.10994967,45.76350066,406.507
3.10994896,45.76349912,406.508
3.10994834,45.76349743,406.502
3.10994800,45.76349568,406.504
3.10994771,45.76349420,406.505
3.10994731,45.76349261,406.502
3.10994682,45.76349098,406.519
3.10994608,45.76348934,406.523
3.10994552,45.76348777,406.538
3.10994507,45.76348624,406.539
3.10994479,45.76348467,406.535
3.10994505,45.76348303,406.526
3.10994542,45.76348149,406.514
3.10994597,45.76347987,406.511
3.10994675,45.76347814,406.511
3.10994731,45.76347677,406.496
3.10994761,45.76347511,406.483
3.10994746,45.76347348,406.498
3.10994715,45.76347180,406.524
3.10994685,45.76347006,406.531
3.10994679,45.76346841,406.55
3.10994704,45.76346671,406.542
3.10994761,45.76346521,406.527
3.10994838,45.76346361,406.526
3.10994933,45.76346220,406.509
3.10995037,45.76346066,406.491
3.10995133,45.76345912,406.492
3.10995195,45.76345753,406.49
3.10995229,45.76345601,406.493
3.10995275,45.76345449,406.484
3.10995309,45.76345284,406.517
3.10995336,45.76345133,406.526
3.10995366,45.76344968,406.536
3.10995412,45.76344810,406.552
3.10995465,45.76344661,406.555
3.10995549,45.76344507,406.567
3.10995629,45.76344365,406.564
3.10995718,45.76344229,406.561
3.10995825,45.76344071,406.565
3.10995923,45.76343921,406.556
3.10996051,45.76343783,406.557
3.10996184,45.76343651,406.555
3.10996328,45.76343514,406.558
3.10996446,45.76343389,406.561
3.10996565,45.76343264,406.551
3.10996701,45.76343114,406.556
3.10996826,45.76342985,406.573
3.10996961,45.76342854,406.574
3.10997096,45.76342724,406.568
3.10997205,45.76342583,406.579
3.10997341,45.76342437,406.594
3.10997471,45.76342295,406.597
3.10997648,45.76342182,406.608
3.10997839,45.76342093,406.59
3.10998045,45.76342029,406.592
3.10998263,45.76341968,406.578
3.10998466,45.76341904,406.572
3.10998660,45.76341823,406.558
3.10998851,45.76341713,406.56
3.10999025,45.76341595,406.575
3.10999203,45.76341486,406.592
3.10999396,45.76341381,406.586
3.10999606,45.76341274,406.595
3.10999805,45.76341179,406.608
3.11000033,45.76341086,406.603
3.11000239,45.76340976,406.603
3.11000452,45.76340884,406.621
3.11000680,45.76340777,406.621
3.11000907,45.76340687,406.61
3.11001126,45.76340591,406.609
3.11001340,45.76340505,406.6
3.11001563,45.76340410,406.615
3.11001766,45.76340304,406.616
3.11001969,45.76340199,406.605
3.11002178,45.76340077,406.618
3.11002375,45.76339975,406.6
3.11002598,45.76339866,406.608
3.11002810,45.76339749,406.6
3.11002987,45.76339632,406.603
3.11003194,45.76339524,406.595
3.11003403,45.76339408,406.617
3.11003607,45.76339310,406.602
3.11003816,45.76339213,406.606
3.11004052,45.76339116,406.606
3.11004247,45.76339026,406.581
3.11004449,45.76338920,406.592
3.11004651,45.76338803,406.599
3.11004843,45.76338713,406.587
3.11005065,45.76338624,406.578
3.11005279,45.76338539,406.582
3.11005452,45.76338446,406.592
3.11005658,45.76338338,406.588
3.11005829,45.76338244,406.588
3.11005991,45.76338120,406.595
3.11006187,45.76338012,406.593
3.11006384,45.76337928,406.59
3.11006590,45.76337842,406.579
3.11006816,45.76337767,406.578
3.11007039,45.76337675,406.579
3.11007233,45.76337614,406.552
3.11007445,45.76337524,406.554
3.11007650,45.76337418,406.569
3.11007811,45.76337316,406.579
3.11008023,45.76337214,406.583
3.11008248,45.76337120,406.568
3.11008441,45.76337035,406.574
3.11008681,45.76336947,406.571
3.11008904,45.76336863,406.571
3.11009099,45.76336769,406.556
3.11009262,45.76336646,406.564
3.11009493,45.76336536,406.589
3.11009708,45.76336459,406.586
3.11009908,45.76336393,406.575
3.11010142,45.76336299,406.595
3.11010350,45.76336236,406.562
3.11010562,45.76336147,406.56
3.11010750,45.76336038,406.567
3.11010928,45.76335931,406.57
3.11011122,45.76335811,406.581
3.11011331,45.76335715,406.569
3.11011561,45.76335639,406.572
3.11011775,45.76335550,406.561
3.11011996,45.76335462,406.568
3.11012196,45.76335367,406.56
3.11012397,45.76335272,406.571
3.11012610,45.76335153,406.58
3.11012802,45.76335047,406.577
3.11013011,45.76334952,406.577
3.11013244,45.76334856,406.583
3.11013479,45.76334798,406.576
3.11013706,45.76334727,406.563
3.11013911,45.76334630,406.568
3.11014099,45.76334529,406.561
3.11014277,45.76334419,406.571
3.11014479,45.76334307,406.587
3.11014662,45.76334205,406.59
3.11014854,45.76334098,406.588
3.11015055,45.76333982,406.595
3.11015248,45.76333883,406.589
3.11015463,45.76333782,406.587
3.11015692,45.76333693,406.594
3.11015902,45.76333612,406.589
3.11016111,45.76333535,406.584
3.11016350,45.76333458,406.591
3.11016567,45.76333392,406.581
3.11016788,45.76333303,406.579
3.11017004,45.76333221,406.579
3.11017205,45.76333121,406.579
3.11017412,45.76333010,406.586
3.11017622,45.76332905,406.59
3.11017826,45.76332808,406.58
3.11018051,45.76332721,406.583
3.11018281,45.76332628,406.587
3.11018524,45.76332532,406.585
3.11018737,45.76332440,406.584
3.11018962,45.76332351,406.575
3.11019165,45.76332242,406.57
3.11019356,45.76332127,406.573
3.11019553,45.76332011,406.573
3.11019751,45.76331895,406.582
3.11019967,45.76331762,406.578
3.11020164,45.76331640,406.577
3.11020344,45.76331528,406.582
3.11020530,45.76331401,406.581
3.11020698,45.76331276,406.585
3.11020853,45.76331157,406.589
3.11021013,45.76331027,406.595
3.11021147,45.76330901,406.591
3.11021294,45.76330775,406.606
3.11021457,45.76330645,406.604
3.11021607,45.76330525,406.616
3.11021773,45.76330409,406.618
3.11021971,45.76330318,406.611
3.11022191,45.76330238,406.607
3.11022408,45.76330160,406.579
3.11022578,45.76330074,406.591
3.11022726,45.76329991,406.586
3.11022926,45.76329885,406.598
3.11023122,45.76329772,406.627
3.11023285,45.76329652,406.632
3.11023442,45.76329519,406.654
3.11023583,45.76329400,406.666
3.11023782,45.76329278,406.676
3.11024024,45.76329179,406.677
3.11024226,45.76329082,406.676
3.11024448,45.76328982,406.656
3.11024700,45.76328893,406.672
3.11024905,45.76328798,406.684
3.11025127,45.76328659,406.685
3.11025314,45.76328535,406.684
3.11025486,45.76328444,406.664
3.11025778,45.76328333,406.694
3.11025997,45.76328244,406.679
3.11026171,45.76328187,406.661
3.11026433,45.76328114,406.665
3.11026642,45.76328050,406.632
3.11026810,45.76327936,406.644
3.11026993,45.76327801,406.652
3.11027125,45.76327675,406.651
3.11027281,45.76327517,406.661
3.11027477,45.76327397,406.679
3.11027645,45.76327299,406.668
3.11027838,45.76327240,406.653
3.11028074,45.76327200,406.628
3.11028330,45.76327166,406.627
3.11028561,45.76327106,406.633
3.11028739,45.76327006,406.639
3.11028885,45.76326892,406.643
3.11029011,45.76326744,406.656
3.11029155,45.76326605,406.674
3.11029305,45.76326479,406.678
3.11029497,45.76326371,406.683
3.11029679,45.76326292,406.686
3.11029876,45.76326224,406.691
3.11030116,45.76326163,406.684
3.11030338,45.76326115,406.674
3.11030585,45.76326072,406.667
3.11030825,45.76326024,406.67
3.11031030,45.76325937,406.674
3.11031191,45.76325812,406.669
3.11031337,45.76325674,406.68
3.11031506,45.76325517,406.702
3.11031681,45.76325382,406.711
3.11031857,45.76325286,406.728
3.11032045,45.76325208,406.738
3.11032249,45.76325153,406.715
3.11032469,45.76325121,406.707
3.11032694,45.76325082,406.701
3.11032909,45.76325028,406.689
3.11033125,45.76324934,406.705
3.11033323,45.76324828,406.709
3.11033526,45.76324723,406.713
3.11033738,45.76324649,406.71
3.11033965,45.76324587,406.712
3.11034187,45.76324525,406.725
3.11034406,45.76324478,406.717
3.11034636,45.76324445,406.704
3.11034896,45.76324412,406.72
3.11035113,45.76324363,406.72
3.11035344,45.76324302,406.707
3.11035577,45.76324230,406.713
3.11035819,45.76324179,406.709
3.11036067,45.76324147,406.7
3.11036329,45.76324128,406.701
3.11036579,45.76324086,406.699
3.11036810,45.76324025,406.719
3.11037058,45.76323964,406.719
3.11037295,45.76323892,406.715
3.11037526,45.76323824,406.726
3.11037784,45.76323753,406.725
3.11038020,45.76323707,406.708
3.11038266,45.76323653,406.712
3.11038515,45.76323599,406.718
3.11038733,45.76323543,406.717
3.11038985,45.76323512,406.701
3.11039232,45.76323439,406.7
3.11039445,45.76323381,406.697
3.11039682,45.76323309,406.694
3.11039920,45.76323238,406.716
3.11040120,45.76323141,406.721
3.11040358,45.76323067,406.733
3.11040592,45.76322991,406.737
3.11040813,45.76322955,406.72
3.11041066,45.76322898,406.723
3.11041307,45.76322841,406.731
3.11041533,45.76322781,406.721
3.11041795,45.76322735,406.742
3.11042046,45.76322702,406.737
3.11042304,45.76322668,406.74
3.11042565,45.76322654,406.725
3.11042813,45.76322619,406.732
3.11043070,45.76322567,406.722
3.11043302,45.76322497,406.728
3.11043549,45.76322442,406.731
3.11043804,45.76322383,406.698
3.11044059,45.76322351,406.69
3.11044307,45.76322333,406.68
3.11044578,45.76322325,406.657
3.11044833,45.76322328,406.643
3.11045075,45.76322338,406.633
3.11045331,45.76322322,406.634
3.11045575,45.76322277,406.625
3.11045806,45.76322209,406.62
3.11046033,45.76322130,406.627
3.11046257,45.76322065,406.635
3.11046489,45.76322015,406.632
3.11046715,45.76321985,406.612
3.11046930,45.76321970,406.609
3.11047145,45.76321987,406.59
3.11047352,45.76322007,406.592
3.11047583,45.76322015,406.582
3.11047799,45.76322009,406.579
3.11048001,45.76321996,406.577
3.11048230,45.76321971,406.571
3.11048456,45.76321960,406.575
3.11048670,45.76321952,406.566
3.11048918,45.76321952,406.578
3.11049148,45.76321960,406.57
3.11049388,45.76321981,406.573
3.11049636,45.76322001,406.572
3.11049874,45.76322018,406.578
3.11050130,45.76322040,406.574
3.11050374,45.76322056,406.572
3.11050622,45.76322064,406.571
3.11050874,45.76322063,406.584
3.11051110,45.76322057,406.584
3.11051357,45.76322052,406.59
3.11051586,45.76322050,406.592
3.11051787,45.76322061,406.575
3.11051975,45.76322071,406.58
3.11052146,45.76322086,406.591
3.11052282,45.76322118,406.585
3.11052371,45.76322139,406.583
3.11052442,45.76322157,406.577
3.11052480,45.76322162,406.578
3.11052492,45.76322158,406.584
3.11052486,45.76322156,406.582
3.11052467,45.76322145,406.578
3.11052467,45.76322141,406.577
3.11052472,45.76322145,406.576
3.11052473,45.76322146,406.58
3.11052471,45.76322151,406.574
3.11052465,45.76322143,406.578
3.11052472,45.76322146,406.578
3.11052471,45.76322148,406.576
3.11052471,45.76322145,406.581
3.11052469,45.76322150,406.579
3.11052468,45.76322147,406.579
3.11052470,45.76322147,406.576
3.11052469,45.76322147,406.581
        </coordinates> 
      </LineString> 
    </Placemark> 
  </Document> 
</kml> 
