<?xml version="1.0" encoding="UTF-8"?> 
<kml xmlns="http://www.opengis.net/kml/2.2" 
     xmlns:gx="http://www.google.com/kml/ext/2.2" 
     xmlns:kml="http://www.opengis.net/kml/2.2"
     xmlns:atom="http://www.w3.org/2005/Atom"> 
  <Document> 
    <name>gps_traj.kml</name> 
    <Placemark> 
      <name>Trajectoire</name> 
      <LineString> 
        <tessellate>1</tessellate> 
        <coordinates> 
3.11058174,45.76319058,406.465
3.11058175,45.76319059,406.468
3.11058174,45.76319059,406.465
3.11058176,45.76319059,406.466
3.11058178,45.76319059,406.468
3.11058177,45.76319060,406.466
3.11058163,45.76319065,406.465
3.11058127,45.76319076,406.466
3.11058069,45.76319094,406.47
3.11057992,45.76319122,406.468
3.11057902,45.76319152,406.463
3.11057802,45.76319181,406.474
3.11057682,45.76319211,406.459
3.11057563,45.76319239,406.457
3.11057434,45.76319266,406.477
3.11057310,45.76319304,406.475
3.11057186,45.76319349,406.471
3.11057052,45.76319394,406.477
3.11056899,45.76319439,406.481
3.11056740,45.76319493,406.481
3.11056576,45.76319545,406.489
3.11056392,45.76319612,406.488
3.11056204,45.76319668,406.489
3.11055995,45.76319712,406.491
3.11055751,45.76319739,406.507
3.11055521,45.76319768,406.507
3.11055295,45.76319792,406.498
3.11055048,45.76319815,406.501
3.11054835,45.76319852,406.474
3.11054604,45.76319891,406.471
3.11054346,45.76319932,406.495
3.11054115,45.76319957,406.493
3.11053894,45.76319974,406.503
3.11053679,45.76319977,406.511
3.11053483,45.76319978,406.514
3.11053325,45.76319964,406.507
3.11053183,45.76319957,406.505
3.11053067,45.76319954,406.502
3.11052969,45.76319963,406.503
3.11052882,45.76319978,406.504
3.11052811,45.76319997,406.502
3.11052732,45.76320011,406.512
3.11052650,45.76320028,406.514
3.11052561,45.76320038,406.517
3.11052461,45.76320039,406.51
3.11052356,45.76320033,406.513
3.11052242,45.76320034,406.511
3.11052130,45.76320038,406.508
3.11052007,45.76320048,406.512
3.11051887,45.76320055,406.513
3.11051760,45.76320066,406.521
3.11051634,45.76320075,406.525
3.11051508,45.76320087,406.531
3.11051377,45.76320090,406.531
3.11051244,45.76320098,406.541
3.11051113,45.76320118,406.526
3.11050989,45.76320135,406.543
3.11050862,45.76320165,406.558
3.11050737,45.76320198,406.545
3.11050600,45.76320218,406.555
3.11050452,45.76320244,406.556
3.11050308,45.76320263,406.552
3.11050167,45.76320288,406.551
3.11050036,45.76320312,406.547
3.11049923,45.76320336,406.554
3.11049812,45.76320363,406.546
3.11049711,45.76320385,406.545
3.11049613,45.76320406,406.538
3.11049506,45.76320423,406.539
3.11049415,45.76320448,406.545
3.11049327,45.76320476,406.543
3.11049241,45.76320506,406.546
3.11049153,45.76320534,406.541
3.11049064,45.76320559,406.538
3.11048982,45.76320581,406.512
3.11048903,45.76320608,406.509
3.11048808,45.76320640,406.519
3.11048706,45.76320672,406.512
3.11048612,45.76320706,406.526
3.11048506,45.76320736,406.534
3.11048399,45.76320766,406.535
3.11048289,45.76320788,406.545
3.11048178,45.76320818,406.537
3.11048054,45.76320843,406.539
3.11047933,45.76320870,406.556
3.11047803,45.76320899,406.544
3.11047670,45.76320929,406.545
3.11047538,45.76320957,406.549
3.11047392,45.76320973,406.549
3.11047240,45.76320992,406.547
3.11047100,45.76321015,406.544
3.11046956,45.76321043,406.552
3.11046797,45.76321073,406.553
3.11046627,45.76321102,406.555
3.11046456,45.76321113,406.545
3.11046272,45.76321129,406.555
3.11046098,45.76321163,406.56
3.11045909,45.76321190,406.566
3.11045717,45.76321217,406.567
3.11045528,45.76321252,406.568
3.11045344,45.76321296,406.575
3.11045146,45.76321345,406.598
3.11044952,45.76321398,406.602
3.11044747,45.76321442,406.612
3.11044536,45.76321474,406.625
3.11044328,45.76321490,406.636
3.11044101,45.76321501,406.624
3.11043880,45.76321490,406.622
3.11043663,45.76321498,406.615
3.11043450,45.76321508,406.621
3.11043247,45.76321543,406.632
3.11043027,45.76321588,406.637
3.11042793,45.76321637,406.651
3.11042571,45.76321694,406.663
3.11042346,45.76321755,406.654
3.11042099,45.76321816,406.647
3.11041852,45.76321872,406.65
3.11041586,45.76321912,406.658
3.11041330,45.76321933,406.647
3.11041056,45.76321943,406.625
3.11040772,45.76321964,406.641
3.11040507,45.76321981,406.625
3.11040256,45.76322029,406.635
3.11039983,45.76322089,406.636
3.11039753,45.76322161,406.637
3.11039526,45.76322250,406.643
3.11039288,45.76322338,406.665
3.11039086,45.76322430,406.681
3.11038852,45.76322496,406.673
3.11038610,45.76322573,406.679
3.11038382,45.76322634,406.672
3.11038136,45.76322691,406.695
3.11037893,45.76322751,406.7
3.11037652,45.76322811,406.667
3.11037413,45.76322873,406.687
3.11037186,45.76322946,406.688
3.11036944,45.76323026,406.687
3.11036714,45.76323105,406.683
3.11036483,45.76323176,406.709
3.11036251,45.76323245,406.703
3.11036008,45.76323330,406.706
3.11035782,45.76323406,406.712
3.11035587,45.76323500,406.718
3.11035369,45.76323594,406.715
3.11035124,45.76323682,406.711
3.11034914,45.76323771,406.715
3.11034688,45.76323857,406.714
3.11034462,45.76323944,406.706
3.11034232,45.76324034,406.694
3.11033993,45.76324142,406.705
3.11033765,45.76324240,406.695
3.11033557,45.76324312,406.684
3.11033310,45.76324414,406.695
3.11033113,45.76324530,406.708
3.11032917,45.76324625,406.7
3.11032686,45.76324732,406.707
3.11032471,45.76324830,406.715
3.11032290,45.76324932,406.706
3.11032064,45.76325020,406.707
3.11031831,45.76325088,406.704
3.11031625,45.76325171,406.692
3.11031389,45.76325266,406.683
3.11031162,45.76325354,406.681
3.11030955,45.76325448,406.67
3.11030732,45.76325557,406.664
3.11030508,45.76325651,406.664
3.11030283,45.76325736,406.651
3.11030018,45.76325832,406.655
3.11029819,45.76325931,406.673
3.11029646,45.76326039,406.684
3.11029438,45.76326148,406.678
3.11029241,45.76326237,406.673
3.11029068,45.76326332,406.672
3.11028870,45.76326432,406.67
3.11028686,45.76326522,406.65
3.11028471,45.76326606,406.637
3.11028268,45.76326697,406.636
3.11028095,45.76326785,406.631
3.11027903,45.76326877,406.606
3.11027691,45.76326963,406.631
3.11027476,45.76327049,406.634
3.11027262,45.76327159,406.649
3.11027095,45.76327260,406.652
3.11026915,45.76327354,406.671
3.11026697,45.76327467,406.68
3.11026482,45.76327561,406.682
3.11026264,45.76327648,406.678
3.11026041,45.76327740,406.694
3.11025836,45.76327849,406.637
3.11025626,45.76327963,406.671
3.11025446,45.76328084,406.682
3.11025264,45.76328212,406.689
3.11025030,45.76328327,406.693
3.11024806,45.76328450,406.707
3.11024588,45.76328566,406.726
3.11024344,45.76328653,406.722
3.11024112,45.76328695,406.685
3.11023837,45.76328750,406.654
3.11023613,45.76328837,406.693
3.11023452,45.76328909,406.678
3.11023267,45.76329040,406.687
3.11023072,45.76329180,406.696
3.11022891,45.76329288,406.707
3.11022689,45.76329387,406.685
3.11022478,45.76329496,406.64
3.11022275,45.76329579,406.627
3.11022043,45.76329666,406.638
3.11021830,45.76329741,406.627
3.11021626,45.76329821,406.604
3.11021402,45.76329912,406.623
3.11021209,45.76330025,406.641
3.11021049,45.76330120,406.62
3.11020859,45.76330233,406.634
3.11020660,45.76330351,406.636
3.11020470,45.76330439,406.632
3.11020262,45.76330518,406.628
3.11020042,45.76330592,406.606
3.11019817,45.76330669,406.614
3.11019596,45.76330744,406.6
3.11019369,45.76330848,406.611
3.11019174,45.76330940,406.602
3.11018946,45.76331041,406.599
3.11018730,45.76331136,406.606
3.11018500,45.76331218,406.621
3.11018287,45.76331305,406.628
3.11018058,45.76331404,406.614
3.11017840,45.76331516,406.626
3.11017637,45.76331628,406.631
3.11017440,45.76331751,406.629
3.11017236,45.76331862,406.62
3.11017047,45.76331981,406.633
3.11016868,45.76332104,406.627
3.11016683,45.76332226,406.625
3.11016490,45.76332341,406.625
3.11016298,45.76332458,406.625
3.11016130,45.76332574,406.633
3.11015951,45.76332694,406.629
3.11015768,45.76332807,406.625
3.11015580,45.76332918,406.593
3.11015387,45.76333024,406.598
3.11015202,45.76333120,406.595
3.11015011,45.76333215,406.592
3.11014814,45.76333323,406.609
3.11014641,45.76333434,406.589
3.11014452,45.76333540,406.591
3.11014266,45.76333652,406.575
3.11014063,45.76333750,406.593
3.11013877,45.76333849,406.591
3.11013684,45.76333952,406.592
3.11013470,45.76334063,406.603
3.11013263,45.76334162,406.596
3.11013056,45.76334248,406.593
3.11012846,45.76334341,406.585
3.11012644,45.76334433,406.592
3.11012437,45.76334533,406.59
3.11012213,45.76334618,406.589
3.11011988,45.76334702,406.591
3.11011774,45.76334775,406.577
3.11011539,45.76334842,406.563
3.11011307,45.76334917,406.556
3.11011112,45.76334997,406.54
3.11010920,45.76335113,406.569
3.11010723,45.76335244,406.578
3.11010550,45.76335365,406.585
3.11010346,45.76335471,406.6
3.11010125,45.76335574,406.577
3.11009920,45.76335652,406.591
3.11009690,45.76335738,406.573
3.11009448,45.76335822,406.575
3.11009237,45.76335916,406.575
3.11009024,45.76336000,406.58
3.11008779,45.76336096,406.571
3.11008575,45.76336174,406.566
3.11008360,45.76336254,406.572
3.11008134,45.76336353,406.577
3.11007936,45.76336439,406.57
3.11007727,45.76336524,406.575
3.11007503,45.76336614,406.576
3.11007298,45.76336697,406.566
3.11007090,45.76336773,406.568
3.11006863,45.76336868,406.58
3.11006672,45.76336957,406.558
3.11006462,45.76337053,406.57
3.11006253,45.76337157,406.593
3.11006076,45.76337258,406.578
3.11005863,45.76337362,406.588
3.11005657,45.76337465,406.582
3.11005450,45.76337551,406.592
3.11005242,45.76337663,406.597
3.11005042,45.76337785,406.577
3.11004866,45.76337904,406.604
3.11004676,45.76338028,406.603
3.11004476,45.76338149,406.605
3.11004293,45.76338248,406.609
3.11004097,45.76338365,406.603
3.11003893,45.76338476,406.631
3.11003715,45.76338573,406.613
3.11003491,45.76338680,406.642
3.11003291,45.76338776,406.628
3.11003080,45.76338852,406.626
3.11002853,45.76338937,406.603
3.11002633,45.76339010,406.611
3.11002424,45.76339096,406.599
3.11002211,45.76339194,406.595
3.11001987,45.76339296,406.623
3.11001800,45.76339411,406.62
3.11001608,45.76339540,406.628
3.11001427,45.76339674,406.644
3.11001214,45.76339781,406.638
3.11000995,45.76339895,406.61
3.11000770,45.76339987,406.61
3.11000561,45.76340067,406.6
3.11000319,45.76340147,406.603
3.11000102,45.76340218,406.601
3.10999882,45.76340295,406.598
3.10999659,45.76340392,406.586
3.10999472,45.76340498,406.588
3.10999292,45.76340631,406.62
3.10999106,45.76340760,406.618
3.10998920,45.76340860,406.62
3.10998737,45.76340985,406.623
3.10998527,45.76341093,406.632
3.10998339,45.76341185,406.616
3.10998116,45.76341266,406.62
3.10997880,45.76341357,406.618
3.10997662,45.76341411,406.618
3.10997417,45.76341475,406.608
3.10997198,45.76341555,406.599
3.10997000,45.76341641,406.611
3.10996783,45.76341738,406.616
3.10996600,45.76341851,406.608
3.10996398,45.76341954,406.622
3.10996204,45.76342079,406.615
3.10996007,45.76342179,406.636
3.10995820,45.76342291,406.597
3.10995629,45.76342393,406.589
3.10995412,45.76342496,406.602
3.10995191,45.76342580,406.595
3.10994982,45.76342664,406.604
3.10994756,45.76342751,406.616
3.10994540,45.76342834,406.607
3.10994343,45.76342938,406.616
3.10994149,45.76343043,406.613
3.10993932,45.76343138,406.615
3.10993718,45.76343220,406.618
3.10993495,45.76343295,406.62
3.10993302,45.76343391,406.62
3.10993106,45.76343478,406.604
3.10992888,45.76343560,406.621
3.10992669,45.76343627,406.609
3.10992457,45.76343674,406.596
3.10992216,45.76343703,406.596
3.10991994,45.76343709,406.569
3.10991767,45.76343723,406.559
3.10991527,45.76343747,406.538
3.10991325,45.76343789,406.537
3.10991104,45.76343849,406.546
3.10990873,45.76343929,406.548
3.10990696,45.76344017,406.567
3.10990493,45.76344088,406.578
3.10990252,45.76344134,406.584
3.10990057,45.76344163,406.588
3.10989827,45.76344167,406.577
3.10989587,45.76344156,406.573
3.10989391,45.76344151,406.552
3.10989155,45.76344185,406.549
3.10988924,45.76344246,406.564
3.10988679,45.76344283,406.593
3.10988427,45.76344303,406.595
3.10988193,45.76344303,406.605
3.10987984,45.76344294,406.608
3.10987772,45.76344257,406.596
3.10987560,45.76344211,406.606
3.10987339,45.76344176,406.599
3.10987108,45.76344149,406.6
3.10986886,45.76344142,406.603
3.10986656,45.76344129,406.607
3.10986422,45.76344122,406.619
3.10986186,45.76344108,406.616
3.10985953,45.76344096,406.63
3.10985709,45.76344081,406.643
3.10985467,45.76344045,406.637
3.10985244,45.76343993,406.641
3.10985025,45.76343911,406.617
3.10984819,45.76343821,406.603
3.10984614,45.76343742,406.597
3.10984379,45.76343669,406.598
3.10984140,45.76343606,406.596
3.10983930,45.76343567,406.608
3.10983676,45.76343531,406.62
3.10983426,45.76343499,406.633
3.10983206,45.76343472,406.646
3.10982967,45.76343424,406.647
3.10982733,45.76343385,406.659
3.10982518,45.76343347,406.655
3.10982284,45.76343300,406.672
3.10982075,45.76343250,406.679
3.10981869,45.76343197,406.674
3.10981663,45.76343131,406.68
3.10981469,45.76343056,406.687
3.10981296,45.76342989,406.689
3.10981141,45.76342922,406.694
3.10980995,45.76342856,406.691
3.10980876,45.76342807,406.695
3.10980774,45.76342765,406.69
3.10980690,45.76342732,406.698
        </coordinates> 
      </LineString> 
    </Placemark> 
  </Document> 
</kml> 
