<?xml version="1.0" encoding="UTF-8"?> 
<kml xmlns="http://www.opengis.net/kml/2.2" 
     xmlns:gx="http://www.google.com/kml/ext/2.2" 
     xmlns:kml="http://www.opengis.net/kml/2.2"
     xmlns:atom="http://www.w3.org/2005/Atom"> 
  <Document> 
    <name>gps_traj.kml</name> 
    <Placemark> 
      <name>Trajectoire</name> 
      <LineString> 
        <tessellate>1</tessellate> 
        <coordinates> 
3.11003382,45.76358707,406.418
3.11003383,45.76358707,406.42
3.11003383,45.76358707,406.419
3.11003383,45.76358707,406.418
3.11003382,45.76358707,406.417
3.11003383,45.76358706,406.417
3.11003384,45.76358706,406.419
3.11003382,45.76358706,406.42
3.11003381,45.76358706,406.418
3.11003382,45.76358706,406.416
3.11003382,45.76358706,406.418
3.11003383,45.76358706,406.418
3.11003380,45.76358703,406.416
3.11003372,45.76358688,406.418
3.11003354,45.76358663,406.418
3.11003326,45.76358627,406.42
3.11003292,45.76358575,406.423
3.11003245,45.76358510,406.424
3.11003192,45.76358432,406.434
3.11003110,45.76358346,406.434
3.11003019,45.76358246,406.437
3.11002914,45.76358133,406.441
3.11002812,45.76358006,406.451
3.11002710,45.76357873,406.45
3.11002629,45.76357726,406.442
3.11002539,45.76357575,406.443
3.11002432,45.76357431,406.452
3.11002314,45.76357290,406.451
3.11002193,45.76357144,406.46
3.11002075,45.76357006,406.453
3.11001961,45.76356861,406.459
3.11001838,45.76356715,406.453
3.11001725,45.76356590,406.469
3.11001619,45.76356457,406.455
3.11001500,45.76356320,406.467
3.11001389,45.76356209,406.459
3.11001250,45.76356082,406.473
3.11001150,45.76355953,406.463
3.11001064,45.76355817,406.47
3.11000960,45.76355686,406.464
3.11000843,45.76355567,406.455
3.11000703,45.76355449,406.472
3.11000569,45.76355329,406.472
3.11000454,45.76355215,406.471
3.11000354,45.76355091,406.485
3.11000245,45.76354970,406.481
3.11000138,45.76354862,406.484
3.11000030,45.76354737,406.492
3.10999944,45.76354618,406.49
3.10999838,45.76354505,406.486
3.10999713,45.76354385,406.485
3.10999611,45.76354258,406.48
3.10999524,45.76354133,406.486
3.10999437,45.76354008,406.476
3.10999345,45.76353885,406.478
3.10999267,45.76353761,406.462
3.10999169,45.76353632,406.472
3.10999051,45.76353520,406.475
3.10998927,45.76353420,406.479
3.10998806,45.76353295,406.479
3.10998693,45.76353174,406.483
3.10998593,45.76353059,406.481
3.10998506,45.76352930,406.479
3.10998431,45.76352808,406.477
3.10998361,45.76352680,406.453
3.10998275,45.76352545,406.466
3.10998178,45.76352436,406.466
3.10998059,45.76352330,406.472
3.10997914,45.76352222,406.481
3.10997787,45.76352114,406.489
3.10997662,45.76352002,406.491
3.10997551,45.76351884,406.494
3.10997460,45.76351769,406.492
3.10997377,45.76351651,406.479
3.10997296,45.76351530,406.483
3.10997208,45.76351414,406.479
3.10997110,45.76351305,406.482
3.10997010,45.76351193,406.486
3.10996918,45.76351077,406.477
3.10996835,45.76350960,406.479
3.10996747,45.76350851,406.49
3.10996660,45.76350743,406.491
3.10996579,45.76350636,406.49
3.10996509,45.76350531,406.491
3.10996441,45.76350419,406.491
3.10996367,45.76350307,406.491
3.10996312,45.76350187,406.492
3.10996269,45.76350066,406.49
3.10996227,45.76349946,406.499
3.10996194,45.76349832,406.504
3.10996140,45.76349722,406.514
3.10996080,45.76349597,406.508
3.10996038,45.76349482,406.499
3.10996011,45.76349356,406.506
3.10995982,45.76349224,406.514
3.10995988,45.76349101,406.514
3.10996012,45.76348963,406.525
3.10996033,45.76348828,406.524
3.10996043,45.76348705,406.518
3.10996042,45.76348565,406.513
3.10996014,45.76348429,406.511
3.10995988,45.76348287,406.525
3.10995948,45.76348142,406.527
3.10995928,45.76347989,406.539
3.10995901,45.76347851,406.541
3.10995894,45.76347705,406.551
3.10995892,45.76347558,406.557
3.10995892,45.76347422,406.565
3.10995906,45.76347285,406.57
3.10995948,45.76347151,406.558
3.10995993,45.76347030,406.556
3.10996049,45.76346896,406.539
3.10996087,45.76346783,406.537
3.10996116,45.76346675,406.538
3.10996132,45.76346543,406.541
3.10996124,45.76346414,406.539
3.10996115,45.76346286,406.54
3.10996095,45.76346156,406.558
3.10996094,45.76346025,406.567
3.10996115,45.76345904,406.572
3.10996164,45.76345786,406.571
3.10996211,45.76345677,406.577
3.10996293,45.76345561,406.567
3.10996383,45.76345447,406.579
3.10996490,45.76345339,406.571
3.10996608,45.76345238,406.567
3.10996733,45.76345139,406.553
3.10996842,45.76345038,406.545
3.10996951,45.76344935,406.542
3.10997065,45.76344832,406.553
3.10997153,45.76344728,406.566
3.10997241,45.76344608,406.564
3.10997325,45.76344491,406.573
3.10997400,45.76344377,406.575
3.10997517,45.76344252,406.571
3.10997635,45.76344136,406.581
3.10997760,45.76344020,406.584
3.10997886,45.76343900,406.574
3.10998017,45.76343785,406.57
3.10998153,45.76343679,406.573
3.10998281,45.76343568,406.586
3.10998400,45.76343462,406.581
3.10998540,45.76343354,406.575
3.10998644,45.76343253,406.591
3.10998756,45.76343141,406.577
3.10998856,45.76343034,406.595
3.10998962,45.76342928,406.603
3.10999059,45.76342823,406.61
3.10999200,45.76342728,406.603
3.10999258,45.76342591,406.599
3.10999358,45.76342489,406.6
3.10999465,45.76342378,406.592
3.10999606,45.76342270,406.571
3.10999732,45.76342179,406.582
3.10999892,45.76342080,406.561
3.11000048,45.76341984,406.544
3.11000190,45.76341894,406.545
3.11000302,45.76341784,406.591
3.11000421,45.76341680,406.57
3.11000529,45.76341558,406.594
3.11000622,45.76341462,406.619
3.11000743,45.76341349,406.623
3.11000832,45.76341236,406.632
3.11000960,45.76341144,406.626
3.11001086,45.76341049,406.628
3.11001219,45.76340964,406.601
3.11001362,45.76340890,406.612
3.11001507,45.76340813,406.606
3.11001641,45.76340734,406.609
3.11001794,45.76340675,406.604
3.11001934,45.76340605,406.589
3.11002080,45.76340533,406.582
3.11002228,45.76340463,406.58
3.11002396,45.76340387,406.589
3.11002563,45.76340317,406.577
3.11002707,45.76340223,406.593
3.11002860,45.76340118,406.579
3.11003000,45.76340023,406.574
3.11003141,45.76339933,406.591
3.11003315,45.76339833,406.636
3.11003479,45.76339753,406.601
3.11003649,45.76339677,406.599
3.11003812,45.76339605,406.599
3.11004015,45.76339542,406.592
3.11004187,45.76339473,406.584
3.11004355,45.76339403,406.578
3.11004544,45.76339342,406.582
3.11004717,45.76339279,406.567
3.11004897,45.76339201,406.567
3.11005060,45.76339124,406.59
3.11005197,45.76339024,406.586
3.11005345,45.76338923,406.581
3.11005501,45.76338830,406.59
3.11005663,45.76338755,406.592
3.11005824,45.76338679,406.582
3.11005981,45.76338610,406.566
3.11006121,45.76338531,406.567
3.11006291,45.76338441,406.575
3.11006441,45.76338352,406.591
3.11006588,45.76338271,406.582
3.11006745,45.76338184,406.58
3.11006899,45.76338107,406.586
3.11007061,45.76338037,406.599
3.11007234,45.76337972,406.586
3.11007383,45.76337896,406.584
3.11007563,45.76337812,406.575
3.11007715,45.76337725,406.572
3.11007867,45.76337651,406.583
3.11008029,45.76337558,406.594
3.11008212,45.76337478,406.607
3.11008373,45.76337411,406.596
3.11008555,45.76337345,406.578
3.11008734,45.76337281,406.576
3.11008909,45.76337222,406.572
3.11009072,45.76337159,406.569
3.11009251,45.76337088,406.568
3.11009419,45.76337006,406.568
3.11009594,45.76336925,406.579
3.11009762,45.76336846,406.573
3.11009919,45.76336776,406.573
3.11010106,45.76336718,406.567
3.11010299,45.76336659,406.57
3.11010461,45.76336584,406.576
3.11010623,45.76336511,406.582
3.11010812,45.76336446,406.555
3.11010982,45.76336364,406.561
3.11011131,45.76336281,406.56
3.11011300,45.76336195,406.561
3.11011462,45.76336123,406.555
3.11011639,45.76336035,406.571
3.11011812,45.76335956,406.564
3.11011974,45.76335871,406.572
3.11012128,45.76335778,406.581
3.11012286,45.76335682,406.591
3.11012448,45.76335586,406.6
3.11012614,45.76335522,406.602
3.11012798,45.76335459,406.61
3.11012985,45.76335403,406.602
3.11013162,45.76335351,406.593
3.11013343,45.76335297,406.583
3.11013502,45.76335231,406.581
3.11013666,45.76335146,406.578
3.11013828,45.76335054,406.59
3.11013979,45.76334959,406.601
3.11014145,45.76334871,406.605
3.11014323,45.76334798,406.592
3.11014500,45.76334735,406.582
3.11014674,45.76334669,406.588
3.11014840,45.76334590,406.595
3.11014991,45.76334497,406.596
3.11015140,45.76334404,406.603
3.11015291,45.76334315,406.586
3.11015466,45.76334234,406.605
3.11015635,45.76334152,406.612
3.11015794,45.76334076,406.604
3.11015952,45.76333998,406.609
3.11016112,45.76333921,406.606
3.11016280,45.76333839,406.607
3.11016449,45.76333765,406.607
3.11016626,45.76333705,406.62
3.11016811,45.76333642,406.611
3.11016998,45.76333582,406.601
3.11017177,45.76333514,406.61
3.11017341,45.76333448,406.595
3.11017524,45.76333379,406.613
3.11017707,45.76333295,406.604
3.11017879,45.76333229,406.599
3.11018067,45.76333166,406.602
3.11018252,45.76333099,406.595
3.11018418,45.76333030,406.588
3.11018581,45.76332953,406.585
3.11018739,45.76332874,406.597
3.11018901,45.76332797,406.603
3.11019065,45.76332715,406.601
3.11019227,45.76332644,406.6
3.11019392,45.76332572,406.616
3.11019571,45.76332498,406.615
3.11019728,45.76332427,406.605
3.11019875,45.76332358,406.603
3.11020042,45.76332271,406.602
3.11020214,45.76332181,406.604
3.11020367,45.76332108,406.603
3.11020539,45.76332033,406.602
3.11020701,45.76331956,406.598
3.11020852,45.76331887,406.599
3.11021022,45.76331819,406.591
3.11021181,45.76331745,406.601
3.11021310,45.76331682,406.59
3.11021483,45.76331615,406.601
3.11021636,45.76331543,406.604
3.11021772,45.76331476,406.61
3.11021948,45.76331399,406.616
3.11022115,45.76331325,406.619
3.11022268,45.76331263,406.614
3.11022417,45.76331191,406.606
3.11022579,45.76331104,406.61
3.11022727,45.76331021,406.606
3.11022888,45.76330930,406.63
3.11023037,45.76330837,406.635
3.11023188,45.76330741,406.649
3.11023343,45.76330642,406.675
3.11023507,45.76330559,406.685
3.11023686,45.76330504,406.687
3.11023880,45.76330451,406.697
3.11024052,45.76330396,406.708
3.11024246,45.76330343,406.715
3.11024445,45.76330280,406.7
3.11024611,45.76330227,406.704
3.11024799,45.76330140,406.71
3.11024970,45.76330056,406.705
3.11025132,45.76329973,406.717
3.11025300,45.76329874,406.731
3.11025458,45.76329771,406.738
3.11025621,45.76329674,406.751
3.11025787,45.76329579,406.757
3.11025955,45.76329494,406.758
3.11026136,45.76329409,406.758
3.11026317,45.76329305,406.774
3.11026468,45.76329216,406.768
3.11026611,45.76329117,406.777
3.11026820,45.76329022,406.791
3.11026997,45.76328954,406.774
3.11027163,45.76328894,406.766
3.11027316,45.76328812,406.772
3.11027459,45.76328742,406.765
3.11027621,45.76328667,406.766
3.11027770,45.76328574,406.761
3.11027887,45.76328475,406.773
3.11028018,45.76328368,406.763
3.11028161,45.76328264,406.763
3.11028299,45.76328187,406.747
3.11028482,45.76328108,406.745
3.11028648,45.76328024,406.749
3.11028801,45.76327942,406.736
3.11028965,45.76327863,406.746
3.11029119,45.76327808,406.741
3.11029310,45.76327763,406.736
3.11029501,45.76327699,406.744
3.11029643,45.76327642,406.743
3.11029817,45.76327565,406.743
3.11029985,45.76327479,406.752
3.11030144,45.76327389,406.762
3.11030305,45.76327303,406.759
3.11030474,45.76327219,406.766
3.11030600,45.76327138,406.764
3.11030782,45.76327071,406.765
3.11030967,45.76327025,406.76
3.11031155,45.76326998,406.738
3.11031373,45.76326935,406.75
3.11031514,45.76326878,406.749
3.11031619,45.76326798,406.754
3.11031763,45.76326686,406.757
3.11031906,45.76326589,406.762
3.11032048,45.76326506,406.755
3.11032226,45.76326423,406.757
3.11032411,45.76326370,406.742
3.11032593,45.76326336,406.735
3.11032809,45.76326297,406.726
3.11032997,45.76326221,406.746
3.11033151,45.76326158,406.723
3.11033319,45.76326053,406.753
3.11033424,45.76325935,406.757
3.11033511,45.76325804,406.747
3.11033652,45.76325679,406.794
3.11033788,45.76325576,406.795
3.11033922,45.76325493,406.811
3.11034088,45.76325441,406.798
3.11034245,45.76325404,406.781
3.11034443,45.76325375,406.786
3.11034640,45.76325339,406.77
3.11034797,45.76325276,406.762
3.11034951,45.76325195,406.768
3.11035122,45.76325106,406.753
3.11035269,45.76325020,406.762
3.11035432,45.76324932,406.766
3.11035609,45.76324867,406.755
3.11035798,45.76324805,406.749
3.11035963,45.76324749,406.753
3.11036157,45.76324697,406.74
3.11036326,45.76324637,406.745
3.11036487,45.76324558,406.739
3.11036655,45.76324478,406.742
3.11036783,45.76324379,406.728
3.11036909,45.76324296,406.75
3.11037051,45.76324219,406.764
3.11037192,45.76324162,406.769
3.11037314,45.76324105,406.773
3.11037415,45.76324050,406.778
3.11037528,45.76324005,406.771
3.11037632,45.76323943,406.742
3.11037751,45.76323885,406.739
3.11037885,45.76323830,406.743
3.11038001,45.76323773,406.739
3.11038128,45.76323720,406.734
3.11038269,45.76323657,406.742
3.11038426,45.76323615,406.731
3.11038574,45.76323558,406.743
3.11038720,45.76323507,406.721
3.11038870,45.76323469,406.732
3.11039023,45.76323422,406.712
3.11039159,45.76323372,406.721
3.11039308,45.76323328,406.715
3.11039477,45.76323282,406.733
3.11039637,45.76323245,406.737
3.11039806,45.76323197,406.75
3.11039974,45.76323151,406.743
3.11040141,45.76323109,406.757
3.11040316,45.76323076,406.748
3.11040489,45.76323048,406.748
3.11040687,45.76323039,406.735
3.11040869,45.76323013,406.754
3.11041030,45.76322997,406.753
3.11041182,45.76322987,406.739
3.11041356,45.76322985,406.745
3.11041507,45.76322976,406.752
3.11041639,45.76322992,406.726
3.11041802,45.76323006,406.711
3.11041944,45.76323014,406.721
3.11042100,45.76323005,406.714
3.11042258,45.76322990,406.733
3.11042437,45.76322972,406.784
3.11042577,45.76322960,406.783
3.11042733,45.76322933,406.791
3.11042880,45.76322924,406.803
3.11042997,45.76322903,406.75
3.11043157,45.76322895,406.768
3.11043298,45.76322878,406.756
3.11043450,45.76322855,406.771
3.11043606,45.76322838,406.754
3.11043746,45.76322818,406.732
3.11043917,45.76322781,406.75
3.11044090,45.76322745,406.74
3.11044274,45.76322708,406.732
3.11044468,45.76322683,406.757
3.11044685,45.76322670,406.755
3.11044890,45.76322670,406.719
3.11045084,45.76322688,406.709
3.11045295,45.76322706,406.712
3.11045500,45.76322700,406.702
3.11045689,45.76322666,406.674
3.11045907,45.76322623,406.689
3.11046104,45.76322591,406.673
3.11046297,45.76322553,406.68
3.11046497,45.76322518,406.67
3.11046680,45.76322488,406.644
3.11046871,45.76322477,406.64
3.11047067,45.76322461,406.645
3.11047248,45.76322436,406.627
3.11047441,45.76322399,406.627
3.11047625,45.76322375,406.606
3.11047830,45.76322368,406.605
3.11048020,45.76322357,406.602
3.11048203,45.76322332,406.6
3.11048391,45.76322316,406.59
3.11048584,45.76322300,406.577
3.11048788,45.76322276,406.582
3.11048981,45.76322250,406.58
3.11049174,45.76322219,406.583
3.11049383,45.76322200,406.577
3.11049585,45.76322188,406.575
3.11049771,45.76322178,406.566
3.11049983,45.76322165,406.566
3.11050179,45.76322146,406.566
3.11050376,45.76322129,406.567
3.11050574,45.76322105,406.563
3.11050769,45.76322084,406.576
3.11050960,45.76322059,406.578
3.11051154,45.76322031,406.572
3.11051345,45.76322011,406.569
3.11051541,45.76321985,406.587
3.11051745,45.76321972,406.58
3.11051940,45.76321952,406.577
3.11052143,45.76321933,406.574
3.11052362,45.76321921,406.571
3.11052546,45.76321922,406.564
3.11052722,45.76321920,406.562
3.11052912,45.76321917,406.548
3.11053089,45.76321909,406.543
3.11053267,45.76321897,406.545
3.11053436,45.76321882,406.566
3.11053591,45.76321863,406.565
3.11053722,45.76321849,406.566
3.11053839,45.76321842,406.566
3.11053941,45.76321838,406.561
3.11054010,45.76321832,406.552
3.11054067,45.76321828,406.555
3.11054093,45.76321824,406.553
        </coordinates> 
      </LineString> 
    </Placemark> 
  </Document> 
</kml> 
