<?xml version="1.0" encoding="UTF-8"?> 
<kml xmlns="http://www.opengis.net/kml/2.2" 
     xmlns:gx="http://www.google.com/kml/ext/2.2" 
     xmlns:kml="http://www.opengis.net/kml/2.2"
     xmlns:atom="http://www.w3.org/2005/Atom"> 
  <Document> 
    <name>gps_traj.kml</name> 
    <Placemark> 
      <name>Trajectoire</name> 
      <LineString> 
        <tessellate>1</tessellate> 
        <coordinates> 
3.11005453,45.76360152,406.365
3.11005455,45.76360152,406.364
3.11005455,45.76360151,406.363
3.11005455,45.76360152,406.362
3.11005455,45.76360152,406.362
3.11005454,45.76360152,406.361
3.11005454,45.76360151,406.361
3.11005455,45.76360152,406.361
3.11005456,45.76360152,406.36
3.11005455,45.76360152,406.359
3.11005456,45.76360151,406.36
3.11005454,45.76360151,406.36
3.11005454,45.76360151,406.36
3.11005454,45.76360151,406.36
3.11005454,45.76360151,406.358
3.11005454,45.76360151,406.359
3.11005453,45.76360148,406.358
3.11005446,45.76360135,406.358
3.11005433,45.76360113,406.357
3.11005413,45.76360079,406.358
3.11005383,45.76360030,406.362
3.11005345,45.76359969,406.37
3.11005303,45.76359889,406.363
3.11005252,45.76359788,406.365
3.11005192,45.76359680,406.369
3.11005120,45.76359558,406.377
3.11005066,45.76359416,406.386
3.11005001,45.76359271,406.392
3.11004927,45.76359125,406.386
3.11004863,45.76358971,406.385
3.11004793,45.76358803,406.402
3.11004680,45.76358653,406.414
3.11004561,45.76358524,406.415
3.11004421,45.76358394,406.414
3.11004303,45.76358247,406.421
3.11004206,45.76358103,406.415
3.11004114,45.76357943,406.411
3.11004018,45.76357794,406.413
3.11003937,45.76357648,406.402
3.11003819,45.76357510,406.418
3.11003716,45.76357377,406.417
3.11003591,45.76357257,406.418
3.11003459,45.76357129,406.423
3.11003352,45.76357007,406.426
3.11003262,45.76356886,406.422
3.11003159,45.76356761,406.427
3.11003066,45.76356643,406.442
3.11002959,45.76356532,406.438
3.11002846,45.76356412,406.44
3.11002738,45.76356305,406.448
3.11002636,45.76356205,406.447
3.11002534,45.76356075,406.447
3.11002441,45.76355934,406.438
3.11002374,45.76355820,406.437
3.11002291,45.76355684,406.425
3.11002195,45.76355550,406.428
3.11002076,45.76355427,406.424
3.11001950,45.76355304,406.441
3.11001816,45.76355191,406.46
3.11001663,45.76355080,406.472
3.11001528,45.76354961,406.486
3.11001400,45.76354844,406.492
3.11001273,45.76354739,406.499
3.11001141,45.76354625,406.52
3.11001031,45.76354513,406.503
3.11000969,45.76354389,406.486
3.11000905,45.76354244,406.485
3.11000838,45.76354124,406.484
3.11000759,45.76353995,406.465
3.11000656,45.76353859,406.47
3.11000560,45.76353734,406.47
3.11000450,45.76353620,406.476
3.11000326,45.76353504,406.472
3.11000202,45.76353411,406.477
3.11000083,45.76353300,406.468
3.10999974,45.76353159,406.468
3.10999889,45.76353043,406.476
3.10999815,45.76352928,406.466
3.10999702,45.76352790,406.475
3.10999622,45.76352687,406.453
3.10999523,45.76352579,406.456
3.10999403,45.76352456,406.457
3.10999304,45.76352357,406.444
3.10999201,45.76352235,406.44
3.10999096,45.76352102,406.452
3.10999027,45.76351978,406.44
3.10998949,45.76351852,406.448
3.10998832,45.76351726,406.454
3.10998733,45.76351623,406.453
3.10998650,45.76351511,406.444
3.10998560,45.76351373,406.461
3.10998467,45.76351263,406.44
3.10998364,45.76351162,406.456
3.10998255,45.76351043,406.46
3.10998162,45.76350926,406.454
3.10998045,45.76350810,406.476
3.10997920,45.76350703,406.476
3.10997781,45.76350604,406.483
3.10997670,45.76350491,406.491
3.10997572,45.76350370,406.495
3.10997484,45.76350257,406.506
3.10997426,45.76350152,406.493
3.10997368,45.76350022,406.491
3.10997289,45.76349901,406.507
3.10997188,45.76349794,406.511
3.10997068,45.76349676,406.525
3.10996948,45.76349557,406.539
3.10996866,45.76349444,406.539
3.10996782,45.76349316,406.543
3.10996713,45.76349189,406.533
3.10996674,45.76349057,406.525
3.10996628,45.76348912,406.528
3.10996583,45.76348770,406.523
3.10996542,45.76348638,406.526
3.10996515,45.76348496,406.523
3.10996476,45.76348354,406.51
3.10996422,45.76348228,406.514
3.10996330,45.76348112,406.528
3.10996217,45.76347986,406.533
3.10996110,45.76347871,406.537
3.10995995,45.76347745,406.553
3.10995904,45.76347623,406.56
3.10995825,45.76347501,406.559
3.10995763,45.76347377,406.567
3.10995716,45.76347256,406.563
3.10995679,45.76347131,406.556
3.10995663,45.76347017,406.555
3.10995659,45.76346900,406.546
3.10995656,45.76346787,406.551
3.10995673,45.76346679,406.538
3.10995694,45.76346582,406.53
3.10995701,45.76346466,406.528
3.10995700,45.76346370,406.534
3.10995697,45.76346261,406.525
3.10995670,45.76346158,406.526
3.10995640,45.76346044,406.537
3.10995640,45.76345927,406.534
3.10995659,45.76345804,406.543
3.10995703,45.76345690,406.546
3.10995740,45.76345580,406.556
3.10995774,45.76345456,406.555
3.10995840,45.76345339,406.561
3.10995899,45.76345224,406.556
3.10995981,45.76345107,406.568
3.10996050,45.76344995,406.573
3.10996120,45.76344885,406.562
3.10996186,45.76344760,406.579
3.10996261,45.76344644,406.582
3.10996350,45.76344534,406.595
3.10996409,45.76344411,406.587
3.10996492,45.76344303,406.584
3.10996571,45.76344182,406.587
3.10996660,45.76344068,406.587
3.10996741,45.76343951,406.587
3.10996840,45.76343831,406.573
3.10996947,45.76343727,406.573
3.10997045,45.76343631,406.563
3.10997152,45.76343539,406.561
3.10997253,45.76343442,406.561
3.10997344,45.76343342,406.554
3.10997428,45.76343241,406.568
3.10997537,45.76343142,406.579
3.10997614,45.76343050,406.581
3.10997690,45.76342953,406.595
3.10997783,45.76342854,406.598
3.10997861,45.76342769,406.617
3.10997964,45.76342672,406.623
3.10998073,45.76342578,406.62
3.10998190,45.76342501,406.616
3.10998312,45.76342416,406.618
3.10998445,45.76342354,406.652
3.10998589,45.76342300,406.645
3.10998757,45.76342253,406.618
3.10998920,45.76342205,406.633
3.10999080,45.76342163,406.591
3.10999259,45.76342108,406.582
3.10999436,45.76342056,406.592
3.10999595,45.76342002,406.577
3.10999773,45.76341934,406.578
3.10999906,45.76341848,406.532
3.11000061,45.76341763,406.555
3.11000236,45.76341705,406.581
3.11000379,45.76341618,406.57
3.11000545,45.76341558,406.596
3.11000728,45.76341479,406.603
3.11000883,45.76341408,406.607
3.11001066,45.76341331,406.599
3.11001254,45.76341271,406.587
3.11001432,45.76341217,406.598
3.11001633,45.76341138,406.559
3.11001800,45.76341074,406.57
3.11001965,45.76341005,406.563
3.11002132,45.76340929,406.567
3.11002316,45.76340864,406.561
3.11002493,45.76340788,406.574
3.11002686,45.76340716,406.581
3.11002862,45.76340646,406.572
3.11003030,45.76340560,406.588
3.11003208,45.76340482,406.602
3.11003376,45.76340419,406.577
3.11003565,45.76340365,406.592
3.11003737,45.76340297,406.581
3.11003931,45.76340247,406.551
3.11004106,45.76340182,406.579
3.11004287,45.76340139,406.56
3.11004457,45.76340082,406.553
3.11004644,45.76340029,406.543
3.11004821,45.76339958,406.534
3.11004972,45.76339882,406.542
3.11005136,45.76339798,406.534
3.11005310,45.76339718,406.533
3.11005470,45.76339635,406.525
3.11005632,45.76339555,406.52
3.11005805,45.76339481,406.529
3.11005973,45.76339398,406.562
3.11006147,45.76339325,406.55
3.11006327,45.76339248,406.539
3.11006488,45.76339182,406.536
3.11006650,45.76339103,406.55
3.11006808,45.76339024,406.538
3.11006988,45.76338962,406.543
3.11007156,45.76338892,406.536
3.11007304,45.76338815,406.547
3.11007455,45.76338739,406.541
3.11007613,45.76338663,406.54
3.11007779,45.76338586,406.533
3.11007946,45.76338516,406.537
3.11008124,45.76338452,406.522
3.11008304,45.76338382,406.526
3.11008481,45.76338329,406.534
3.11008665,45.76338259,406.528
3.11008839,45.76338175,406.518
3.11008976,45.76338094,406.524
3.11009138,45.76338001,406.543
3.11009291,45.76337889,406.557
3.11009402,45.76337786,406.57
3.11009554,45.76337688,406.582
3.11009715,45.76337597,406.577
3.11009863,45.76337521,406.587
3.11010000,45.76337444,406.581
3.11010173,45.76337382,406.58
3.11010329,45.76337297,406.572
3.11010461,45.76337198,406.589
3.11010618,45.76337109,406.589
3.11010748,45.76337007,406.613
3.11010918,45.76336921,406.616
3.11011079,45.76336847,406.607
3.11011270,45.76336777,406.599
3.11011425,45.76336696,406.612
3.11011596,45.76336647,406.61
3.11011804,45.76336590,406.586
3.11011963,45.76336515,406.575
3.11012118,45.76336420,406.558
3.11012254,45.76336326,406.581
3.11012419,45.76336244,406.584
3.11012612,45.76336177,406.591
3.11012779,45.76336103,406.601
3.11012942,45.76336026,406.605
3.11013096,45.76335952,406.593
3.11013255,45.76335878,406.599
3.11013423,45.76335804,406.57
3.11013573,45.76335721,406.577
3.11013740,45.76335643,406.58
3.11013903,45.76335568,406.555
3.11014050,45.76335490,406.605
3.11014213,45.76335409,406.603
3.11014379,45.76335323,406.612
3.11014539,45.76335241,406.601
3.11014710,45.76335171,406.59
3.11014878,45.76335095,406.604
3.11015056,45.76335018,406.587
3.11015214,45.76334946,406.582
3.11015375,45.76334864,406.602
3.11015540,45.76334776,406.599
3.11015692,45.76334686,406.596
3.11015849,45.76334591,406.598
3.11015996,45.76334501,406.597
3.11016139,45.76334411,406.607
3.11016307,45.76334315,406.611
3.11016462,45.76334239,406.612
3.11016636,45.76334179,406.618
3.11016820,45.76334111,406.614
3.11016999,45.76334050,406.617
3.11017157,45.76333980,406.608
3.11017319,45.76333896,406.61
3.11017475,45.76333814,406.615
3.11017636,45.76333731,406.615
3.11017800,45.76333653,406.613
3.11017961,45.76333580,406.606
3.11018134,45.76333501,406.608
3.11018316,45.76333424,406.613
3.11018476,45.76333362,406.594
3.11018653,45.76333288,406.597
3.11018825,45.76333220,406.591
3.11019003,45.76333158,406.601
3.11019174,45.76333089,406.6
3.11019339,45.76333023,406.599
3.11019484,45.76332941,406.6
3.11019636,45.76332857,406.614
3.11019786,45.76332766,406.611
3.11019933,45.76332685,406.606
3.11020073,45.76332605,406.599
3.11020236,45.76332527,406.602
3.11020410,45.76332463,406.597
3.11020577,45.76332385,406.603
3.11020749,45.76332306,406.585
3.11020900,45.76332223,406.588
3.11021055,45.76332144,406.597
3.11021211,45.76332045,406.6
3.11021349,45.76331975,406.592
3.11021497,45.76331900,406.598
3.11021671,45.76331827,406.601
3.11021828,45.76331773,406.598
3.11021976,45.76331705,406.589
3.11022132,45.76331624,406.597
3.11022282,45.76331544,406.607
3.11022450,45.76331472,406.605
3.11022613,45.76331393,406.603
3.11022750,45.76331310,406.608
3.11022897,45.76331225,406.599
3.11023042,45.76331127,406.629
3.11023170,45.76331028,406.637
3.11023311,45.76330925,406.648
3.11023452,45.76330818,406.668
3.11023586,45.76330717,406.671
3.11023763,45.76330640,406.674
3.11023945,45.76330590,406.676
3.11024129,45.76330551,406.672
3.11024331,45.76330500,406.668
3.11024506,45.76330440,406.681
3.11024675,45.76330374,406.69
3.11024850,45.76330295,406.688
3.11025026,45.76330194,406.699
3.11025180,45.76330094,406.705
3.11025343,45.76329990,406.722
3.11025497,45.76329879,406.731
3.11025654,45.76329767,406.731
3.11025824,45.76329660,406.746
3.11026000,45.76329557,406.744
3.11026175,45.76329454,406.769
3.11026349,45.76329337,406.772
3.11026514,45.76329211,406.764
3.11026669,45.76329094,406.768
3.11026830,45.76328978,406.758
3.11026995,45.76328871,406.759
3.11027151,45.76328775,406.751
3.11027283,45.76328682,406.74
3.11027412,45.76328567,406.733
3.11027532,45.76328460,406.741
3.11027639,45.76328346,406.74
3.11027743,45.76328228,406.741
3.11027846,45.76328119,406.738
3.11027980,45.76328023,406.733
3.11028129,45.76327943,406.726
3.11028294,45.76327878,406.714
3.11028435,45.76327812,406.698
3.11028554,45.76327738,406.7
3.11028682,45.76327643,406.702
3.11028814,45.76327557,406.709
3.11028951,45.76327485,406.701
3.11029093,45.76327403,406.712
3.11029223,45.76327336,406.703
3.11029359,45.76327270,406.719
3.11029507,45.76327201,406.709
3.11029653,45.76327136,406.712
3.11029801,45.76327066,406.716
3.11029964,45.76326997,406.718
3.11030130,45.76326936,406.732
3.11030280,45.76326871,406.75
3.11030452,45.76326836,406.703
3.11030649,45.76326787,406.7
3.11030825,45.76326727,406.699
3.11030990,45.76326645,406.711
3.11031132,45.76326573,406.705
3.11031308,45.76326495,406.732
3.11031517,45.76326432,406.739
3.11031696,45.76326385,406.734
3.11031875,45.76326330,406.731
3.11032079,45.76326285,406.731
3.11032245,45.76326238,406.736
3.11032420,45.76326163,406.741
3.11032602,45.76326091,406.751
3.11032776,45.76326017,406.75
3.11032956,45.76325959,406.755
3.11033140,45.76325891,406.757
3.11033316,45.76325803,406.76
3.11033517,45.76325729,406.773
3.11033699,45.76325683,406.785
3.11033897,45.76325633,406.787
3.11034098,45.76325597,406.761
3.11034303,45.76325555,406.755
3.11034479,45.76325499,406.769
3.11034663,45.76325443,406.769
3.11034842,45.76325377,406.766
3.11035009,45.76325308,406.768
3.11035183,45.76325233,406.759
3.11035358,45.76325161,406.761
3.11035549,45.76325110,406.76
3.11035750,45.76325073,406.748
3.11035942,45.76325039,406.751
3.11036124,45.76325005,406.749
3.11036323,45.76324968,406.737
3.11036504,45.76324906,406.732
3.11036678,45.76324842,406.744
3.11036877,45.76324778,406.698
3.11037058,45.76324718,406.701
3.11037225,45.76324654,406.699
3.11037409,45.76324595,406.702
3.11037582,45.76324546,406.709
3.11037732,45.76324472,406.752
3.11037914,45.76324402,406.72
3.11038077,45.76324343,406.732
3.11038256,45.76324287,406.712
3.11038455,45.76324230,406.737
3.11038619,45.76324174,406.738
3.11038774,45.76324112,406.747
3.11038958,45.76324056,406.737
3.11039147,45.76324010,406.719
3.11039328,45.76323952,406.741
3.11039479,45.76323895,406.725
3.11039682,45.76323844,406.705
3.11039865,45.76323788,406.746
3.11040054,45.76323738,406.719
3.11040244,45.76323680,406.741
3.11040442,45.76323640,406.746
3.11040626,45.76323576,406.786
3.11040801,45.76323509,406.761
3.11041004,45.76323453,406.781
3.11041187,45.76323398,406.789
3.11041390,45.76323332,406.742
3.11041584,45.76323279,406.733
3.11041774,45.76323209,406.746
3.11041998,45.76323159,406.741
3.11042198,45.76323093,406.754
3.11042397,45.76323020,406.739
3.11042585,45.76322949,406.748
3.11042801,45.76322887,406.745
3.11042984,45.76322835,406.756
3.11043195,45.76322788,406.754
3.11043402,45.76322737,406.767
3.11043591,45.76322687,406.752
3.11043782,45.76322637,406.742
3.11043972,45.76322589,406.733
3.11044169,45.76322548,406.713
3.11044375,45.76322494,406.734
3.11044567,45.76322451,406.702
3.11044766,45.76322423,406.681
3.11044970,45.76322405,406.663
3.11045137,45.76322387,406.651
3.11045319,45.76322381,406.654
3.11045504,45.76322339,406.649
3.11045666,45.76322285,406.644
3.11045828,45.76322212,406.66
3.11046007,45.76322158,406.657
3.11046192,45.76322109,406.673
3.11046352,45.76322081,406.653
3.11046522,45.76322072,406.632
3.11046706,45.76322055,406.634
3.11046883,45.76322054,406.629
3.11047047,45.76322057,406.617
3.11047217,45.76322063,406.606
3.11047395,45.76322059,406.589
3.11047565,45.76322054,406.584
3.11047756,45.76322039,406.579
3.11047949,45.76322016,406.588
3.11048143,45.76321997,406.581
3.11048341,45.76321983,406.579
3.11048527,45.76321971,406.572
3.11048729,45.76321960,406.586
3.11048905,45.76321948,406.582
3.11049061,45.76321940,406.573
3.11049214,45.76321933,406.579
3.11049357,45.76321925,406.586
3.11049472,45.76321921,406.582
3.11049565,45.76321921,406.585
3.11049637,45.76321920,406.593
3.11049675,45.76321919,406.579
3.11049688,45.76321921,406.581
3.11049687,45.76321917,406.581
3.11049669,45.76321920,406.59
3.11049659,45.76321917,406.586
3.11049665,45.76321916,406.586
3.11049672,45.76321916,406.588
3.11049672,45.76321918,406.594
3.11049662,45.76321918,406.575
3.11049664,45.76321917,406.58
3.11049669,45.76321918,406.58
        </coordinates> 
      </LineString> 
    </Placemark> 
  </Document> 
</kml> 
