<?xml version="1.0" encoding="UTF-8"?> 
<kml xmlns="http://www.opengis.net/kml/2.2" 
     xmlns:gx="http://www.google.com/kml/ext/2.2" 
     xmlns:kml="http://www.opengis.net/kml/2.2"
     xmlns:atom="http://www.w3.org/2005/Atom"> 
  <Document> 
    <name>gps_traj.kml</name> 
    <Placemark> 
      <name>Trajectoire</name> 
      <LineString> 
        <tessellate>1</tessellate> 
        <coordinates> 
3.10998302,45.76276713,407.213
3.10998303,45.76276714,407.212
3.10998303,45.76276713,407.213
3.10998302,45.76276713,407.216
3.10998302,45.76276713,407.217
3.10998301,45.76276713,407.217
3.10998302,45.76276712,407.215
3.10998303,45.76276710,407.215
3.10998307,45.76276689,407.214
3.10998314,45.76276653,407.214
3.10998323,45.76276602,407.216
3.10998338,45.76276538,407.215
3.10998349,45.76276465,407.216
3.10998366,45.76276373,407.213
3.10998392,45.76276261,407.216
3.10998425,45.76276130,407.219
3.10998458,45.76275989,407.214
3.10998495,45.76275827,407.218
3.10998522,45.76275666,407.215
3.10998558,45.76275491,407.222
3.10998605,45.76275309,407.214
3.10998649,45.76275128,407.219
3.10998688,45.76274938,407.226
3.10998726,45.76274747,407.222
3.10998779,45.76274555,407.222
3.10998838,45.76274374,407.211
3.10998873,45.76274183,407.222
3.10998883,45.76273989,407.233
3.10998886,45.76273803,407.248
3.10998911,45.76273610,407.267
3.10998958,45.76273423,407.262
3.10999004,45.76273243,407.262
3.10999043,45.76273063,407.267
3.10999095,45.76272880,407.267
3.10999134,45.76272709,407.274
3.10999161,45.76272522,407.281
3.10999185,45.76272357,407.269
3.10999226,45.76272176,407.265
3.10999275,45.76272002,407.274
3.10999314,45.76271826,407.282
3.10999360,45.76271647,407.285
3.10999393,45.76271474,407.281
3.10999416,45.76271297,407.292
3.10999439,45.76271117,407.287
3.10999472,45.76270941,407.3
3.10999507,45.76270761,407.298
3.10999552,45.76270580,407.304
3.10999581,45.76270397,407.31
3.10999618,45.76270213,407.31
3.10999655,45.76270026,407.309
3.10999689,45.76269847,407.302
3.10999711,45.76269665,407.286
3.10999740,45.76269488,407.289
3.10999775,45.76269322,407.29
3.10999806,45.76269148,407.287
3.10999839,45.76268971,407.293
3.10999857,45.76268811,407.291
3.10999885,45.76268650,407.285
3.10999903,45.76268476,407.285
3.10999929,45.76268322,407.28
3.10999973,45.76268167,407.278
3.11000049,45.76268013,407.271
3.11000127,45.76267864,407.267
3.11000213,45.76267715,407.27
3.11000285,45.76267567,407.267
3.11000343,45.76267415,407.262
3.11000380,45.76267263,407.249
3.11000423,45.76267102,407.267
3.11000465,45.76266947,407.271
3.11000530,45.76266795,407.283
3.11000625,45.76266631,407.276
3.11000710,45.76266494,407.277
3.11000816,45.76266353,407.279
3.11000938,45.76266211,407.273
3.11001067,45.76266072,407.274
3.11001196,45.76265935,407.28
3.11001324,45.76265798,407.291
3.11001445,45.76265665,407.29
3.11001569,45.76265529,407.295
3.11001713,45.76265399,407.297
3.11001861,45.76265275,407.293
3.11001999,45.76265153,407.304
3.11002133,45.76265034,407.295
3.11002286,45.76264914,407.293
3.11002451,45.76264800,407.309
3.11002619,45.76264694,407.303
3.11002794,45.76264615,407.274
3.11002966,45.76264516,407.276
3.11003156,45.76264413,407.283
3.11003320,45.76264326,407.282
3.11003499,45.76264222,407.287
3.11003689,45.76264124,407.289
3.11003878,45.76264033,407.299
3.11004060,45.76263944,407.307
3.11004259,45.76263856,407.3
3.11004458,45.76263780,407.303
3.11004679,45.76263714,407.316
3.11004880,45.76263643,407.311
3.11005086,45.76263587,407.306
3.11005300,45.76263517,407.313
3.11005504,45.76263461,407.293
3.11005726,45.76263399,407.312
3.11005931,45.76263332,407.319
3.11006141,45.76263276,407.311
3.11006375,45.76263213,407.326
3.11006597,45.76263165,407.333
3.11006826,45.76263122,407.325
3.11007063,45.76263089,407.32
3.11007280,45.76263068,407.322
3.11007515,45.76263050,407.32
3.11007744,45.76263019,407.314
3.11007973,45.76262987,407.315
3.11008216,45.76262973,407.317
3.11008452,45.76262958,407.319
3.11008690,45.76262939,407.322
3.11008917,45.76262951,407.323
3.11009137,45.76262956,407.294
3.11009371,45.76262979,407.287
3.11009592,45.76262990,407.285
3.11009816,45.76263007,407.282
3.11010050,45.76263017,407.287
3.11010279,45.76263032,407.289
3.11010520,45.76263033,407.278
3.11010745,45.76263056,407.284
3.11010983,45.76263081,407.3
3.11011200,45.76263114,407.286
3.11011406,45.76263166,407.286
3.11011645,45.76263222,407.293
3.11011855,45.76263281,407.286
3.11012089,45.76263340,407.288
3.11012326,45.76263407,407.27
3.11012541,45.76263465,407.279
3.11012782,45.76263529,407.283
3.11013020,45.76263577,407.283
3.11013261,45.76263608,407.286
3.11013504,45.76263665,407.285
3.11013725,45.76263736,407.274
3.11013958,45.76263798,407.268
3.11014201,45.76263851,407.278
3.11014433,45.76263902,407.281
3.11014668,45.76263957,407.27
3.11014910,45.76263988,407.272
3.11015153,45.76264044,407.283
3.11015378,45.76264094,407.274
3.11015600,45.76264153,407.269
3.11015819,45.76264213,407.27
3.11016053,45.76264275,407.271
3.11016266,45.76264353,407.267
3.11016504,45.76264406,407.26
3.11016745,45.76264471,407.262
3.11016972,45.76264524,407.261
3.11017211,45.76264576,407.267
3.11017458,45.76264616,407.265
3.11017702,45.76264657,407.267
3.11017946,45.76264701,407.266
3.11018200,45.76264745,407.282
3.11018447,45.76264793,407.292
3.11018678,45.76264833,407.28
3.11018923,45.76264899,407.288
3.11019144,45.76264962,407.276
3.11019377,45.76265022,407.278
3.11019618,45.76265065,407.283
3.11019875,45.76265109,407.283
3.11020118,45.76265139,407.278
3.11020351,45.76265179,407.281
3.11020593,45.76265235,407.284
3.11020822,45.76265299,407.276
3.11021039,45.76265358,407.267
3.11021278,45.76265419,407.251
3.11021498,45.76265481,407.251
3.11021726,45.76265543,407.248
3.11021975,45.76265586,407.245
3.11022199,45.76265635,407.256
3.11022436,45.76265681,407.24
3.11022685,45.76265736,407.24
3.11022920,45.76265785,407.247
3.11023179,45.76265807,407.271
3.11023409,45.76265847,407.254
3.11023663,45.76265877,407.255
3.11023891,45.76265931,407.264
3.11024130,45.76265992,407.262
3.11024357,45.76266050,407.248
3.11024577,45.76266122,407.242
3.11024808,45.76266184,407.245
3.11025056,45.76266233,407.235
3.11025283,45.76266272,407.243
3.11025522,45.76266332,407.262
3.11025791,45.76266369,407.261
3.11026000,45.76266419,407.262
3.11026240,45.76266451,407.261
3.11026501,45.76266498,407.274
3.11026716,45.76266554,407.258
3.11026952,45.76266614,407.251
3.11027183,45.76266674,407.26
3.11027388,45.76266739,407.236
3.11027611,45.76266818,407.233
3.11027826,45.76266881,407.235
3.11028050,45.76266933,407.23
3.11028295,45.76266986,407.23
3.11028533,45.76267039,407.241
3.11028760,45.76267082,407.242
3.11028995,45.76267128,407.23
3.11029218,45.76267183,407.237
3.11029467,45.76267250,407.238
3.11029689,45.76267320,407.235
3.11029914,45.76267384,407.232
3.11030165,45.76267444,407.247
3.11030401,45.76267487,407.258
3.11030635,45.76267538,407.268
3.11030881,45.76267553,407.271
3.11031119,45.76267585,407.282
3.11031348,45.76267601,407.256
3.11031557,45.76267667,407.242
3.11031749,45.76267741,407.251
3.11031907,45.76267834,407.234
3.11032094,45.76267934,407.228
3.11032289,45.76268010,407.226
3.11032479,45.76268087,407.23
3.11032688,45.76268155,407.23
3.11032876,45.76268244,407.216
3.11033057,45.76268340,407.23
3.11033242,45.76268436,407.236
3.11033418,45.76268529,407.239
3.11033597,45.76268626,407.245
3.11033776,45.76268717,407.246
3.11033949,45.76268823,407.241
3.11034117,45.76268927,407.219
3.11034292,45.76269034,407.226
3.11034477,45.76269140,407.238
3.11034626,45.76269255,407.23
3.11034787,45.76269368,407.245
3.11034920,45.76269497,407.251
3.11035035,45.76269626,407.241
3.11035135,45.76269774,407.231
3.11035258,45.76269900,407.226
3.11035389,45.76270026,407.23
3.11035534,45.76270153,407.248
3.11035685,45.76270275,407.255
3.11035831,45.76270396,407.243
3.11035962,45.76270543,407.253
3.11036070,45.76270697,407.252
3.11036148,45.76270835,407.241
3.11036216,45.76271004,407.241
3.11036280,45.76271150,407.232
3.11036348,45.76271313,407.222
3.11036408,45.76271479,407.246
3.11036471,45.76271619,407.255
3.11036550,45.76271771,407.258
3.11036638,45.76271922,407.262
3.11036727,45.76272068,407.264
3.11036820,45.76272235,407.272
3.11036881,45.76272404,407.252
3.11036935,45.76272562,407.269
3.11036959,45.76272713,407.24
3.11036975,45.76272872,407.252
3.11036997,45.76273026,407.253
3.11037003,45.76273172,407.257
3.11037007,45.76273339,407.26
3.11036984,45.76273501,407.241
3.11036978,45.76273651,407.262
3.11036965,45.76273814,407.245
3.11036962,45.76273978,407.231
3.11036967,45.76274133,407.242
3.11036952,45.76274295,407.231
3.11036911,45.76274456,407.228
3.11036854,45.76274605,407.226
3.11036792,45.76274758,407.237
3.11036718,45.76274911,407.239
3.11036657,45.76275061,407.245
3.11036578,45.76275232,407.233
3.11036512,45.76275381,407.235
3.11036433,45.76275541,407.224
3.11036341,45.76275693,407.224
3.11036251,45.76275862,407.227
3.11036161,45.76276027,407.232
3.11036090,45.76276204,407.246
3.11036020,45.76276375,407.239
3.11035943,45.76276546,407.249
3.11035866,45.76276719,407.247
3.11035779,45.76276891,407.231
3.11035688,45.76277070,407.237
3.11035608,45.76277247,407.234
3.11035556,45.76277431,407.257
3.11035496,45.76277616,407.254
3.11035430,45.76277795,407.256
3.11035360,45.76277977,407.238
3.11035304,45.76278159,407.252
3.11035249,45.76278344,407.241
3.11035204,45.76278534,407.245
3.11035175,45.76278722,407.241
3.11035147,45.76278900,407.24
3.11035116,45.76279077,407.229
3.11035087,45.76279266,407.223
3.11035054,45.76279460,407.211
3.11035031,45.76279629,407.215
3.11034987,45.76279806,407.216
3.11034962,45.76279984,407.232
3.11034925,45.76280150,407.215
3.11034890,45.76280323,407.201
3.11034864,45.76280505,407.203
3.11034848,45.76280683,407.2
3.11034854,45.76280862,407.199
3.11034883,45.76281030,407.202
3.11034906,45.76281203,407.207
3.11034927,45.76281376,407.211
3.11034921,45.76281554,407.202
3.11034892,45.76281730,407.19
3.11034847,45.76281916,407.187
3.11034807,45.76282100,407.171
3.11034780,45.76282285,407.163
3.11034774,45.76282462,407.148
3.11034801,45.76282641,407.166
3.11034826,45.76282833,407.169
3.11034858,45.76283002,407.192
3.11034890,45.76283180,407.196
3.11034912,45.76283366,407.18
3.11034939,45.76283547,407.164
3.11034968,45.76283740,407.149
3.11034992,45.76283935,407.138
3.11035031,45.76284122,407.122
3.11035095,45.76284309,407.122
3.11035177,45.76284489,407.151
3.11035269,45.76284661,407.157
3.11035377,45.76284829,407.174
3.11035490,45.76285002,407.172
3.11035592,45.76285164,407.168
3.11035701,45.76285339,407.154
3.11035804,45.76285507,407.151
3.11035886,45.76285686,407.132
3.11035941,45.76285861,407.119
3.11036007,45.76286041,407.095
3.11036116,45.76286204,407.099
3.11036251,45.76286353,407.107
3.11036415,45.76286496,407.113
3.11036592,45.76286638,407.142
3.11036759,45.76286769,407.137
3.11036919,45.76286911,407.124
3.11037084,45.76287057,407.149
3.11037234,45.76287193,407.142
3.11037413,45.76287344,407.152
3.11037584,45.76287495,407.156
3.11037769,45.76287636,407.157
3.11037958,45.76287774,407.175
3.11038127,45.76287925,407.162
3.11038312,45.76288054,407.165
3.11038516,45.76288179,407.169
3.11038729,45.76288306,407.173
3.11038944,45.76288424,407.178
3.11039150,45.76288549,407.19
3.11039328,45.76288694,407.183
3.11039503,45.76288830,407.156
3.11039698,45.76288951,407.162
3.11039907,45.76289060,407.158
3.11040127,45.76289162,407.154
3.11040354,45.76289261,407.161
3.11040570,45.76289367,407.154
3.11040786,45.76289474,407.149
3.11041007,45.76289578,407.147
3.11041224,45.76289678,407.142
3.11041456,45.76289771,407.146
3.11041685,45.76289850,407.138
3.11041913,45.76289937,407.134
3.11042152,45.76290017,407.134
3.11042391,45.76290097,407.142
3.11042627,45.76290169,407.136
3.11042870,45.76290239,407.135
3.11043105,45.76290310,407.123
3.11043354,45.76290373,407.124
3.11043608,45.76290427,407.122
3.11043848,45.76290477,407.125
3.11044099,45.76290528,407.132
3.11044347,45.76290577,407.142
3.11044589,45.76290624,407.14
3.11044844,45.76290674,407.144
3.11045076,45.76290727,407.149
3.11045316,45.76290774,407.143
3.11045557,45.76290817,407.135
3.11045780,45.76290863,407.137
3.11046007,45.76290918,407.136
3.11046236,45.76290976,407.134
3.11046461,45.76291027,407.132
3.11046691,45.76291077,407.139
3.11046911,45.76291125,407.141
3.11047130,45.76291178,407.133
3.11047361,45.76291239,407.139
3.11047556,45.76291318,407.132
3.11047756,45.76291400,407.126
3.11047945,45.76291492,407.116
3.11048120,45.76291578,407.107
3.11048326,45.76291669,407.112
3.11048515,45.76291760,407.105
3.11048720,45.76291835,407.123
3.11048935,45.76291924,407.122
3.11049142,45.76291992,407.116
3.11049361,45.76292080,407.13
3.11049560,45.76292174,407.115
3.11049756,45.76292283,407.12
3.11049934,45.76292386,407.123
3.11050111,45.76292493,407.121
3.11050282,45.76292608,407.12
3.11050446,45.76292720,407.114
3.11050615,45.76292834,407.104
3.11050768,45.76292941,407.101
3.11050931,45.76293068,407.106
3.11051081,45.76293187,407.104
3.11051234,45.76293304,407.099
3.11051401,45.76293423,407.098
3.11051555,45.76293538,407.095
3.11051701,45.76293673,407.102
3.11051836,45.76293799,407.092
3.11051965,45.76293934,407.096
3.11052091,45.76294071,407.106
3.11052212,45.76294208,407.1
3.11052326,45.76294343,407.099
3.11052436,45.76294491,407.098
3.11052533,45.76294636,407.1
3.11052640,45.76294783,407.117
3.11052753,45.76294933,407.122
3.11052861,45.76295084,407.125
3.11052954,45.76295238,407.123
3.11053045,45.76295402,407.129
3.11053111,45.76295558,407.114
3.11053157,45.76295720,407.111
3.11053195,45.76295891,407.104
3.11053219,45.76296035,407.101
3.11053235,45.76296207,407.093
3.11053239,45.76296367,407.074
3.11053257,45.76296526,407.064
3.11053287,45.76296692,407.058
3.11053331,45.76296847,407.055
3.11053398,45.76297016,407.06
3.11053436,45.76297179,407.055
3.11053438,45.76297346,407.046
3.11053437,45.76297522,407.053
3.11053434,45.76297657,407.048
3.11053412,45.76297822,407.036
3.11053370,45.76297999,407.014
3.11053337,45.76298155,407.012
3.11053322,45.76298322,407.011
3.11053303,45.76298489,407.006
3.11053259,45.76298654,407.002
3.11053204,45.76298817,406.978
3.11053186,45.76298964,406.98
3.11053157,45.76299125,406.979
3.11053059,45.76299299,406.98
3.11052971,45.76299443,406.969
3.11052904,45.76299590,406.975
3.11052811,45.76299755,406.961
3.11052730,45.76299902,406.949
3.11052643,45.76300044,406.943
3.11052564,45.76300209,406.945
3.11052499,45.76300351,406.959
3.11052399,45.76300511,406.957
3.11052312,45.76300679,406.964
3.11052232,45.76300838,406.952
3.11052147,45.76300999,406.965
3.11052047,45.76301163,406.939
3.11051928,45.76301323,406.94
3.11051817,45.76301455,406.924
3.11051674,45.76301597,406.924
3.11051540,45.76301741,406.923
3.11051407,45.76301897,406.896
3.11051314,45.76302029,406.897
3.11051226,45.76302172,406.897
3.11051127,45.76302326,406.885
3.11051038,45.76302464,406.891
3.11050929,45.76302589,406.895
3.11050812,45.76302714,406.893
3.11050682,45.76302843,406.887
3.11050566,45.76302966,406.889
3.11050452,45.76303106,406.899
3.11050336,45.76303247,406.907
3.11050208,45.76303372,406.894
3.11050040,45.76303474,406.888
3.11049844,45.76303566,406.882
3.11049670,45.76303663,406.877
3.11049467,45.76303751,406.865
3.11049262,45.76303842,406.856
3.11049081,45.76303951,406.85
3.11048900,45.76304074,406.867
3.11048726,45.76304198,406.868
3.11048542,45.76304326,406.85
3.11048385,45.76304478,406.878
3.11048234,45.76304634,406.901
3.11048068,45.76304787,406.895
3.11047875,45.76304907,406.9
3.11047654,45.76305011,406.883
3.11047433,45.76305110,406.873
3.11047210,45.76305217,406.881
3.11047017,45.76305329,406.869
3.11046834,45.76305454,406.87
3.11046648,45.76305587,406.851
3.11046465,45.76305713,406.849
3.11046267,45.76305849,406.859
3.11046103,45.76305973,406.844
3.11045911,45.76306104,406.837
3.11045729,45.76306214,406.827
3.11045534,45.76306319,406.819
3.11045325,45.76306424,406.807
3.11045150,45.76306530,406.795
3.11044960,45.76306655,406.794
3.11044791,45.76306780,406.789
3.11044616,45.76306913,406.798
3.11044455,45.76307037,406.787
3.11044270,45.76307153,406.778
3.11044065,45.76307244,406.766
3.11043846,45.76307326,406.747
3.11043636,45.76307417,406.745
3.11043462,45.76307526,406.736
3.11043287,45.76307646,406.746
3.11043120,45.76307763,406.727
3.11042939,45.76307873,406.72
3.11042765,45.76307982,406.716
3.11042591,45.76308094,406.716
3.11042416,45.76308205,406.72
3.11042240,45.76308301,406.707
3.11042033,45.76308411,406.701
3.11041826,45.76308515,406.696
3.11041616,45.76308625,406.696
3.11041432,45.76308716,406.688
3.11041248,45.76308827,406.68
3.11041071,45.76308949,406.679
3.11040929,45.76309059,406.696
3.11040746,45.76309185,406.695
3.11040552,45.76309286,406.702
3.11040362,45.76309378,406.693
3.11040144,45.76309470,406.695
3.11039955,45.76309564,406.689
3.11039817,45.76309680,406.685
3.11039684,45.76309829,406.693
3.11039538,45.76309990,406.708
3.11039402,45.76310122,406.715
3.11039214,45.76310227,406.727
3.11038996,45.76310325,406.731
3.11038829,45.76310379,406.719
3.11038604,45.76310417,406.697
3.11038355,45.76310468,406.676
3.11038163,45.76310531,406.681
3.11037983,45.76310642,406.685
3.11037817,45.76310760,406.7
3.11037670,45.76310886,406.728
3.11037513,45.76311020,406.734
3.11037345,45.76311153,406.728
3.11037157,45.76311263,406.754
3.11036954,45.76311347,406.741
3.11036731,45.76311414,406.713
3.11036513,45.76311465,406.701
3.11036308,45.76311556,406.718
3.11036122,45.76311643,406.699
3.11035944,45.76311749,406.71
3.11035744,45.76311873,406.703
3.11035539,45.76311983,406.704
3.11035368,45.76312060,406.715
3.11035150,45.76312129,406.7
3.11034936,45.76312196,406.715
3.11034747,45.76312255,406.705
3.11034557,45.76312331,406.705
3.11034344,45.76312399,406.695
3.11034108,45.76312446,406.694
3.11033878,45.76312496,406.714
3.11033659,45.76312552,406.706
3.11033422,45.76312607,406.693
3.11033190,45.76312642,406.708
3.11032947,45.76312679,406.711
3.11032717,45.76312709,406.711
3.11032484,45.76312766,406.731
3.11032257,45.76312825,406.754
3.11032018,45.76312859,406.739
3.11031802,45.76312894,406.754
3.11031579,45.76312902,406.736
3.11031354,45.76312899,406.725
3.11031124,45.76312890,406.723
3.11030878,45.76312929,406.737
3.11030655,45.76312953,406.746
3.11030425,45.76312993,406.754
3.11030188,45.76313026,406.76
3.11029961,45.76313043,406.781
3.11029723,45.76313042,406.77
3.11029494,45.76313038,406.761
3.11029252,45.76312987,406.775
3.11029028,45.76312942,406.767
3.11028814,45.76312907,406.737
3.11028583,45.76312861,406.722
3.11028362,45.76312833,406.734
3.11028133,45.76312788,406.735
3.11027904,45.76312740,406.737
3.11027690,45.76312696,406.74
3.11027471,45.76312647,406.743
3.11027249,45.76312592,406.757
3.11027044,45.76312540,406.748
3.11026823,45.76312478,406.734
3.11026600,45.76312423,406.728
3.11026401,45.76312370,406.73
3.11026177,45.76312272,406.732
3.11025997,45.76312177,406.727
3.11025849,45.76312072,406.71
3.11025671,45.76311953,406.701
3.11025501,45.76311853,406.695
3.11025318,45.76311764,406.687
3.11025127,45.76311682,406.689
3.11024935,45.76311588,406.678
3.11024759,45.76311501,406.657
3.11024584,45.76311413,406.661
3.11024387,45.76311310,406.657
3.11024213,45.76311201,406.656
3.11024066,45.76311106,406.661
3.11023914,45.76310981,406.668
3.11023784,45.76310856,406.661
3.11023643,45.76310745,406.659
3.11023467,45.76310613,406.664
3.11023287,45.76310508,406.671
3.11023158,45.76310445,406.673
3.11023001,45.76310329,406.679
3.11022832,45.76310183,406.693
3.11022700,45.76310089,406.687
3.11022583,45.76309984,406.688
3.11022489,45.76309838,406.68
3.11022428,45.76309679,406.687
3.11022368,45.76309539,406.682
3.11022294,45.76309414,406.666
3.11022203,45.76309293,406.635
3.11022021,45.76309193,406.643
3.11021811,45.76309069,406.731
3.11021681,45.76308956,406.765
3.11021570,45.76308836,406.773
3.11021499,45.76308696,406.763
3.11021466,45.76308599,406.764
3.11021473,45.76308470,406.749
3.11021510,45.76308313,406.731
3.11021551,45.76308173,406.714
3.11021572,45.76308030,406.71
3.11021561,45.76307866,406.725
3.11021548,45.76307716,406.726
3.11021524,45.76307556,406.751
3.11021503,45.76307391,406.749
3.11021478,45.76307256,406.767
3.11021436,45.76307109,406.751
3.11021422,45.76306942,406.753
3.11021429,45.76306781,406.753
3.11021446,45.76306629,406.747
3.11021486,45.76306476,406.734
3.11021536,45.76306305,406.745
3.11021571,45.76306149,406.729
3.11021612,45.76305980,406.744
3.11021661,45.76305814,406.743
3.11021732,45.76305629,406.75
3.11021812,45.76305441,406.749
3.11021892,45.76305266,406.75
3.11021964,45.76305088,406.731
3.11022029,45.76304919,406.737
3.11022073,45.76304753,406.744
3.11022106,45.76304568,406.751
3.11022112,45.76304380,406.769
3.11022124,45.76304210,406.782
3.11022164,45.76304021,406.792
3.11022202,45.76303848,406.798
3.11022241,45.76303687,406.768
3.11022289,45.76303523,406.769
3.11022313,45.76303352,406.76
3.11022323,45.76303193,406.769
3.11022373,45.76303007,406.779
3.11022454,45.76302842,406.784
3.11022533,45.76302682,406.752
3.11022619,45.76302537,406.752
3.11022725,45.76302371,406.74
3.11022809,45.76302208,406.717
3.11022871,45.76302051,406.723
3.11022916,45.76301873,406.742
3.11022934,45.76301700,406.75
3.11022952,45.76301544,406.765
3.11022974,45.76301355,406.771
3.11023013,45.76301170,406.771
3.11023074,45.76300999,406.755
3.11023164,45.76300802,406.76
3.11023197,45.76300615,406.777
3.11023207,45.76300456,406.781
3.11023192,45.76300293,406.791
3.11023157,45.76300123,406.819
3.11023166,45.76299962,406.825
3.11023173,45.76299783,406.842
3.11023172,45.76299609,406.861
3.11023149,45.76299445,406.817
3.11023140,45.76299268,406.826
3.11023129,45.76299091,406.831
3.11023120,45.76298909,406.828
3.11023135,45.76298737,406.842
3.11023127,45.76298566,406.812
3.11023119,45.76298371,406.822
3.11023104,45.76298178,406.833
3.11023084,45.76297990,406.824
3.11023074,45.76297813,406.842
3.11023048,45.76297610,406.855
3.11023045,45.76297410,406.862
3.11023042,45.76297236,406.87
3.11023040,45.76297053,406.848
3.11023016,45.76296871,406.863
3.11022974,45.76296676,406.884
3.11022910,45.76296499,406.877
3.11022868,45.76296323,406.893
3.11022818,45.76296156,406.858
3.11022770,45.76295970,406.867
3.11022704,45.76295804,406.903
3.11022616,45.76295648,406.878
3.11022535,45.76295477,406.893
3.11022432,45.76295313,406.917
3.11022307,45.76295158,406.942
3.11022198,45.76294988,406.914
3.11022143,45.76294818,406.915
3.11022135,45.76294649,406.914
3.11022121,45.76294483,406.897
3.11022090,45.76294325,406.901
3.11022037,45.76294171,406.911
3.11021932,45.76294002,406.918
3.11021852,45.76293838,406.926
3.11021766,45.76293679,406.94
3.11021706,45.76293521,406.946
3.11021645,45.76293349,406.96
3.11021586,45.76293171,406.966
3.11021536,45.76293011,406.951
3.11021484,45.76292844,406.943
3.11021396,45.76292666,406.929
3.11021314,45.76292486,406.965
3.11021232,45.76292326,406.963
3.11021152,45.76292159,406.963
3.11021038,45.76292006,406.959
3.11020890,45.76291850,406.979
3.11020771,45.76291692,406.996
3.11020646,45.76291541,406.971
3.11020494,45.76291404,406.979
3.11020323,45.76291271,407.005
3.11020186,45.76291141,407.028
3.11020054,45.76290991,407.014
3.11019946,45.76290846,407.039
3.11019834,45.76290719,407.029
3.11019727,45.76290568,407.045
3.11019628,45.76290430,407.061
3.11019522,45.76290294,407.059
3.11019362,45.76290192,407.067
3.11019189,45.76290051,407.078
3.11019050,45.76289909,407.085
3.11018960,45.76289777,407.096
3.11018867,45.76289628,407.08
3.11018823,45.76289497,407.077
3.11018787,45.76289351,407.096
3.11018736,45.76289189,407.088
3.11018655,45.76289039,407.102
3.11018565,45.76288898,407.14
3.11018485,45.76288742,407.158
3.11018431,45.76288590,407.149
3.11018380,45.76288423,407.151
3.11018354,45.76288251,407.156
3.11018312,45.76288089,407.156
3.11018261,45.76287896,407.183
3.11018210,45.76287717,407.184
3.11018153,45.76287540,407.179
3.11018072,45.76287343,407.205
3.11018015,45.76287160,407.209
3.11017953,45.76286965,407.23
3.11017853,45.76286765,407.241
3.11017794,45.76286584,407.235
3.11017753,45.76286365,407.233
3.11017730,45.76286175,407.217
3.11017717,45.76285991,407.195
3.11017691,45.76285770,407.166
3.11017650,45.76285594,407.158
3.11017591,45.76285410,407.138
3.11017510,45.76285216,407.157
3.11017432,45.76285038,407.126
3.11017343,45.76284865,407.134
3.11017265,45.76284696,407.108
3.11017172,45.76284533,407.119
3.11017049,45.76284364,407.12
3.11016909,45.76284214,407.133
3.11016763,45.76284082,407.136
3.11016579,45.76283937,407.148
3.11016422,45.76283791,407.166
3.11016271,45.76283641,407.171
3.11016141,45.76283469,407.163
3.11016037,45.76283305,407.151
3.11015922,45.76283152,407.159
3.11015797,45.76282972,407.174
3.11015688,45.76282806,407.148
3.11015540,45.76282644,407.163
3.11015401,45.76282476,407.158
3.11015234,45.76282350,407.153
3.11015092,45.76282187,407.166
3.11014937,45.76282036,407.185
3.11014753,45.76281897,407.182
3.11014579,45.76281773,407.184
3.11014382,45.76281642,407.196
3.11014193,45.76281510,407.179
3.11014016,45.76281363,407.164
3.11013838,45.76281194,407.159
3.11013652,45.76281057,407.178
3.11013461,45.76280929,407.166
3.11013232,45.76280815,407.173
3.11013010,45.76280727,407.198
3.11012775,45.76280613,407.211
3.11012570,45.76280508,407.188
3.11012349,45.76280401,407.197
3.11012130,45.76280289,407.186
3.11011919,45.76280182,407.183
3.11011714,45.76280077,407.185
3.11011514,45.76279999,407.163
3.11011320,45.76279945,407.167
3.11011142,45.76279906,407.168
3.11010985,45.76279867,407.181
3.11010847,45.76279839,407.196
3.11010769,45.76279819,407.185
3.11010712,45.76279795,407.18
3.11010690,45.76279779,407.179
3.11010699,45.76279765,407.178
3.11010720,45.76279761,407.169
3.11010731,45.76279767,407.168
3.11010729,45.76279771,407.17
3.11010717,45.76279768,407.168
3.11010715,45.76279779,407.174
3.11010723,45.76279777,407.169
3.11010718,45.76279775,407.17
3.11010720,45.76279773,407.168
3.11010721,45.76279774,407.17
3.11010714,45.76279776,407.173
3.11010715,45.76279773,407.168
3.11010717,45.76279775,407.168
        </coordinates> 
      </LineString> 
    </Placemark> 
  </Document> 
</kml> 
