<?xml version="1.0" encoding="UTF-8"?> 
<kml xmlns="http://www.opengis.net/kml/2.2" 
     xmlns:gx="http://www.google.com/kml/ext/2.2" 
     xmlns:kml="http://www.opengis.net/kml/2.2"
     xmlns:atom="http://www.w3.org/2005/Atom"> 
  <Document> 
    <name>gps_traj.kml</name> 
    <Placemark> 
      <name>Trajectoire</name> 
      <LineString> 
        <tessellate>1</tessellate> 
        <coordinates> 
3.43591271,46.34016908,280.879
3.43591271,46.34016909,280.878
3.43591270,46.34016909,280.878
3.43591272,46.34016908,280.878
3.43591272,46.34016908,280.877
3.43591272,46.34016908,280.877
3.43591272,46.34016907,280.878
3.43591271,46.34016909,280.877
3.43591272,46.34016908,280.879
3.43591271,46.34016909,280.88
3.43591270,46.34016910,280.88
3.43591270,46.34016911,280.881
3.43591271,46.34016909,280.881
3.43591271,46.34016911,280.881
3.43591271,46.34016910,280.883
3.43591271,46.34016911,280.883
3.43591272,46.34016910,280.882
3.43591272,46.34016910,280.88
3.43591271,46.34016910,280.88
3.43591270,46.34016911,280.882
3.43591269,46.34016911,280.882
3.43591269,46.34016911,280.881
3.43591270,46.34016912,280.88
3.43591270,46.34016911,280.881
3.43591270,46.34016912,280.88
3.43591271,46.34016912,280.878
3.43591270,46.34016913,280.878
3.43591272,46.34016913,280.881
3.43591270,46.34016913,280.879
3.43591269,46.34016913,280.877
3.43591269,46.34016914,280.878
3.43591270,46.34016913,280.877
3.43591269,46.34016914,280.875
3.43591269,46.34016914,280.876
3.43591269,46.34016914,280.876
3.43591270,46.34016914,280.874
3.43591262,46.34016920,280.871
3.43591234,46.34016941,280.873
3.43591198,46.34016967,280.875
3.43591168,46.34016988,280.878
3.43591149,46.34017000,280.881
3.43591139,46.34017008,280.88
3.43591123,46.34017023,280.879
3.43591094,46.34017049,280.878
3.43591039,46.34017093,280.877
3.43590976,46.34017142,280.886
3.43590908,46.34017200,280.886
3.43590828,46.34017262,280.887
3.43590741,46.34017331,280.89
3.43590646,46.34017396,280.89
3.43590555,46.34017460,280.889
3.43590461,46.34017517,280.892
3.43590376,46.34017577,280.892
3.43590301,46.34017629,280.894
3.43590241,46.34017685,280.903
3.43590197,46.34017734,280.904
3.43590151,46.34017791,280.909
3.43590100,46.34017850,280.913
3.43590035,46.34017912,280.912
3.43589957,46.34017969,280.903
3.43589874,46.34018024,280.908
3.43589791,46.34018081,280.905
3.43589720,46.34018138,280.902
3.43589666,46.34018194,280.909
3.43589616,46.34018246,280.912
3.43589575,46.34018291,280.913
3.43589532,46.34018324,280.916
3.43589469,46.34018354,280.909
3.43589391,46.34018388,280.894
3.43589325,46.34018432,280.889
3.43589263,46.34018488,280.895
3.43589201,46.34018548,280.891
3.43589140,46.34018615,280.899
3.43589068,46.34018684,280.897
3.43588982,46.34018753,280.904
3.43588880,46.34018810,280.902
3.43588777,46.34018859,280.903
3.43588677,46.34018916,280.903
3.43588579,46.34018970,280.908
3.43588496,46.34019026,280.915
3.43588432,46.34019084,280.921
3.43588382,46.34019140,280.924
3.43588334,46.34019200,280.935
3.43588283,46.34019260,280.942
3.43588220,46.34019305,280.944
3.43588132,46.34019345,280.936
3.43588026,46.34019384,280.933
3.43587927,46.34019427,280.932
3.43587842,46.34019485,280.938
3.43587772,46.34019553,280.947
3.43587713,46.34019629,280.966
3.43587659,46.34019699,280.978
3.43587578,46.34019759,280.977
3.43587485,46.34019805,280.978
3.43587384,46.34019853,280.984
3.43587293,46.34019901,280.985
3.43587222,46.34019960,280.988
3.43587175,46.34020032,281.0
3.43587149,46.34020107,281.01
3.43587121,46.34020180,281.02
3.43587057,46.34020246,281.022
3.43586967,46.34020289,281.015
3.43586855,46.34020313,281.0
3.43586725,46.34020326,280.977
3.43586615,46.34020356,280.982
3.43586525,46.34020400,280.981
3.43586454,46.34020455,280.989
3.43586389,46.34020517,281.0
3.43586322,46.34020580,281.004
3.43586265,46.34020640,281.014
3.43586221,46.34020695,281.024
3.43586172,46.34020758,281.026
3.43586130,46.34020831,281.036
3.43586078,46.34020896,281.043
3.43586004,46.34020945,281.034
3.43585923,46.34020995,281.036
3.43585848,46.34021044,281.041
3.43585771,46.34021099,281.039
3.43585687,46.34021158,281.038
3.43585600,46.34021200,281.041
3.43585510,46.34021224,281.037
3.43585399,46.34021232,281.033
3.43585293,46.34021241,281.034
3.43585187,46.34021257,281.03
3.43585111,46.34021292,281.039
3.43585053,46.34021337,281.05
3.43584993,46.34021396,281.058
3.43584929,46.34021449,281.074
3.43584858,46.34021502,281.08
3.43584773,46.34021552,281.077
3.43584680,46.34021596,281.077
3.43584586,46.34021640,281.08
3.43584488,46.34021687,281.088
3.43584389,46.34021731,281.089
3.43584288,46.34021781,281.099
3.43584194,46.34021834,281.103
3.43584109,46.34021891,281.118
3.43584015,46.34021946,281.115
3.43583917,46.34022004,281.136
3.43583827,46.34022064,281.141
3.43583737,46.34022113,281.151
3.43583634,46.34022175,281.154
3.43583538,46.34022225,281.161
3.43583426,46.34022261,281.161
3.43583307,46.34022264,281.153
3.43583185,46.34022255,281.143
3.43583064,46.34022245,281.135
3.43582944,46.34022246,281.124
3.43582832,46.34022267,281.124
3.43582735,46.34022303,281.139
3.43582662,46.34022353,281.162
3.43582593,46.34022412,281.184
3.43582522,46.34022475,281.201
3.43582446,46.34022526,281.215
3.43582348,46.34022567,281.216
3.43582246,46.34022592,281.216
3.43582146,46.34022606,281.213
3.43582044,46.34022621,281.216
3.43581934,46.34022639,281.221
3.43581817,46.34022664,281.228
3.43581702,46.34022696,281.234
3.43581587,46.34022726,281.235
3.43581463,46.34022754,281.235
3.43581340,46.34022774,281.23
3.43581212,46.34022789,281.219
3.43581087,46.34022797,281.21
3.43580954,46.34022807,281.21
3.43580828,46.34022820,281.215
3.43580706,46.34022841,281.216
3.43580593,46.34022872,281.224
3.43580488,46.34022904,281.225
3.43580377,46.34022939,281.225
3.43580267,46.34022960,281.232
3.43580154,46.34022977,281.241
3.43580035,46.34022993,281.247
3.43579917,46.34023009,281.247
3.43579806,46.34023028,281.255
3.43579705,46.34023053,281.264
3.43579620,46.34023093,281.273
3.43579532,46.34023140,281.28
3.43579433,46.34023184,281.299
3.43579331,46.34023233,281.31
3.43579231,46.34023276,281.327
3.43579121,46.34023305,281.332
3.43579016,46.34023319,281.334
3.43578914,46.34023318,281.332
3.43578808,46.34023309,281.329
3.43578698,46.34023293,281.323
3.43578589,46.34023288,281.323
3.43578483,46.34023311,281.332
3.43578364,46.34023329,281.334
3.43578256,46.34023354,281.348
3.43578140,46.34023368,281.358
3.43578024,46.34023371,281.363
3.43577909,46.34023361,281.361
3.43577794,46.34023342,281.352
3.43577673,46.34023320,281.352
3.43577560,46.34023299,281.355
3.43577434,46.34023280,281.359
3.43577318,46.34023265,281.37
3.43577197,46.34023261,281.369
3.43577076,46.34023252,281.379
3.43576958,46.34023235,281.382
3.43576837,46.34023206,281.37
3.43576725,46.34023184,281.37
3.43576605,46.34023148,281.367
3.43576472,46.34023129,281.363
3.43576352,46.34023119,281.371
3.43576220,46.34023111,281.379
3.43576092,46.34023106,281.373
3.43575967,46.34023094,281.372
3.43575843,46.34023076,281.369
3.43575719,46.34023067,281.382
3.43575598,46.34023062,281.389
3.43575480,46.34023065,281.397
3.43575353,46.34023059,281.399
3.43575227,46.34023035,281.394
3.43575108,46.34023000,281.384
3.43574992,46.34022962,281.389
3.43574878,46.34022931,281.385
3.43574761,46.34022904,281.387
3.43574646,46.34022886,281.383
3.43574536,46.34022865,281.386
3.43574420,46.34022845,281.389
3.43574308,46.34022823,281.385
3.43574190,46.34022803,281.393
3.43574077,46.34022782,281.387
3.43573954,46.34022754,281.391
3.43573840,46.34022727,281.39
3.43573735,46.34022704,281.393
3.43573626,46.34022682,281.394
3.43573519,46.34022660,281.394
3.43573407,46.34022646,281.394
3.43573293,46.34022631,281.402
3.43573171,46.34022613,281.414
3.43573064,46.34022584,281.421
3.43572964,46.34022552,281.418
3.43572864,46.34022524,281.415
3.43572758,46.34022497,281.417
3.43572649,46.34022470,281.417
3.43572541,46.34022439,281.419
3.43572442,46.34022392,281.431
3.43572355,46.34022344,281.424
3.43572270,46.34022296,281.425
3.43572179,46.34022250,281.433
3.43572074,46.34022212,281.435
3.43571948,46.34022179,281.443
3.43571828,46.34022151,281.452
3.43571728,46.34022108,281.454
3.43571618,46.34022050,281.456
3.43571533,46.34021977,281.445
3.43571462,46.34021893,281.44
3.43571395,46.34021807,281.421
3.43571325,46.34021724,281.404
3.43571238,46.34021660,281.399
3.43571133,46.34021606,281.408
3.43571015,46.34021562,281.412
3.43570897,46.34021527,281.421
3.43570771,46.34021500,281.433
3.43570642,46.34021472,281.443
3.43570518,46.34021432,281.436
3.43570407,46.34021384,281.441
3.43570313,46.34021326,281.439
3.43570234,46.34021257,281.437
3.43570167,46.34021192,281.435
3.43570092,46.34021135,281.431
3.43570012,46.34021079,281.417
3.43569924,46.34021025,281.414
3.43569830,46.34020969,281.408
3.43569741,46.34020924,281.398
3.43569657,46.34020862,281.389
3.43569568,46.34020806,281.389
3.43569473,46.34020754,281.385
3.43569374,46.34020714,281.389
3.43569276,46.34020665,281.392
3.43569173,46.34020615,281.39
3.43569081,46.34020547,281.389
3.43569010,46.34020472,281.382
3.43568946,46.34020397,281.365
3.43568873,46.34020326,281.353
3.43568784,46.34020271,281.357
3.43568693,46.34020223,281.35
3.43568589,46.34020182,281.355
3.43568474,46.34020137,281.36
3.43568356,46.34020084,281.369
3.43568242,46.34020034,281.377
3.43568129,46.34019979,281.384
3.43568027,46.34019922,281.388
3.43567929,46.34019866,281.388
3.43567845,46.34019805,281.389
3.43567770,46.34019735,281.386
3.43567692,46.34019650,281.379
3.43567625,46.34019566,281.371
3.43567543,46.34019497,281.363
3.43567435,46.34019433,281.365
3.43567321,46.34019387,281.37
3.43567195,46.34019357,281.38
3.43567067,46.34019328,281.398
3.43566955,46.34019283,281.399
3.43566868,46.34019215,281.4
3.43566802,46.34019138,281.396
3.43566729,46.34019060,281.389
3.43566658,46.34018975,281.388
3.43566569,46.34018905,281.382
3.43566474,46.34018845,281.38
3.43566368,46.34018794,281.375
3.43566240,46.34018741,281.382
3.43566124,46.34018695,281.389
3.43566012,46.34018643,281.382
3.43565900,46.34018577,281.376
3.43565812,46.34018503,281.367
3.43565722,46.34018433,281.359
3.43565638,46.34018364,281.352
3.43565538,46.34018305,281.336
3.43565434,46.34018247,281.333
3.43565323,46.34018192,281.324
3.43565209,46.34018135,281.325
3.43565083,46.34018079,281.322
3.43564958,46.34018042,281.331
3.43564830,46.34018015,281.341
3.43564705,46.34017989,281.35
3.43564579,46.34017966,281.35
3.43564463,46.34017932,281.342
3.43564341,46.34017895,281.346
3.43564220,46.34017856,281.342
3.43564101,46.34017818,281.329
3.43563975,46.34017773,281.326
3.43563854,46.34017733,281.323
3.43563746,46.34017702,281.329
3.43563629,46.34017678,281.325
3.43563499,46.34017659,281.326
3.43563366,46.34017639,281.335
3.43563238,46.34017616,281.337
3.43563119,46.34017594,281.339
3.43562997,46.34017574,281.342
3.43562881,46.34017541,281.346
3.43562765,46.34017498,281.348
3.43562647,46.34017454,281.341
3.43562532,46.34017421,281.333
3.43562405,46.34017404,281.341
3.43562268,46.34017402,281.358
3.43562132,46.34017409,281.373
3.43562000,46.34017390,281.382
3.43561864,46.34017375,281.38
3.43561738,46.34017354,281.391
3.43561616,46.34017324,281.386
3.43561490,46.34017289,281.381
3.43561360,46.34017264,281.382
3.43561234,46.34017236,281.377
3.43561116,46.34017204,281.387
3.43560997,46.34017175,281.386
3.43560872,46.34017146,281.38
3.43560743,46.34017118,281.379
3.43560618,46.34017094,281.377
3.43560500,46.34017067,281.375
3.43560376,46.34017045,281.383
3.43560254,46.34017021,281.387
3.43560136,46.34016999,281.386
3.43560015,46.34016968,281.381
3.43559902,46.34016934,281.372
3.43559785,46.34016892,281.365
3.43559661,46.34016860,281.365
3.43559530,46.34016838,281.366
3.43559401,46.34016822,281.367
3.43559295,46.34016810,281.372
3.43559205,46.34016797,281.369
3.43559137,46.34016790,281.374
3.43559091,46.34016784,281.371
3.43559070,46.34016782,281.372
3.43559054,46.34016784,281.374
3.43559032,46.34016782,281.373
3.43559001,46.34016772,281.374
3.43558969,46.34016758,281.363
3.43558920,46.34016741,281.362
3.43558850,46.34016716,281.355
3.43558766,46.34016683,281.352
3.43558676,46.34016650,281.354
3.43558585,46.34016620,281.354
3.43558498,46.34016598,281.355
3.43558431,46.34016581,281.353
3.43558381,46.34016575,281.358
3.43558354,46.34016574,281.36
3.43558339,46.34016571,281.358
3.43558335,46.34016569,281.357
3.43558335,46.34016565,281.354
3.43558336,46.34016565,281.353
3.43558337,46.34016564,281.354
3.43558336,46.34016566,281.353
3.43558337,46.34016567,281.352
3.43558340,46.34016564,281.354
3.43558340,46.34016563,281.352
3.43558340,46.34016564,281.351
3.43558340,46.34016565,281.352
3.43558340,46.34016565,281.351
3.43558339,46.34016566,281.349
3.43558338,46.34016565,281.35
3.43558341,46.34016564,281.348
3.43558338,46.34016566,281.349
3.43558339,46.34016564,281.351
3.43558339,46.34016565,281.35
        </coordinates> 
      </LineString> 
    </Placemark> 
  </Document> 
</kml> 
