<?xml version="1.0" encoding="UTF-8"?> 
<kml xmlns="http://www.opengis.net/kml/2.2" 
     xmlns:gx="http://www.google.com/kml/ext/2.2" 
     xmlns:kml="http://www.opengis.net/kml/2.2"
     xmlns:atom="http://www.w3.org/2005/Atom"> 
  <Document> 
    <name>gps_traj.kml</name> 
    <Placemark> 
      <name>Trajectoire</name> 
      <LineString> 
        <tessellate>1</tessellate> 
        <coordinates> 
3.11055556,45.76316581,406.487
3.11055554,45.76316581,406.487
3.11055555,45.76316582,406.488
3.11055556,45.76316581,406.487
3.11055554,45.76316581,406.487
3.11055554,45.76316581,406.487
3.11055554,45.76316581,406.486
3.11055554,45.76316581,406.486
3.11055553,45.76316581,406.486
3.11055553,45.76316581,406.484
3.11055553,45.76316582,406.485
3.11055553,45.76316582,406.486
3.11055554,45.76316583,406.486
3.11055554,45.76316583,406.484
3.11055554,45.76316582,406.484
3.11055549,45.76316588,406.481
3.11055534,45.76316603,406.482
3.11055507,45.76316628,406.481
3.11055472,45.76316659,406.481
3.11055430,45.76316693,406.481
3.11055374,45.76316726,406.485
3.11055313,45.76316764,406.479
3.11055254,45.76316803,406.474
3.11055199,45.76316846,406.476
3.11055139,45.76316895,406.479
3.11055065,45.76316946,406.482
3.11054989,45.76317005,406.478
3.11054912,45.76317068,406.476
3.11054841,45.76317136,406.473
3.11054756,45.76317208,406.474
3.11054649,45.76317274,406.478
3.11054550,45.76317341,406.474
3.11054462,45.76317401,406.478
3.11054381,45.76317472,406.49
3.11054307,45.76317551,406.496
3.11054221,45.76317631,406.503
3.11054130,45.76317713,406.503
3.11054048,45.76317787,406.501
3.11053967,45.76317853,406.507
3.11053863,45.76317912,406.51
3.11053748,45.76317955,406.509
3.11053623,45.76317993,406.505
3.11053515,45.76318041,406.505
3.11053422,45.76318093,406.505
3.11053326,45.76318143,406.512
3.11053222,45.76318190,406.512
3.11053125,45.76318245,406.504
3.11053041,45.76318307,406.501
3.11052956,45.76318366,406.508
3.11052863,45.76318430,406.518
3.11052782,45.76318494,406.518
3.11052696,45.76318554,406.515
3.11052598,45.76318613,406.518
3.11052507,45.76318664,406.512
3.11052422,45.76318713,406.511
3.11052341,45.76318764,406.517
3.11052263,45.76318820,406.52
3.11052190,45.76318884,406.514
3.11052105,45.76318945,406.517
3.11052022,45.76318996,406.522
3.11051933,45.76319035,406.528
3.11051843,45.76319073,406.531
3.11051757,45.76319108,406.52
3.11051661,45.76319137,406.524
3.11051578,45.76319175,406.528
3.11051503,45.76319209,406.528
3.11051417,45.76319242,406.528
3.11051343,45.76319263,406.526
3.11051278,45.76319278,406.527
3.11051212,45.76319302,406.534
3.11051133,45.76319339,406.536
3.11051056,45.76319378,406.541
3.11050979,45.76319402,406.55
3.11050901,45.76319413,406.559
3.11050837,45.76319409,406.549
3.11050786,45.76319409,406.548
3.11050759,45.76319411,406.541
3.11050745,45.76319419,406.539
3.11050737,45.76319426,406.541
3.11050729,45.76319437,406.541
3.11050715,45.76319445,406.543
3.11050687,45.76319453,406.543
3.11050642,45.76319463,406.541
3.11050573,45.76319475,406.543
3.11050488,45.76319486,406.542
3.11050388,45.76319503,406.551
3.11050275,45.76319527,406.548
3.11050158,45.76319547,406.553
3.11050034,45.76319573,406.56
3.11049904,45.76319607,406.566
3.11049777,45.76319643,406.571
3.11049649,45.76319670,406.568
3.11049519,45.76319687,406.562
3.11049367,45.76319717,406.564
3.11049232,45.76319738,406.571
3.11049094,45.76319764,406.579
3.11048956,45.76319788,406.576
3.11048826,45.76319815,406.588
3.11048696,45.76319835,406.594
3.11048553,45.76319871,406.58
3.11048425,45.76319917,406.583
3.11048295,45.76319954,406.592
3.11048157,45.76319981,406.596
3.11048031,45.76320017,406.595
3.11047902,45.76320045,406.6
3.11047782,45.76320067,406.611
3.11047639,45.76320099,406.601
3.11047512,45.76320126,406.608
3.11047391,45.76320160,406.602
3.11047271,45.76320206,406.607
3.11047145,45.76320246,406.609
3.11047027,45.76320287,406.606
3.11046930,45.76320341,406.608
3.11046850,45.76320388,406.616
3.11046779,45.76320416,406.617
3.11046730,45.76320446,406.61
3.11046706,45.76320464,406.61
3.11046694,45.76320467,406.612
3.11046691,45.76320460,406.608
3.11046684,45.76320453,406.608
3.11046667,45.76320451,406.606
3.11046646,45.76320458,406.6
3.11046607,45.76320474,406.604
3.11046539,45.76320500,406.61
3.11046472,45.76320528,406.616
3.11046388,45.76320546,406.603
3.11046297,45.76320572,406.599
3.11046204,45.76320596,406.598
3.11046104,45.76320618,406.602
3.11046017,45.76320652,406.605
3.11045927,45.76320690,406.6
3.11045829,45.76320727,406.603
3.11045735,45.76320772,406.601
3.11045631,45.76320802,406.607
3.11045534,45.76320846,406.612
3.11045424,45.76320886,406.611
3.11045320,45.76320915,406.606
3.11045213,45.76320959,406.609
3.11045119,45.76320984,406.61
3.11045029,45.76321007,406.611
3.11044958,45.76321021,406.622
3.11044902,45.76321027,406.621
3.11044859,45.76321027,406.62
3.11044836,45.76321037,406.62
3.11044829,45.76321043,406.622
3.11044825,45.76321048,406.622
3.11044822,45.76321054,406.621
3.11044810,45.76321060,406.621
3.11044782,45.76321072,406.624
3.11044737,45.76321085,406.627
3.11044677,45.76321111,406.627
3.11044592,45.76321132,406.635
3.11044490,45.76321153,406.641
3.11044386,45.76321182,406.636
3.11044265,45.76321212,406.644
3.11044134,45.76321237,406.656
3.11044004,45.76321256,406.65
3.11043873,45.76321281,406.654
3.11043727,45.76321302,406.652
3.11043585,45.76321313,406.648
3.11043452,45.76321336,406.648
3.11043307,45.76321350,406.647
3.11043170,45.76321378,406.634
3.11043033,45.76321400,406.641
3.11042911,45.76321433,406.641
3.11042784,45.76321474,406.654
3.11042653,45.76321519,406.651
3.11042529,45.76321566,406.652
3.11042386,45.76321597,406.664
3.11042242,45.76321643,406.651
3.11042090,45.76321688,406.671
3.11041915,45.76321746,406.676
3.11041716,45.76321808,406.678
3.11041484,45.76321873,406.681
3.11041252,45.76321924,406.678
3.11040989,45.76321944,406.673
3.11040730,45.76321984,406.671
3.11040485,45.76322030,406.659
3.11040231,45.76322098,406.667
3.11039992,45.76322184,406.673
3.11039766,45.76322279,406.682
3.11039530,45.76322385,406.699
3.11039294,45.76322487,406.702
3.11039077,45.76322571,406.705
3.11038820,45.76322646,406.698
3.11038550,45.76322695,406.685
3.11038299,45.76322751,406.689
3.11038036,45.76322800,406.691
3.11037792,45.76322866,406.683
3.11037531,45.76322914,406.69
3.11037298,45.76322985,406.689
3.11037060,45.76323050,406.697
3.11036796,45.76323123,406.701
3.11036557,45.76323175,406.705
3.11036323,45.76323247,406.69
3.11036064,45.76323293,406.706
3.11035818,45.76323363,406.712
3.11035607,45.76323438,406.71
3.11035380,45.76323517,406.71
3.11035116,45.76323557,406.715
3.11034857,45.76323610,406.712
3.11034607,45.76323673,406.707
3.11034417,45.76323728,406.716
3.11034183,45.76323792,406.709
3.11033945,45.76323892,406.694
3.11033704,45.76323941,406.696
3.11033457,45.76323980,406.68
3.11033201,45.76324053,406.683
3.11032957,45.76324123,406.686
3.11032718,45.76324201,406.689
3.11032470,45.76324287,406.687
3.11032268,45.76324383,406.684
3.11032049,45.76324498,406.704
3.11031797,45.76324588,406.709
3.11031574,45.76324658,406.702
3.11031293,45.76324723,406.709
3.11031058,45.76324807,406.694
3.11030836,45.76324896,406.7
3.11030610,45.76325008,406.712
3.11030414,45.76325135,406.694
3.11030226,45.76325264,406.706
3.11030037,45.76325383,406.689
3.11029811,45.76325496,406.691
3.11029578,45.76325583,406.689
3.11029372,45.76325661,406.661
3.11029177,45.76325738,406.625
3.11028948,45.76325833,406.623
3.11028769,45.76325914,406.646
3.11028603,45.76326005,406.629
3.11028445,45.76326143,406.635
3.11028313,45.76326271,406.645
3.11028151,45.76326390,406.648
3.11027965,45.76326507,406.647
3.11027822,45.76326595,406.623
3.11027619,45.76326670,406.625
3.11027359,45.76326743,406.625
3.11027149,45.76326818,406.63
3.11026984,45.76326916,406.632
3.11026771,45.76327031,406.648
3.11026582,45.76327138,406.654
3.11026374,45.76327227,406.66
3.11026128,45.76327314,406.649
3.11025902,45.76327389,406.642
3.11025693,45.76327463,406.631
3.11025470,45.76327571,406.641
3.11025270,45.76327692,406.662
3.11025104,45.76327814,406.667
3.11024936,45.76327963,406.685
3.11024741,45.76328109,406.71
3.11024551,45.76328230,406.693
3.11024315,45.76328343,406.692
3.11024088,45.76328423,406.686
3.11023857,45.76328488,406.661
3.11023612,45.76328569,406.668
3.11023404,45.76328676,406.658
3.11023240,45.76328772,406.669
3.11023058,45.76328886,406.676
3.11022868,45.76329007,406.668
3.11022667,45.76329119,406.673
3.11022464,45.76329224,406.65
3.11022272,45.76329328,406.641
3.11022074,45.76329437,406.634
3.11021874,45.76329546,406.636
3.11021665,45.76329654,406.637
3.11021479,45.76329752,406.646
3.11021272,45.76329857,406.658
3.11021056,45.76329958,406.654
3.11020842,45.76330025,406.646
3.11020639,45.76330105,406.64
3.11020414,45.76330189,406.623
3.11020197,45.76330282,406.629
3.11020013,45.76330372,406.618
3.11019802,45.76330493,406.629
3.11019608,45.76330601,406.627
3.11019422,45.76330700,406.639
3.11019206,45.76330808,406.646
3.11019011,45.76330898,406.63
3.11018797,45.76330988,406.641
3.11018568,45.76331065,406.645
3.11018356,45.76331146,406.603
3.11018146,45.76331223,406.59
3.11017924,45.76331304,406.606
3.11017725,45.76331399,406.604
3.11017526,45.76331498,406.602
3.11017331,45.76331596,406.607
3.11017118,45.76331697,406.608
3.11016918,45.76331785,406.605
3.11016718,45.76331878,406.615
3.11016535,45.76331988,406.607
3.11016343,45.76332108,406.6
3.11016155,45.76332218,406.599
3.11015972,45.76332330,406.603
3.11015794,45.76332441,406.6
3.11015575,45.76332537,406.595
3.11015385,45.76332648,406.623
3.11015198,45.76332734,406.621
3.11014979,45.76332833,406.635
3.11014761,45.76332910,406.633
3.11014539,45.76332983,406.631
3.11014317,45.76333067,406.636
3.11014093,45.76333136,406.625
3.11013891,45.76333233,406.619
3.11013674,45.76333341,406.647
3.11013499,45.76333451,406.65
3.11013291,45.76333556,406.635
3.11013053,45.76333657,406.65
3.11012870,45.76333750,406.647
3.11012664,45.76333840,406.642
3.11012450,45.76333940,406.652
3.11012235,45.76334030,406.629
3.11012008,45.76334114,406.636
3.11011782,45.76334204,406.633
3.11011572,45.76334274,406.607
3.11011330,45.76334338,406.632
3.11011118,45.76334429,406.621
3.11010926,45.76334524,406.634
3.11010725,45.76334622,406.647
3.11010499,45.76334729,406.655
3.11010291,45.76334848,406.658
3.11010117,45.76334951,406.614
3.11009892,45.76335039,406.614
3.11009660,45.76335124,406.606
3.11009456,45.76335211,406.596
3.11009243,45.76335328,406.603
3.11009040,45.76335427,406.605
3.11008820,45.76335506,406.639
3.11008609,45.76335607,406.639
3.11008396,45.76335695,406.624
3.11008177,45.76335761,406.62
3.11007974,45.76335834,406.603
3.11007750,45.76335910,406.598
3.11007563,45.76335999,406.582
3.11007366,45.76336096,406.587
3.11007166,45.76336199,406.585
3.11006981,45.76336305,406.572
3.11006767,45.76336385,406.606
3.11006564,45.76336485,406.607
3.11006368,45.76336568,406.6
3.11006154,45.76336649,406.591
3.11005905,45.76336716,406.61
3.11005705,45.76336799,406.604
3.11005492,45.76336891,406.612
3.11005279,45.76336982,406.627
3.11005081,45.76337084,406.623
3.11004848,45.76337183,406.641
3.11004635,45.76337298,406.606
3.11004422,45.76337400,406.617
3.11004229,45.76337516,406.628
3.11004035,45.76337633,406.629
3.11003842,45.76337734,406.643
3.11003631,45.76337831,406.635
3.11003422,45.76337913,406.646
3.11003213,45.76337985,406.631
3.11002992,45.76338066,406.625
3.11002766,45.76338153,406.622
3.11002571,45.76338254,406.624
3.11002385,45.76338363,406.625
3.11002190,45.76338486,406.634
3.11002016,45.76338618,406.641
3.11001823,45.76338748,406.655
3.11001600,45.76338868,406.67
3.11001396,45.76338960,406.671
3.11001160,45.76339057,406.711
3.11000928,45.76339150,406.696
3.11000710,45.76339243,406.705
3.11000481,45.76339333,406.671
3.11000283,45.76339449,406.686
3.11000086,45.76339565,406.667
3.10999873,45.76339661,406.646
3.10999687,45.76339801,406.631
3.10999494,45.76339886,406.584
3.10999250,45.76339985,406.588
3.10999031,45.76340075,406.58
3.10998828,45.76340197,406.545
3.10998638,45.76340328,406.554
3.10998483,45.76340524,406.639
3.10998351,45.76340703,406.651
3.10998237,45.76340860,406.656
3.10998112,45.76341024,406.658
3.10997955,45.76341180,406.632
3.10997789,45.76341344,406.649
3.10997608,45.76341461,406.622
3.10997410,45.76341574,406.6
3.10997184,45.76341657,406.583
3.10996974,45.76341775,406.551
3.10996797,45.76341919,406.566
3.10996668,45.76342053,406.568
3.10996572,45.76342202,406.56
3.10996507,45.76342387,406.587
3.10996468,45.76342550,406.58
3.10996382,45.76342726,406.591
3.10996258,45.76342897,406.593
3.10996101,45.76343052,406.595
3.10995941,45.76343181,406.574
3.10995746,45.76343345,406.567
3.10995592,45.76343532,406.566
3.10995451,45.76343686,406.551
3.10995356,45.76343878,406.554
3.10995256,45.76344022,406.572
3.10995195,45.76344198,406.554
3.10995124,45.76344378,406.563
3.10995047,45.76344536,406.559
3.10994951,45.76344699,406.554
3.10994850,45.76344870,406.545
3.10994739,45.76345031,406.529
3.10994595,45.76345193,406.533
3.10994463,45.76345365,406.515
3.10994378,45.76345544,406.512
3.10994344,45.76345732,406.508
3.10994333,45.76345912,406.505
3.10994344,45.76346088,406.523
3.10994345,45.76346280,406.536
3.10994354,45.76346457,406.55
3.10994322,45.76346627,406.541
3.10994244,45.76346821,406.548
3.10994191,45.76346970,406.539
3.10994104,45.76347129,406.514
3.10993999,45.76347322,406.515
3.10993943,45.76347482,406.497
3.10993949,45.76347655,406.508
3.10993977,45.76347845,406.517
3.10994015,45.76348014,406.537
3.10994050,45.76348201,406.547
3.10994040,45.76348406,406.56
3.10994006,45.76348572,406.56
3.10993935,45.76348743,406.549
3.10993829,45.76348929,406.527
3.10993769,45.76349090,406.527
3.10993740,45.76349274,406.515
3.10993721,45.76349458,406.513
3.10993700,45.76349628,406.507
3.10993690,45.76349829,406.51
3.10993672,45.76350016,406.51
3.10993656,45.76350196,406.499
3.10993638,45.76350391,406.49
3.10993643,45.76350580,406.478
3.10993652,45.76350752,406.471
3.10993687,45.76350940,406.465
3.10993735,45.76351120,406.476
3.10993778,45.76351290,406.469
3.10993811,45.76351476,406.46
3.10993838,45.76351659,406.469
3.10993855,45.76351836,406.448
3.10993861,45.76352012,406.444
3.10993879,45.76352202,406.445
3.10993920,45.76352369,406.433
3.10993973,45.76352528,406.431
3.10994073,45.76352699,406.434
3.10994170,45.76352860,406.453
3.10994276,45.76353009,406.438
3.10994383,45.76353194,406.453
3.10994495,45.76353368,406.467
3.10994592,45.76353533,406.465
3.10994690,45.76353699,406.469
3.10994785,45.76353874,406.471
3.10994900,45.76354029,406.471
3.10995029,45.76354182,406.477
3.10995173,45.76354334,406.489
3.10995312,45.76354491,406.5
3.10995466,45.76354653,406.516
3.10995598,45.76354798,406.507
3.10995702,45.76354955,406.512
3.10995811,45.76355112,406.504
3.10995941,45.76355268,406.514
3.10996072,45.76355406,406.522
3.10996197,45.76355570,406.515
3.10996305,45.76355737,406.517
3.10996391,45.76355897,406.518
3.10996498,45.76356069,406.517
3.10996602,45.76356231,406.508
3.10996743,45.76356374,406.503
3.10996914,45.76356521,406.51
3.10997108,45.76356674,406.526
3.10997263,45.76356823,406.517
3.10997422,45.76356984,406.531
3.10997567,45.76357135,406.521
3.10997704,45.76357299,406.52
3.10997854,45.76357461,406.529
3.10997994,45.76357616,406.507
3.10998125,45.76357772,406.498
3.10998269,45.76357925,406.477
3.10998427,45.76358079,406.467
3.10998581,45.76358214,406.464
3.10998746,45.76358354,406.451
3.10998929,45.76358490,406.459
3.10999086,45.76358604,406.444
3.10999268,45.76358735,406.454
3.10999455,45.76358866,406.463
3.10999597,45.76358983,406.437
3.10999764,45.76359137,406.452
3.10999898,45.76359268,406.427
3.11000064,45.76359395,406.428
3.11000234,45.76359518,406.432
3.11000406,45.76359643,406.425
3.11000581,45.76359771,406.434
3.11000747,45.76359888,406.428
3.11000917,45.76360034,406.435
3.11001055,45.76360167,406.417
3.11001228,45.76360303,406.418
3.11001409,45.76360426,406.418
3.11001575,45.76360549,406.403
3.11001764,45.76360685,406.417
3.11001926,45.76360810,406.404
3.11002095,45.76360943,406.411
3.11002265,45.76361064,406.397
3.11002441,45.76361203,406.407
3.11002614,45.76361324,406.405
3.11002780,45.76361449,406.4
3.11002971,45.76361578,406.405
3.11003146,45.76361694,406.389
3.11003339,45.76361818,406.395
3.11003523,45.76361935,406.379
3.11003712,45.76362058,406.392
3.11003881,45.76362168,406.383
3.11004020,45.76362287,406.38
3.11004165,45.76362399,406.398
3.11004275,45.76362509,406.381
3.11004407,45.76362621,406.392
3.11004522,45.76362716,406.377
3.11004662,45.76362809,406.384
3.11004794,45.76362895,406.368
3.11004930,45.76362980,406.367
3.11005064,45.76363067,406.364
3.11005189,45.76363152,406.354
3.11005308,45.76363254,406.352
3.11005426,45.76363345,406.352
3.11005537,45.76363426,406.348
3.11005650,45.76363504,406.35
3.11005742,45.76363566,406.339
3.11005830,45.76363623,406.349
3.11005901,45.76363673,406.349
3.11005972,45.76363722,406.341
3.11006033,45.76363774,406.341
3.11006090,45.76363834,406.339
3.11006155,45.76363895,406.336
3.11006215,45.76363957,406.33
3.11006288,45.76364014,406.334
3.11006360,45.76364077,406.332
3.11006440,45.76364134,406.331
3.11006522,45.76364195,406.332
3.11006592,45.76364256,406.325
3.11006660,45.76364322,406.312
3.11006733,45.76364391,406.308
3.11006805,45.76364456,406.306
3.11006884,45.76364524,406.308
3.11006959,45.76364596,406.298
3.11007040,45.76364665,406.299
3.11007130,45.76364731,406.298
3.11007217,45.76364799,406.302
3.11007311,45.76364867,406.307
3.11007400,45.76364938,406.306
3.11007490,45.76365008,406.3
3.11007582,45.76365074,406.299
3.11007671,45.76365150,406.294
3.11007760,45.76365220,406.289
3.11007860,45.76365288,406.293
3.11007965,45.76365346,406.29
3.11008071,45.76365405,406.291
3.11008169,45.76365468,406.294
3.11008263,45.76365534,406.287
3.11008360,45.76365601,406.284
3.11008464,45.76365663,406.278
3.11008569,45.76365718,406.276
3.11008669,45.76365775,406.271
3.11008760,45.76365838,406.26
3.11008849,45.76365904,406.257
3.11008938,45.76365963,406.258
3.11009031,45.76366014,406.255
3.11009130,45.76366062,406.251
3.11009227,45.76366116,406.246
3.11009327,45.76366168,406.243
3.11009426,45.76366222,406.237
3.11009520,45.76366275,406.234
3.11009617,45.76366330,406.226
3.11009708,45.76366386,406.222
3.11009807,45.76366435,406.225
3.11009902,45.76366479,406.222
3.11009997,45.76366525,406.221
3.11010080,45.76366584,406.215
3.11010177,45.76366641,406.215
3.11010277,45.76366694,406.214
3.11010377,45.76366746,406.213
3.11010481,45.76366801,406.207
3.11010592,45.76366851,406.209
3.11010683,45.76366905,406.203
3.11010787,45.76366963,406.205
3.11010878,45.76367020,406.205
3.11010980,45.76367074,406.199
3.11011084,45.76367123,406.2
3.11011194,45.76367170,406.199
3.11011310,45.76367216,406.199
3.11011425,45.76367266,406.196
3.11011538,45.76367312,406.195
3.11011655,45.76367359,406.195
3.11011770,45.76367403,406.193
3.11011886,45.76367442,406.195
3.11011998,45.76367484,406.198
3.11012122,45.76367519,406.198
3.11012243,45.76367551,406.196
3.11012367,45.76367582,406.193
3.11012484,45.76367612,406.19
3.11012598,45.76367647,406.195
3.11012717,45.76367679,406.192
3.11012834,45.76367707,406.188
3.11012961,45.76367743,406.185
3.11013081,45.76367769,406.177
3.11013198,45.76367799,406.174
3.11013325,45.76367833,406.164
3.11013443,45.76367865,406.155
3.11013557,45.76367900,406.164
3.11013664,45.76367929,406.168
3.11013776,45.76367954,406.164
3.11013900,45.76367983,406.171
3.11014015,45.76368018,406.184
3.11014125,45.76368047,406.187
3.11014240,45.76368071,406.184
3.11014367,45.76368092,406.168
3.11014487,45.76368118,406.172
3.11014596,45.76368150,406.176
3.11014721,45.76368189,406.181
3.11014830,45.76368210,406.179
3.11014947,45.76368236,406.19
3.11015063,45.76368272,406.189
3.11015183,45.76368295,406.201
3.11015312,45.76368337,406.195
3.11015435,45.76368360,406.197
3.11015556,45.76368391,406.184
3.11015672,45.76368421,406.191
3.11015805,45.76368459,406.188
3.11015929,45.76368473,406.182
3.11016073,45.76368517,406.168
3.11016195,45.76368539,406.176
3.11016324,45.76368564,406.15
3.11016447,45.76368592,406.163
3.11016578,45.76368618,406.166
3.11016705,45.76368651,406.158
3.11016847,45.76368684,406.135
3.11016972,45.76368702,406.147
3.11017094,45.76368723,406.146
3.11017241,45.76368777,406.115
3.11017356,45.76368790,406.129
3.11017502,45.76368807,406.146
3.11017639,45.76368820,406.121
3.11017775,45.76368829,406.126
3.11017876,45.76368841,406.131
3.11018012,45.76368852,406.152
3.11018146,45.76368866,406.15
3.11018278,45.76368873,406.127
3.11018419,45.76368886,406.125
3.11018518,45.76368883,406.137
3.11018660,45.76368897,406.122
3.11018765,45.76368911,406.133
3.11018897,45.76368922,406.131
3.11019005,45.76368938,406.16
3.11019143,45.76368982,406.129
3.11019286,45.76368965,406.124
3.11019427,45.76368944,406.062
3.11019541,45.76368974,406.096
3.11019680,45.76368979,406.053
3.11019774,45.76369001,406.084
3.11019909,45.76368958,406.091
3.11020020,45.76368977,406.042
3.11020135,45.76368978,406.002
3.11020237,45.76368974,405.996
3.11020378,45.76369004,406.034
3.11020552,45.76369116,406.013
3.11020676,45.76369162,406.085
3.11020803,45.76369250,406.161
3.11020914,45.76369269,406.162
3.11021008,45.76369249,406.207
3.11021145,45.76369262,406.175
3.11021196,45.76369292,406.147
3.11021307,45.76369282,406.168
3.11021408,45.76369291,406.202
3.11021489,45.76369295,406.212
3.11021665,45.76369329,406.144
3.11021784,45.76369332,406.152
3.11021920,45.76369342,406.126
3.11022056,45.76369338,406.095
3.11022238,45.76369271,406.238
3.11022419,45.76369287,406.283
3.11022475,45.76369280,406.269
3.11022584,45.76369282,406.289
3.11022802,45.76369315,406.243
3.11022909,45.76369326,406.217
3.11023026,45.76369308,406.265
3.11023116,45.76369348,406.117
3.11023264,45.76369312,406.196
3.11023404,45.76369330,406.226
3.11023533,45.76369344,406.192
3.11023685,45.76369329,406.254
3.11023824,45.76369319,406.231
3.11023906,45.76369283,406.22
3.11024018,45.76369274,406.166
3.11024177,45.76369246,406.206
3.11024298,45.76369227,406.191
3.11024424,45.76369220,406.171
3.11024572,45.76369184,406.173
3.11024666,45.76369167,406.158
3.11024800,45.76369132,406.154
3.11024930,45.76369095,406.167
3.11025058,45.76369047,406.152
3.11025166,45.76369027,406.163
3.11025289,45.76368987,406.129
3.11025414,45.76368969,406.113
3.11025548,45.76368934,406.131
3.11025683,45.76368903,406.135
3.11025811,45.76368836,406.144
3.11025938,45.76368786,406.151
3.11026066,45.76368746,406.155
3.11026194,45.76368695,406.166
3.11026298,45.76368655,406.148
3.11026421,45.76368610,406.154
3.11026544,45.76368556,406.152
3.11026653,45.76368515,406.151
3.11026785,45.76368476,406.159
3.11026897,45.76368437,406.156
3.11027019,45.76368410,406.182
3.11027138,45.76368379,406.177
3.11027258,45.76368342,406.192
3.11027445,45.76368376,406.068
3.11027562,45.76368334,406.067
3.11027672,45.76368300,406.066
3.11027775,45.76368266,406.075
3.11027892,45.76368232,406.07
3.11028003,45.76368202,406.064
3.11028125,45.76368178,406.068
3.11028235,45.76368144,406.06
3.11028345,45.76368111,406.065
3.11028445,45.76368080,406.065
3.11028559,45.76368039,406.069
3.11028667,45.76368005,406.061
3.11028771,45.76367974,406.065
3.11028889,45.76367941,406.066
3.11028997,45.76367909,406.065
3.11029112,45.76367872,406.05
3.11029224,45.76367836,406.057
3.11029333,45.76367804,406.049
3.11029455,45.76367776,406.054
3.11029574,45.76367747,406.061
3.11029689,45.76367717,406.052
3.11029806,45.76367686,406.06
3.11029918,45.76367649,406.05
3.11030032,45.76367614,406.055
3.11030153,45.76367578,406.06
3.11030263,45.76367540,406.057
3.11030372,45.76367505,406.055
3.11030491,45.76367470,406.055
3.11030610,45.76367436,406.05
3.11030730,45.76367412,406.044
3.11030855,45.76367382,406.043
3.11030985,45.76367344,406.043
3.11031103,45.76367297,406.053
3.11031222,45.76367248,406.064
3.11031329,45.76367202,406.057
3.11031442,45.76367147,406.065
3.11031554,45.76367103,406.065
3.11031666,45.76367061,406.067
3.11031779,45.76367015,406.068
3.11031899,45.76366982,406.067
3.11032016,45.76366946,406.056
3.11032136,45.76366914,406.055
3.11032253,45.76366879,406.055
3.11032366,45.76366837,406.045
3.11032480,45.76366796,406.047
3.11032601,45.76366744,406.044
3.11032714,45.76366694,406.044
3.11032818,45.76366639,406.045
3.11032937,45.76366589,406.038
3.11033069,45.76366529,406.034
3.11033198,45.76366471,406.018
3.11033339,45.76366403,406.012
3.11033473,45.76366323,406.007
3.11033588,45.76366230,406.004
3.11033675,45.76366128,406.007
3.11033742,45.76366026,406.012
3.11033807,45.76365926,406.014
3.11033865,45.76365831,406.02
3.11033912,45.76365737,406.025
3.11033956,45.76365644,406.034
3.11033996,45.76365550,406.032
3.11034033,45.76365461,406.028
3.11034054,45.76365371,406.039
3.11034071,45.76365294,406.036
3.11034069,45.76365241,406.042
3.11034063,45.76365212,406.049
3.11034064,45.76365198,406.05
3.11034073,45.76365196,406.045
3.11034085,45.76365202,406.04
3.11034092,45.76365212,406.037
3.11034095,45.76365217,406.035
3.11034101,45.76365209,406.038
3.11034100,45.76365200,406.041
3.11034087,45.76365201,406.043
3.11034078,45.76365205,406.043
3.11034081,45.76365203,406.042
3.11034088,45.76365204,406.042
3.11034092,45.76365206,406.04
3.11034092,45.76365207,406.039
3.11034086,45.76365206,406.038
3.11034083,45.76365205,406.041
3.11034083,45.76365197,406.041
3.11034092,45.76365173,406.041
3.11034105,45.76365132,406.04
3.11034112,45.76365076,406.046
3.11034107,45.76365006,406.055
3.11034088,45.76364930,406.063
3.11034076,45.76364847,406.079
3.11034072,45.76364773,406.087
3.11034079,45.76364708,406.09
3.11034101,45.76364665,406.092
3.11034131,45.76364642,406.088
3.11034155,45.76364632,406.084
3.11034169,45.76364627,406.084
3.11034168,45.76364636,406.085
3.11034150,45.76364659,406.086
3.11034124,45.76364689,406.094
3.11034100,45.76364738,406.091
3.11034088,45.76364804,406.084
3.11034078,45.76364873,406.086
3.11034058,45.76364948,406.08
3.11034045,45.76365029,406.076
3.11034049,45.76365098,406.073
3.11034059,45.76365163,406.064
3.11034078,45.76365210,406.061
3.11034114,45.76365252,406.033
3.11034126,45.76365273,406.031
3.11034127,45.76365284,406.03
3.11034121,45.76365283,406.029
3.11034110,45.76365285,406.03
3.11034105,45.76365280,406.033
3.11034107,45.76365281,406.03
3.11034115,45.76365287,406.029
3.11034120,45.76365285,406.031
3.11034118,45.76365280,406.033
3.11034113,45.76365283,406.033
3.11034111,45.76365283,406.03
3.11034112,45.76365283,406.035
3.11034115,45.76365282,406.034
3.11034118,45.76365283,406.031
3.11034116,45.76365284,406.029
3.11034110,45.76365285,406.031
3.11034110,45.76365284,406.029
3.11034113,45.76365284,406.031
3.11034115,45.76365285,406.031
3.11034116,45.76365285,406.03
3.11034114,45.76365284,406.03
3.11034113,45.76365283,406.029
3.11034112,45.76365283,406.033
3.11034112,45.76365283,406.032
3.11034114,45.76365283,406.031
3.11034114,45.76365284,406.032
3.11034114,45.76365284,406.034
3.11034112,45.76365284,406.035
3.11034111,45.76365282,406.034
3.11034113,45.76365283,406.034
        </coordinates> 
      </LineString> 
    </Placemark> 
  </Document> 
</kml> 
