<?xml version="1.0" encoding="UTF-8"?> 
<kml xmlns="http://www.opengis.net/kml/2.2" 
     xmlns:gx="http://www.google.com/kml/ext/2.2" 
     xmlns:kml="http://www.opengis.net/kml/2.2"
     xmlns:atom="http://www.w3.org/2005/Atom"> 
  <Document> 
    <name>gps_traj.kml</name> 
    <Placemark> 
      <name>Trajectoire</name> 
      <LineString> 
        <tessellate>1</tessellate> 
        <coordinates> 
3.43543843,46.34022762,281.787
3.43543844,46.34022761,281.788
3.43543844,46.34022761,281.786
3.43543843,46.34022762,281.786
3.43543844,46.34022762,281.785
3.43543844,46.34022761,281.784
3.43543845,46.34022761,281.785
3.43543845,46.34022760,281.786
3.43543844,46.34022760,281.787
3.43543843,46.34022760,281.786
3.43543843,46.34022759,281.787
3.43543842,46.34022759,281.789
3.43543838,46.34022762,281.785
3.43543824,46.34022776,281.784
3.43543796,46.34022799,281.782
3.43543755,46.34022834,281.78
3.43543707,46.34022882,281.781
3.43543655,46.34022932,281.783
3.43543601,46.34022976,281.783
3.43543550,46.34023026,281.786
3.43543505,46.34023077,281.788
3.43543462,46.34023131,281.795
3.43543412,46.34023196,281.795
3.43543351,46.34023270,281.8
3.43543288,46.34023352,281.797
3.43543234,46.34023432,281.805
3.43543190,46.34023517,281.816
3.43543132,46.34023605,281.816
3.43543051,46.34023687,281.813
3.43542960,46.34023763,281.809
3.43542862,46.34023839,281.802
3.43542770,46.34023915,281.789
3.43542694,46.34023991,281.787
3.43542643,46.34024079,281.794
3.43542593,46.34024169,281.794
3.43542546,46.34024259,281.805
3.43542498,46.34024346,281.807
3.43542426,46.34024436,281.806
3.43542349,46.34024509,281.804
3.43542269,46.34024584,281.804
3.43542198,46.34024662,281.806
3.43542131,46.34024739,281.801
3.43542063,46.34024823,281.801
3.43541988,46.34024906,281.791
3.43541898,46.34024981,281.788
3.43541811,46.34025062,281.787
3.43541733,46.34025146,281.786
3.43541683,46.34025231,281.787
3.43541652,46.34025326,281.787
3.43541620,46.34025422,281.789
3.43541586,46.34025518,281.791
3.43541537,46.34025606,281.794
3.43541488,46.34025697,281.802
3.43541440,46.34025794,281.793
3.43541402,46.34025885,281.8
3.43541357,46.34025978,281.8
3.43541311,46.34026068,281.805
3.43541259,46.34026160,281.791
3.43541223,46.34026251,281.792
3.43541194,46.34026344,281.8
3.43541167,46.34026428,281.802
3.43541141,46.34026514,281.806
3.43541107,46.34026598,281.801
3.43541069,46.34026671,281.799
3.43541025,46.34026751,281.798
3.43540980,46.34026840,281.795
3.43540937,46.34026929,281.787
3.43540893,46.34027023,281.795
3.43540865,46.34027117,281.793
3.43540834,46.34027217,281.792
3.43540801,46.34027315,281.796
3.43540765,46.34027413,281.79
3.43540722,46.34027513,281.787
3.43540687,46.34027612,281.791
3.43540660,46.34027710,281.791
3.43540637,46.34027808,281.79
3.43540618,46.34027902,281.791
3.43540608,46.34027994,281.795
3.43540585,46.34028080,281.796
3.43540564,46.34028164,281.792
3.43540546,46.34028251,281.798
3.43540527,46.34028336,281.799
3.43540519,46.34028417,281.79
3.43540517,46.34028508,281.799
3.43540533,46.34028584,281.805
3.43540524,46.34028674,281.793
3.43540496,46.34028756,281.8
3.43540446,46.34028842,281.789
3.43540389,46.34028934,281.787
3.43540341,46.34029033,281.761
3.43540331,46.34029128,281.756
3.43540360,46.34029216,281.751
3.43540399,46.34029316,281.746
3.43540451,46.34029402,281.751
3.43540476,46.34029508,281.749
3.43540512,46.34029613,281.751
3.43540530,46.34029739,281.724
3.43540591,46.34029852,281.73
3.43540662,46.34029954,281.729
3.43540766,46.34030040,281.74
3.43540882,46.34030125,281.748
3.43540993,46.34030209,281.757
3.43541110,46.34030287,281.781
3.43541213,46.34030368,281.781
3.43541310,46.34030452,281.776
3.43541403,46.34030535,281.773
3.43541505,46.34030607,281.782
3.43541606,46.34030684,281.793
3.43541713,46.34030747,281.794
3.43541812,46.34030819,281.808
3.43541912,46.34030894,281.784
3.43541998,46.34030957,281.775
3.43542084,46.34031010,281.772
3.43542171,46.34031073,281.763
3.43542260,46.34031136,281.782
3.43542354,46.34031193,281.795
3.43542451,46.34031255,281.796
3.43542543,46.34031317,281.786
3.43542645,46.34031372,281.795
3.43542724,46.34031434,281.793
3.43542813,46.34031496,281.794
3.43542916,46.34031558,281.817
3.43543009,46.34031621,281.817
3.43543101,46.34031666,281.815
3.43543195,46.34031726,281.803
3.43543293,46.34031777,281.81
3.43543385,46.34031832,281.826
3.43543473,46.34031889,281.844
3.43543566,46.34031939,281.843
3.43543651,46.34032004,281.846
3.43543750,46.34032059,281.846
3.43543844,46.34032131,281.837
3.43543934,46.34032188,281.853
3.43544035,46.34032246,281.84
3.43544136,46.34032298,281.847
3.43544235,46.34032365,281.838
3.43544334,46.34032437,281.825
3.43544415,46.34032529,281.794
3.43544534,46.34032588,281.799
3.43544632,46.34032652,281.809
3.43544765,46.34032711,281.786
3.43544877,46.34032762,281.803
3.43544984,46.34032819,281.783
3.43545109,46.34032881,281.78
3.43545241,46.34032927,281.79
3.43545378,46.34032964,281.784
3.43545514,46.34032990,281.792
3.43545648,46.34033014,281.8
3.43545792,46.34033044,281.793
3.43545932,46.34033077,281.794
3.43546065,46.34033108,281.805
3.43546217,46.34033144,281.812
3.43546358,46.34033172,281.792
3.43546492,46.34033203,281.789
3.43546627,46.34033226,281.803
3.43546760,46.34033261,281.793
3.43546889,46.34033295,281.782
3.43547009,46.34033311,281.778
3.43547143,46.34033342,281.78
3.43547278,46.34033361,281.807
3.43547395,46.34033384,281.799
3.43547531,46.34033402,281.796
3.43547642,46.34033438,281.779
3.43547763,46.34033461,281.773
3.43547882,46.34033484,281.768
3.43548002,46.34033509,281.771
3.43548119,46.34033530,281.774
3.43548238,46.34033544,281.769
3.43548362,46.34033565,281.796
3.43548471,46.34033598,281.776
3.43548595,46.34033616,281.782
3.43548710,46.34033653,281.769
3.43548835,46.34033669,281.783
3.43548955,46.34033697,281.778
3.43549085,46.34033712,281.768
3.43549223,46.34033725,281.783
3.43549342,46.34033750,281.771
3.43549471,46.34033776,281.793
3.43549581,46.34033797,281.802
3.43549705,46.34033814,281.789
3.43549821,46.34033834,281.788
3.43549944,46.34033857,281.783
3.43550060,46.34033885,281.787
3.43550187,46.34033906,281.792
3.43550312,46.34033924,281.79
3.43550430,46.34033950,281.798
3.43550553,46.34033971,281.797
3.43550661,46.34033995,281.786
3.43550791,46.34034018,281.785
3.43550911,46.34034047,281.778
3.43551030,46.34034063,281.787
3.43551157,46.34034083,281.796
3.43551271,46.34034101,281.792
3.43551396,46.34034123,281.802
3.43551518,46.34034147,281.794
3.43551640,46.34034173,281.803
3.43551749,46.34034203,281.779
3.43551875,46.34034214,281.788
3.43552000,46.34034232,281.799
3.43552124,46.34034261,281.815
3.43552234,46.34034287,281.815
3.43552359,46.34034324,281.815
3.43552483,46.34034366,281.819
3.43552593,46.34034403,281.783
3.43552709,46.34034431,281.799
3.43552831,46.34034459,281.788
3.43552956,46.34034475,281.81
3.43553067,46.34034504,281.788
3.43553200,46.34034524,281.787
3.43553308,46.34034561,281.797
3.43553431,46.34034583,281.786
3.43553550,46.34034615,281.796
3.43553672,46.34034644,281.791
3.43553784,46.34034669,281.799
3.43553900,46.34034706,281.78
3.43554022,46.34034732,281.787
3.43554143,46.34034759,281.781
3.43554264,46.34034787,281.772
3.43554382,46.34034809,281.778
3.43554499,46.34034843,281.774
3.43554614,46.34034870,281.774
3.43554741,46.34034896,281.773
3.43554851,46.34034923,281.793
3.43554971,46.34034955,281.775
3.43555082,46.34034982,281.78
3.43555209,46.34035020,281.771
3.43555324,46.34035037,281.784
3.43555449,46.34035072,281.793
3.43555561,46.34035106,281.779
3.43555683,46.34035127,281.786
3.43555800,46.34035158,281.793
3.43555921,46.34035181,281.783
3.43556040,46.34035228,281.755
3.43556163,46.34035239,281.755
3.43556280,46.34035274,281.755
3.43556400,46.34035303,281.757
3.43556527,46.34035332,281.755
3.43556640,46.34035357,281.766
3.43556758,46.34035398,281.754
3.43556881,46.34035430,281.758
3.43556996,46.34035457,281.756
3.43557104,46.34035500,281.759
3.43557216,46.34035524,281.748
3.43557339,46.34035557,281.76
3.43557458,46.34035574,281.776
3.43557572,46.34035613,281.762
3.43557696,46.34035643,281.752
3.43557801,46.34035673,281.742
3.43557927,46.34035697,281.75
3.43558041,46.34035731,281.744
3.43558157,46.34035761,281.757
3.43558271,46.34035790,281.736
3.43558387,46.34035825,281.731
3.43558494,46.34035857,281.733
3.43558611,46.34035891,281.73
3.43558733,46.34035910,281.74
3.43558854,46.34035946,281.721
3.43558981,46.34035970,281.745
3.43559102,46.34036006,281.735
3.43559218,46.34036041,281.757
3.43559325,46.34036074,281.747
3.43559449,46.34036102,281.75
3.43559562,46.34036144,281.739
3.43559675,46.34036183,281.727
3.43559802,46.34036195,281.737
3.43559911,46.34036232,281.713
3.43560027,46.34036265,281.717
3.43560131,46.34036296,281.738
3.43560242,46.34036330,281.744
3.43560355,46.34036366,281.728
3.43560484,46.34036395,281.74
3.43560592,46.34036425,281.737
3.43560707,46.34036451,281.715
3.43560834,46.34036483,281.712
3.43560940,46.34036524,281.706
3.43561062,46.34036551,281.718
3.43561175,46.34036590,281.692
3.43561308,46.34036616,281.735
3.43561415,46.34036647,281.725
3.43561540,46.34036674,281.72
3.43561654,46.34036712,281.719
3.43561768,46.34036751,281.727
3.43561864,46.34036791,281.731
3.43561984,46.34036822,281.726
3.43562099,46.34036861,281.724
3.43562226,46.34036891,281.736
3.43562335,46.34036925,281.733
3.43562475,46.34036963,281.717
3.43562573,46.34036996,281.691
3.43562695,46.34037036,281.709
3.43562803,46.34037070,281.705
3.43562907,46.34037103,281.691
3.43563002,46.34037143,281.687
3.43563080,46.34037158,281.68
3.43563136,46.34037175,281.683
3.43563158,46.34037181,281.681
3.43563167,46.34037186,281.682
3.43563163,46.34037185,281.695
3.43563156,46.34037184,281.694
3.43563149,46.34037181,281.693
3.43563158,46.34037180,281.692
3.43563160,46.34037181,281.692
3.43563153,46.34037182,281.692
3.43563150,46.34037182,281.69
3.43563151,46.34037181,281.694
3.43563152,46.34037182,281.69
3.43563151,46.34037182,281.69
3.43563140,46.34037175,281.714
3.43563140,46.34037175,281.715
3.43563140,46.34037177,281.713
3.43563140,46.34037175,281.715
3.43563140,46.34037175,281.714
3.43563145,46.34037179,281.721
3.43563145,46.34037181,281.725
        </coordinates> 
      </LineString> 
    </Placemark> 
  </Document> 
</kml> 
