<?xml version="1.0" encoding="UTF-8"?> 
<kml xmlns="http://www.opengis.net/kml/2.2" 
     xmlns:gx="http://www.google.com/kml/ext/2.2" 
     xmlns:kml="http://www.opengis.net/kml/2.2"
     xmlns:atom="http://www.w3.org/2005/Atom"> 
  <Document> 
    <name>gps_traj.kml</name> 
    <Placemark> 
      <name>Trajectoire</name> 
      <LineString> 
        <tessellate>1</tessellate> 
        <coordinates> 
3.11059487,45.76332572,406.547
3.11059487,45.76332572,406.546
3.11059487,45.76332573,406.546
3.11059488,45.76332572,406.548
3.11059489,45.76332562,406.546
3.11059491,45.76332542,406.541
3.11059495,45.76332509,406.541
3.11059503,45.76332459,406.544
3.11059516,45.76332394,406.543
3.11059545,45.76332328,406.536
3.11059585,45.76332255,406.521
3.11059625,45.76332176,406.524
3.11059653,45.76332091,406.523
3.11059687,45.76331999,406.512
3.11059733,45.76331902,406.51
3.11059776,45.76331804,406.513
3.11059810,45.76331711,406.514
3.11059848,45.76331621,406.514
3.11059883,45.76331523,406.509
3.11059918,45.76331429,406.504
3.11059943,45.76331330,406.496
3.11059982,45.76331243,406.495
3.11060034,45.76331160,406.483
3.11060100,45.76331065,406.484
3.11060159,45.76330978,406.473
3.11060196,45.76330892,406.476
3.11060237,45.76330808,406.463
3.11060288,45.76330719,406.464
3.11060308,45.76330622,406.462
3.11060312,45.76330538,406.459
3.11060311,45.76330446,406.467
3.11060338,45.76330357,406.466
3.11060370,45.76330256,406.454
3.11060418,45.76330147,406.444
3.11060479,45.76330027,406.43
3.11060516,45.76329882,406.422
3.11060544,45.76329735,406.431
3.11060553,45.76329590,406.422
3.11060547,45.76329432,406.426
3.11060546,45.76329260,406.441
3.11060541,45.76329081,406.439
3.11060550,45.76328896,406.443
3.11060561,45.76328725,406.417
3.11060575,45.76328535,406.425
3.11060569,45.76328338,406.426
3.11060551,45.76328151,406.434
3.11060517,45.76327967,406.439
3.11060454,45.76327775,406.45
3.11060382,45.76327596,406.46
3.11060302,45.76327406,406.474
3.11060237,45.76327217,406.481
3.11060193,45.76327016,406.476
3.11060155,45.76326824,406.488
3.11060130,45.76326617,406.493
3.11060111,45.76326411,406.499
3.11060094,45.76326223,406.483
3.11060045,45.76326006,406.489
3.11059981,45.76325824,406.49
3.11059919,45.76325654,406.482
3.11059839,45.76325452,406.474
3.11059765,45.76325290,406.458
3.11059739,45.76325121,406.446
3.11059642,45.76324915,406.455
3.11059543,45.76324760,406.44
3.11059446,45.76324613,406.448
3.11059331,45.76324418,406.467
3.11059234,45.76324255,406.458
3.11059149,45.76324107,406.443
3.11059014,45.76323920,406.464
3.11058896,45.76323780,406.469
3.11058764,45.76323643,406.486
3.11058654,45.76323487,406.493
3.11058602,45.76323362,406.474
3.11058535,45.76323234,406.47
3.11058465,45.76323137,406.462
3.11058393,45.76323054,406.459
3.11058311,45.76322973,406.459
3.11058228,45.76322904,406.462
3.11058150,45.76322838,406.472
3.11058093,45.76322764,406.467
3.11058053,45.76322681,406.464
3.11058009,45.76322599,406.465
3.11057954,45.76322528,406.462
3.11057882,45.76322461,406.462
3.11057805,45.76322402,406.467
3.11057721,45.76322343,406.462
3.11057635,45.76322275,406.475
3.11057552,45.76322215,406.471
3.11057475,45.76322146,406.471
3.11057400,45.76322076,406.483
3.11057320,45.76322003,406.479
3.11057236,45.76321934,406.494
3.11057151,45.76321865,406.486
3.11057063,45.76321795,406.492
3.11056972,45.76321728,406.494
3.11056881,45.76321665,406.497
3.11056787,45.76321615,406.498
3.11056673,45.76321571,406.504
3.11056560,45.76321525,406.511
3.11056442,45.76321484,406.513
3.11056321,45.76321437,406.515
3.11056186,45.76321388,406.51
3.11056043,45.76321337,406.512
3.11055891,45.76321297,406.517
3.11055738,45.76321266,406.515
3.11055590,45.76321233,406.52
3.11055456,45.76321214,406.523
3.11055330,45.76321197,406.514
3.11055221,45.76321184,406.512
3.11055120,45.76321151,406.502
3.11055015,45.76321114,406.498
3.11054895,45.76321073,406.493
3.11054766,45.76321049,406.495
3.11054631,45.76321045,406.5
3.11054499,45.76321069,406.516
3.11054358,45.76321102,406.515
3.11054201,45.76321145,406.536
3.11054012,45.76321177,406.545
3.11053818,45.76321183,406.551
3.11053621,45.76321179,406.537
3.11053391,45.76321171,406.532
3.11053148,45.76321180,406.517
3.11052909,45.76321199,406.515
3.11052656,45.76321231,406.514
3.11052396,45.76321282,406.522
3.11052139,45.76321333,406.526
3.11051877,45.76321396,406.549
3.11051620,45.76321454,406.55
3.11051368,45.76321526,406.561
3.11051102,45.76321592,406.569
3.11050858,45.76321653,406.575
3.11050615,45.76321708,406.58
3.11050335,45.76321767,406.569
3.11050095,45.76321812,406.567
3.11049882,45.76321858,406.555
3.11049623,45.76321932,406.575
3.11049394,45.76322004,406.583
3.11049171,45.76322081,406.59
3.11048921,45.76322167,406.605
3.11048705,45.76322248,406.615
3.11048507,45.76322324,406.625
3.11048261,45.76322415,406.642
3.11048079,45.76322493,406.647
3.11047901,45.76322584,406.67
3.11047648,45.76322660,406.671
3.11047493,45.76322700,406.658
3.11047304,45.76322739,406.675
3.11047067,45.76322766,406.684
3.11046896,45.76322766,406.671
3.11046757,45.76322762,406.649
3.11046540,45.76322795,406.655
3.11046326,45.76322836,406.648
3.11046124,45.76322881,406.667
3.11045881,45.76322928,406.687
3.11045661,45.76322978,406.683
3.11045439,45.76323034,406.712
3.11045173,45.76323066,406.744
3.11044946,45.76323068,406.745
3.11044702,45.76323065,406.749
3.11044439,45.76323076,406.725
3.11044174,45.76323084,406.741
3.11043907,45.76323078,406.757
3.11043643,45.76323109,406.759
3.11043393,45.76323161,406.759
3.11043132,45.76323216,406.792
3.11042847,45.76323278,406.793
3.11042577,45.76323306,406.805
3.11042320,45.76323326,406.808
3.11042040,45.76323342,406.801
3.11041786,45.76323350,406.786
3.11041514,45.76323349,406.759
3.11041248,45.76323345,406.767
3.11040998,45.76323369,406.754
3.11040730,45.76323388,406.757
3.11040471,45.76323407,406.742
3.11040220,45.76323439,406.731
3.11039959,45.76323470,406.722
3.11039693,45.76323475,406.711
3.11039432,45.76323458,406.705
3.11039162,45.76323443,406.69
3.11038898,45.76323445,406.676
3.11038639,45.76323466,406.676
3.11038389,45.76323499,406.689
3.11038155,45.76323544,406.68
3.11037915,45.76323611,406.711
3.11037689,45.76323675,406.693
3.11037450,45.76323736,406.712
3.11037203,45.76323812,406.72
3.11036963,45.76323877,406.723
3.11036719,45.76323929,406.717
3.11036473,45.76323998,406.729
3.11036232,45.76324050,406.705
3.11035996,45.76324125,406.725
3.11035759,45.76324190,406.733
3.11035508,45.76324269,406.715
3.11035247,45.76324333,406.734
3.11035000,45.76324374,406.716
3.11034793,45.76324396,406.71
3.11034527,45.76324427,406.712
3.11034264,45.76324486,406.7
3.11034069,45.76324555,406.714
3.11033838,45.76324639,406.717
3.11033595,45.76324729,406.726
3.11033376,45.76324806,406.731
3.11033135,45.76324865,406.733
3.11032891,45.76324910,406.705
3.11032640,45.76324920,406.677
3.11032355,45.76324941,406.672
3.11032086,45.76324998,406.688
3.11031863,45.76325038,406.681
3.11031632,45.76325125,406.692
3.11031405,45.76325228,406.695
3.11031201,45.76325336,406.707
3.11030982,45.76325450,406.696
3.11030752,45.76325551,406.684
3.11030512,45.76325631,406.682
3.11030227,45.76325682,406.657
3.11029956,45.76325750,406.663
3.11029736,45.76325825,406.658
3.11029516,45.76325920,406.655
3.11029321,45.76326025,406.656
3.11029137,45.76326109,406.661
3.11028949,45.76326213,406.652
3.11028751,45.76326327,406.647
3.11028580,45.76326422,406.637
3.11028383,45.76326526,406.639
3.11028191,45.76326626,406.635
3.11028006,45.76326720,406.627
3.11027802,45.76326803,406.617
3.11027595,45.76326892,406.614
3.11027369,45.76326986,406.626
3.11027173,45.76327080,406.628
3.11026976,45.76327184,406.64
3.11026765,45.76327273,406.644
3.11026555,45.76327375,406.649
3.11026329,45.76327473,406.656
3.11026105,45.76327566,406.645
3.11025898,45.76327656,406.65
3.11025681,45.76327750,406.664
3.11025479,45.76327864,406.68
3.11025303,45.76327990,406.693
3.11025128,45.76328132,406.695
3.11024927,45.76328269,406.714
3.11024715,45.76328397,406.721
3.11024477,45.76328511,406.7
3.11024251,45.76328580,406.678
3.11024011,45.76328612,406.643
3.11023724,45.76328661,406.635
3.11023517,45.76328743,406.651
3.11023336,45.76328819,406.639
3.11023143,45.76328940,406.651
3.11022992,45.76329071,406.65
3.11022849,45.76329222,406.663
3.11022673,45.76329357,406.663
3.11022501,45.76329462,406.637
3.11022280,45.76329558,406.624
3.11022056,45.76329639,406.637
3.11021848,45.76329712,406.619
3.11021635,45.76329783,406.621
3.11021411,45.76329871,406.62
3.11021219,45.76329976,406.646
3.11021050,45.76330078,406.634
3.11020861,45.76330195,406.646
3.11020664,45.76330313,406.642
3.11020468,45.76330404,406.631
3.11020271,45.76330482,406.632
3.11020059,45.76330553,406.614
3.11019824,45.76330644,406.622
3.11019605,45.76330719,406.612
3.11019391,45.76330823,406.633
3.11019195,45.76330918,406.623
3.11018982,45.76331024,406.629
3.11018769,45.76331111,406.639
3.11018559,45.76331188,406.632
3.11018342,45.76331256,406.6
3.11018131,45.76331329,406.614
3.11017916,45.76331415,406.614
3.11017712,45.76331498,406.608
3.11017519,45.76331580,406.606
3.11017302,45.76331655,406.59
3.11017063,45.76331725,406.598
3.11016849,45.76331809,406.585
3.11016658,45.76331895,406.593
3.11016444,45.76332000,406.605
3.11016242,45.76332121,406.602
3.11016058,45.76332225,406.615
3.11015854,45.76332340,406.617
3.11015659,45.76332438,406.63
3.11015450,45.76332532,406.623
3.11015222,45.76332628,406.641
3.11015014,45.76332706,406.631
3.11014784,45.76332759,406.622
3.11014516,45.76332815,406.613
3.11014271,45.76332874,406.609
3.11014060,45.76332937,406.587
3.11013836,45.76333038,406.592
3.11013626,45.76333143,406.605
3.11013409,45.76333243,406.609
3.11013190,45.76333347,406.606
3.11012976,45.76333442,406.598
3.11012760,45.76333519,406.603
3.11012555,45.76333614,406.609
3.11012347,45.76333707,406.596
3.11012146,45.76333806,406.59
3.11011933,45.76333890,406.6
3.11011720,45.76333983,406.604
3.11011516,45.76334069,406.61
3.11011310,45.76334156,406.6
3.11011090,45.76334245,406.595
3.11010874,45.76334334,406.601
3.11010660,45.76334438,406.613
3.11010433,45.76334547,406.625
3.11010211,45.76334629,406.623
3.11009978,45.76334711,406.617
3.11009753,45.76334798,406.615
3.11009525,45.76334895,406.62
3.11009302,45.76334999,406.633
3.11009105,45.76335125,406.635
3.11008918,45.76335258,406.646
3.11008721,45.76335368,406.622
3.11008511,45.76335468,406.612
3.11008290,45.76335569,406.619
3.11008079,45.76335649,406.604
3.11007878,45.76335739,406.59
3.11007682,45.76335851,406.588
3.11007498,45.76335953,406.598
3.11007320,45.76336070,406.602
3.11007151,45.76336181,406.594
3.11006977,45.76336286,406.588
3.11006776,45.76336406,406.578
3.11006574,45.76336518,406.599
3.11006393,45.76336611,406.596
3.11006197,45.76336723,406.58
3.11005999,45.76336835,406.586
3.11005826,45.76336932,406.596
3.11005634,45.76337051,406.6
3.11005446,45.76337163,406.606
3.11005259,45.76337260,406.604
3.11005044,45.76337371,406.609
3.11004857,45.76337488,406.617
3.11004681,45.76337599,406.611
3.11004506,45.76337748,406.61
3.11004339,45.76337875,406.63
3.11004160,45.76338011,406.629
3.11003971,45.76338131,406.639
3.11003783,45.76338230,406.643
3.11003574,45.76338324,406.642
3.11003367,45.76338424,406.642
3.11003166,45.76338522,406.641
3.11002965,45.76338618,406.645
3.11002760,45.76338721,406.638
3.11002564,45.76338816,406.624
3.11002370,45.76338915,406.621
3.11002163,45.76339024,406.62
3.11001950,45.76339128,406.613
3.11001758,45.76339242,406.624
3.11001569,45.76339378,406.628
3.11001393,45.76339511,406.63
3.11001213,45.76339654,406.636
3.11001007,45.76339766,406.644
3.11000783,45.76339873,406.642
3.11000553,45.76339967,406.638
3.11000308,45.76340073,406.63
3.11000087,45.76340158,406.615
3.10999867,45.76340256,406.614
3.10999659,45.76340387,406.618
3.10999480,45.76340504,406.618
3.10999322,45.76340657,406.632
3.10999204,45.76340813,406.627
3.10999073,45.76340974,406.613
3.10998931,45.76341138,406.627
3.10998757,45.76341293,406.626
3.10998587,45.76341434,406.619
3.10998384,45.76341565,406.619
3.10998181,45.76341685,406.598
3.10997977,45.76341811,406.614
3.10997783,45.76341935,406.597
3.10997623,45.76342067,406.597
3.10997502,45.76342216,406.593
3.10997405,45.76342360,406.587
3.10997309,45.76342518,406.593
3.10997192,45.76342676,406.604
3.10997076,45.76342824,406.588
3.10996945,45.76342967,406.592
3.10996786,45.76343116,406.565
3.10996612,45.76343241,406.563
3.10996420,45.76343370,406.549
3.10996236,45.76343505,406.551
3.10996075,45.76343655,406.537
3.10995939,45.76343826,406.539
3.10995828,45.76343996,406.549
3.10995731,45.76344166,406.559
3.10995645,45.76344340,406.558
3.10995560,45.76344509,406.56
3.10995435,45.76344670,406.554
3.10995297,45.76344817,406.54
3.10995141,45.76344979,406.532
3.10994986,45.76345143,406.505
3.10994841,45.76345301,406.488
3.10994730,45.76345481,406.492
3.10994656,45.76345673,406.505
3.10994626,45.76345838,406.505
3.10994611,45.76346029,406.516
3.10994610,45.76346229,406.537
3.10994607,45.76346407,406.534
3.10994601,45.76346601,406.534
3.10994570,45.76346784,406.55
3.10994529,45.76346964,406.545
3.10994459,45.76347165,406.523
3.10994371,45.76347345,406.522
3.10994294,45.76347539,406.493
3.10994269,45.76347728,406.486
3.10994281,45.76347919,406.497
3.10994325,45.76348105,406.504
3.10994409,45.76348284,406.527
3.10994521,45.76348467,406.534
3.10994617,45.76348653,406.55
3.10994698,45.76348841,406.567
3.10994736,45.76349029,406.549
3.10994734,45.76349198,406.519
3.10994736,45.76349392,406.506
3.10994720,45.76349590,406.496
3.10994742,45.76349759,406.488
3.10994810,45.76349961,406.494
3.10994903,45.76350128,406.485
3.10995008,45.76350280,406.472
3.10995130,45.76350462,406.491
3.10995226,45.76350623,406.483
3.10995308,45.76350801,406.473
3.10995387,45.76350981,406.474
3.10995460,45.76351155,406.456
3.10995559,45.76351328,406.452
3.10995672,45.76351486,406.451
3.10995782,45.76351645,406.45
3.10995880,45.76351811,406.448
3.10995988,45.76351974,406.444
3.10996095,45.76352135,406.446
3.10996207,45.76352283,406.438
3.10996335,45.76352432,406.441
3.10996465,45.76352587,406.454
3.10996587,45.76352734,406.454
3.10996705,45.76352890,406.449
3.10996826,45.76353037,406.455
3.10996946,45.76353172,406.459
3.10997076,45.76353335,406.455
3.10997184,45.76353503,406.45
3.10997267,45.76353651,406.433
3.10997351,45.76353826,406.425
3.10997434,45.76353992,406.424
3.10997541,45.76354129,406.424
3.10997686,45.76354287,406.428
3.10997823,45.76354431,406.439
3.10997949,45.76354572,406.436
3.10998068,45.76354748,406.457
3.10998149,45.76354912,406.444
3.10998233,45.76355070,406.429
3.10998328,45.76355229,406.424
3.10998450,45.76355376,406.425
3.10998598,45.76355526,406.441
3.10998763,45.76355670,406.455
3.10998910,45.76355809,406.459
3.10999027,45.76355959,406.451
3.10999111,45.76356133,406.45
3.10999176,45.76356297,406.444
3.10999258,45.76356454,406.435
3.10999389,45.76356618,406.437
3.10999511,45.76356755,406.439
3.10999658,45.76356906,406.45
3.10999801,45.76357066,406.45
3.10999913,45.76357210,406.453
3.11000012,45.76357383,406.442
3.11000098,45.76357547,406.44
3.11000198,45.76357695,406.443
3.11000296,45.76357868,406.437
3.11000371,45.76358015,406.433
3.11000459,45.76358181,406.414
3.11000584,45.76358340,406.423
3.11000711,45.76358467,406.426
3.11000842,45.76358631,406.424
3.11000933,45.76358795,406.423
3.11001028,45.76358963,406.431
3.11001127,45.76359120,406.413
3.11001231,45.76359287,406.428
3.11001343,45.76359437,406.405
3.11001453,45.76359610,406.409
3.11001580,45.76359768,406.41
3.11001682,45.76359927,406.385
3.11001814,45.76360097,406.402
3.11001932,45.76360242,406.388
3.11002066,45.76360405,406.409
3.11002194,45.76360550,406.401
3.11002326,45.76360694,406.398
3.11002460,45.76360847,406.403
3.11002573,45.76361002,406.399
3.11002686,45.76361173,406.399
3.11002796,45.76361327,406.384
3.11002927,45.76361475,406.386
3.11003056,45.76361627,406.393
3.11003186,45.76361789,406.382
3.11003311,45.76361941,406.378
3.11003440,45.76362099,406.376
3.11003562,45.76362255,406.369
3.11003675,45.76362434,406.366
3.11003809,45.76362593,406.361
3.11003946,45.76362744,406.341
3.11004107,45.76362898,406.345
3.11004265,45.76363038,406.343
3.11004446,45.76363176,406.343
3.11004622,45.76363306,406.346
3.11004800,45.76363444,406.346
3.11004961,45.76363579,406.339
3.11005127,45.76363717,406.334
3.11005292,45.76363849,406.329
3.11005444,45.76363982,406.323
3.11005595,45.76364127,406.324
3.11005750,45.76364267,406.314
3.11005912,45.76364394,406.317
3.11006083,45.76364522,406.308
3.11006254,45.76364655,406.302
3.11006418,45.76364791,406.307
3.11006571,45.76364931,406.296
3.11006733,45.76365085,406.304
3.11006892,45.76365223,406.292
3.11007071,45.76365364,406.285
3.11007245,45.76365517,406.278
3.11007421,45.76365654,406.278
3.11007619,45.76365795,406.269
3.11007825,45.76365914,406.269
3.11008036,45.76366036,406.265
3.11008252,45.76366146,406.253
3.11008460,45.76366267,406.254
3.11008682,45.76366379,406.244
3.11008883,45.76366496,406.226
3.11009092,45.76366619,406.221
3.11009296,45.76366726,406.217
3.11009497,45.76366836,406.209
3.11009722,45.76366937,406.201
3.11009945,45.76367029,406.195
3.11010172,45.76367123,406.195
3.11010400,45.76367214,406.178
3.11010631,45.76367292,406.171
3.11010865,45.76367372,406.175
3.11011092,45.76367441,406.169
3.11011326,45.76367518,406.163
3.11011557,45.76367591,406.152
3.11011782,45.76367662,406.152
3.11012018,45.76367739,406.144
3.11012245,45.76367802,406.138
3.11012466,45.76367873,406.144
3.11012694,45.76367937,406.137
3.11012926,45.76367990,406.14
3.11013153,45.76368052,406.131
3.11013390,45.76368114,406.126
3.11013631,45.76368171,406.121
3.11013870,45.76368229,406.131
3.11014118,45.76368289,406.122
3.11014352,45.76368340,406.126
3.11014618,45.76368398,406.129
3.11014865,45.76368456,406.119
3.11015128,45.76368496,406.128
3.11015394,45.76368532,406.117
3.11015664,45.76368556,406.124
3.11015925,45.76368582,406.13
3.11016202,45.76368619,406.118
3.11016470,45.76368631,406.112
3.11016718,45.76368634,406.12
3.11016993,45.76368643,406.122
3.11017246,45.76368655,406.117
3.11017503,45.76368659,406.107
3.11017768,45.76368663,406.093
3.11018018,45.76368673,406.104
3.11018258,45.76368687,406.093
3.11018507,45.76368691,406.093
3.11018748,45.76368709,406.083
3.11018994,45.76368727,406.096
3.11019257,45.76368735,406.08
3.11019499,45.76368755,406.073
3.11019751,45.76368773,406.057
3.11019997,45.76368777,406.051
3.11020235,45.76368816,406.051
3.11020489,45.76368815,406.096
3.11020716,45.76368848,406.071
3.11020973,45.76368858,406.069
3.11021221,45.76368847,406.051
3.11021487,45.76368868,406.024
3.11021737,45.76368879,406.019
3.11021976,45.76368880,406.036
3.11022221,45.76368902,406.009
3.11022466,45.76368911,406.009
3.11022703,45.76368931,406.032
3.11022935,45.76368946,406.002
3.11023183,45.76368966,406.009
3.11023431,45.76368976,405.986
3.11023667,45.76368992,406.0
3.11023933,45.76369004,406.019
3.11024177,45.76369009,406.04
3.11024420,45.76369007,406.041
3.11024663,45.76369024,406.01
3.11024900,45.76369025,406.016
3.11025154,45.76369028,406.011
3.11025403,45.76369039,405.998
3.11025667,45.76369044,406.003
3.11025929,45.76369025,405.997
3.11026177,45.76369004,405.997
3.11026412,45.76368993,405.968
3.11026673,45.76368958,405.968
3.11026932,45.76368924,405.978
3.11027197,45.76368887,405.978
3.11027459,45.76368843,405.984
3.11027726,45.76368785,405.996
3.11027986,45.76368740,405.989
3.11028261,45.76368694,406.002
3.11028520,45.76368648,406.012
3.11028781,45.76368594,406.006
3.11029039,45.76368528,406.011
3.11029281,45.76368464,406.007
3.11029504,45.76368394,406.009
3.11029699,45.76368326,406.01
3.11029880,45.76368250,406.013
3.11030057,45.76368191,406.026
3.11030200,45.76368146,406.014
3.11030332,45.76368104,406.02
3.11030457,45.76368075,406.007
3.11030582,45.76368042,406.007
3.11030708,45.76368012,406.012
3.11030811,45.76367972,406.016
3.11030919,45.76367927,406.013
3.11031024,45.76367883,406.008
3.11031130,45.76367840,406.013
3.11031254,45.76367784,406.049
3.11031359,45.76367740,406.053
3.11031468,45.76367697,406.05
3.11031572,45.76367650,406.043
3.11031675,45.76367607,406.044
3.11031765,45.76367557,406.044
3.11031849,45.76367504,406.048
3.11031935,45.76367450,406.057
3.11032019,45.76367391,406.056
3.11032101,45.76367342,406.055
3.11032188,45.76367290,406.058
3.11032275,45.76367242,406.06
3.11032370,45.76367190,406.058
3.11032465,45.76367140,406.051
3.11032559,45.76367088,406.044
3.11032654,45.76367033,406.045
3.11032753,45.76366971,406.045
3.11032854,45.76366911,406.047
3.11032939,45.76366843,406.047
3.11033001,45.76366794,406.045
3.11033047,45.76366742,406.034
3.11033076,45.76366712,406.032
3.11033103,45.76366690,406.031
3.11033134,45.76366676,406.026
3.11033172,45.76366659,406.022
3.11033223,45.76366640,406.008
3.11033284,45.76366616,405.997
3.11033348,45.76366568,405.998
3.11033405,45.76366514,405.989
3.11033466,45.76366439,405.989
3.11033529,45.76366366,405.988
3.11033588,45.76366287,405.983
3.11033636,45.76366216,405.983
3.11033670,45.76366162,405.982
3.11033688,45.76366118,405.983
3.11033711,45.76366093,405.984
3.11033732,45.76366067,405.985
3.11033753,45.76366039,405.978
3.11033771,45.76366002,405.977
3.11033795,45.76365956,405.983
3.11033817,45.76365895,405.98
3.11033835,45.76365825,405.999
3.11033845,45.76365750,406.005
3.11033867,45.76365671,406.006
3.11033882,45.76365593,406.014
3.11033905,45.76365514,406.01
3.11033931,45.76365435,406.025
3.11033959,45.76365361,406.026
3.11033980,45.76365282,406.026
3.11034009,45.76365208,406.033
3.11034038,45.76365130,406.035
3.11034062,45.76365054,406.045
3.11034082,45.76364978,406.049
3.11034111,45.76364903,406.054
3.11034137,45.76364830,406.06
3.11034164,45.76364772,406.05
3.11034193,45.76364721,406.052
3.11034225,45.76364684,406.044
3.11034259,45.76364650,406.043
3.11034291,45.76364600,406.041
3.11034324,45.76364546,406.041
3.11034367,45.76364500,406.038
3.11034417,45.76364443,406.035
3.11034480,45.76364381,406.033
3.11034553,45.76364319,406.027
3.11034630,45.76364265,406.011
3.11034711,45.76364218,406.009
3.11034763,45.76364174,406.002
3.11034795,45.76364143,405.996
3.11034816,45.76364123,405.998
3.11034829,45.76364105,406.003
3.11034826,45.76364095,406.009
3.11034819,45.76364093,406.009
3.11034817,45.76364094,406.004
3.11034823,45.76364092,406.003
3.11034838,45.76364082,406.004
3.11034860,45.76364063,406.004
3.11034892,45.76364030,406.0
3.11034942,45.76363981,406.001
3.11035015,45.76363917,405.994
3.11035098,45.76363836,405.976
3.11035203,45.76363739,405.972
3.11035311,45.76363621,405.975
3.11035427,45.76363490,405.958
3.11035559,45.76363345,405.96
3.11035679,45.76363189,405.971
3.11035789,45.76363021,405.969
3.11035905,45.76362854,405.968
3.11036044,45.76362693,405.96
3.11036175,45.76362526,405.959
3.11036322,45.76362361,405.954
3.11036456,45.76362196,405.954
3.11036580,45.76362030,405.943
3.11036690,45.76361846,405.952
3.11036768,45.76361672,405.957
3.11036834,45.76361498,405.984
3.11036896,45.76361313,405.987
3.11036960,45.76361125,405.998
3.11037053,45.76360967,405.997
3.11037165,45.76360795,406.006
3.11037267,45.76360622,405.98
3.11037416,45.76360468,405.965
3.11037534,45.76360307,405.971
3.11037655,45.76360154,405.977
3.11037771,45.76360001,405.985
3.11037867,45.76359849,405.978
3.11037972,45.76359684,405.966
3.11038073,45.76359522,405.996
3.11038192,45.76359372,405.989
3.11038325,45.76359224,405.99
3.11038423,45.76359078,406.001
3.11038534,45.76358927,406.013
3.11038648,45.76358767,406.017
3.11038760,45.76358613,406.024
3.11038874,45.76358450,406.022
3.11038993,45.76358287,406.021
3.11039102,45.76358130,406.02
3.11039220,45.76357974,406.018
3.11039354,45.76357814,406.019
3.11039478,45.76357676,406.012
3.11039605,45.76357524,406.026
3.11039718,45.76357372,406.019
3.11039826,45.76357212,406.03
3.11039937,45.76357055,406.026
3.11040055,45.76356893,406.025
3.11040170,45.76356744,406.031
3.11040275,45.76356595,406.045
3.11040394,45.76356434,406.054
3.11040500,45.76356281,406.052
3.11040620,45.76356119,406.055
3.11040725,45.76355968,406.06
3.11040828,45.76355829,406.06
3.11040938,45.76355665,406.075
3.11041056,45.76355518,406.051
3.11041155,45.76355368,406.078
3.11041279,45.76355221,406.07
3.11041408,45.76355075,406.079
3.11041539,45.76354929,406.069
3.11041651,45.76354788,406.075
3.11041774,45.76354647,406.08
3.11041906,45.76354509,406.084
3.11042040,45.76354367,406.069
3.11042180,45.76354230,406.077
3.11042332,45.76354098,406.07
3.11042472,45.76353968,406.056
3.11042592,45.76353840,406.074
3.11042738,45.76353703,406.069
3.11042874,45.76353564,406.079
3.11043024,45.76353426,406.079
3.11043174,45.76353294,406.067
3.11043319,45.76353141,406.07
3.11043445,45.76353003,406.083
3.11043583,45.76352861,406.092
3.11043717,45.76352718,406.091
3.11043846,45.76352573,406.089
3.11043987,45.76352448,406.071
3.11044126,45.76352305,406.077
3.11044258,45.76352171,406.09
3.11044408,45.76352038,406.088
3.11044557,45.76351898,406.087
3.11044713,45.76351799,406.106
3.11044838,45.76351656,406.115
3.11045018,45.76351534,406.107
3.11045151,45.76351410,406.123
3.11045300,45.76351268,406.115
3.11045455,45.76351153,406.123
3.11045603,45.76350998,406.115
3.11045768,45.76350864,406.135
3.11045934,45.76350731,406.135
3.11046080,45.76350597,406.15
3.11046230,45.76350479,406.139
3.11046384,45.76350349,406.153
3.11046565,45.76350250,406.149
3.11046728,45.76350118,406.16
3.11046888,45.76349990,406.16
3.11047029,45.76349855,406.187
3.11047195,45.76349752,406.199
3.11047369,45.76349645,406.175
3.11047525,45.76349517,406.176
3.11047672,45.76349395,406.185
3.11047864,45.76349267,406.209
3.11048013,45.76349156,406.224
3.11048204,45.76349048,406.204
3.11048389,45.76348936,406.222
3.11048581,45.76348835,406.219
3.11048741,45.76348716,406.241
3.11048913,45.76348602,406.229
3.11049102,45.76348476,406.263
3.11049292,45.76348379,406.259
3.11049493,45.76348255,406.275
3.11049717,45.76348126,406.308
3.11049896,45.76348011,406.32
3.11050083,45.76347892,406.322
3.11050268,45.76347767,406.333
3.11050456,45.76347651,406.348
3.11050631,45.76347529,406.313
3.11050818,45.76347409,406.329
3.11051016,45.76347297,406.331
3.11051199,45.76347180,406.333
3.11051395,45.76347047,406.343
3.11051562,45.76346912,406.346
3.11051743,45.76346770,406.366
3.11051920,45.76346634,406.364
3.11052094,45.76346495,406.384
3.11052263,45.76346334,406.397
3.11052406,45.76346187,406.392
3.11052557,45.76346035,406.395
3.11052713,45.76345877,406.404
3.11052872,45.76345725,406.423
3.11053036,45.76345584,406.415
3.11053197,45.76345436,406.417
3.11053343,45.76345286,406.416
3.11053495,45.76345140,406.42
3.11053635,45.76344982,406.424
3.11053759,45.76344838,406.44
3.11053891,45.76344683,406.447
3.11054028,45.76344535,406.456
3.11054180,45.76344405,406.461
3.11054350,45.76344263,406.445
3.11054503,45.76344133,406.454
3.11054645,45.76343988,406.452
3.11054766,45.76343827,406.446
3.11054881,45.76343686,406.458
3.11055013,45.76343532,406.46
3.11055156,45.76343379,406.458
3.11055321,45.76343216,406.449
3.11055459,45.76343075,406.423
3.11055601,45.76342906,406.46
3.11055752,45.76342746,406.438
3.11055909,45.76342594,406.438
3.11056058,45.76342439,406.458
3.11056167,45.76342280,406.442
3.11056255,45.76342113,406.459
3.11056332,45.76341947,406.486
3.11056378,45.76341776,406.49
3.11056428,45.76341615,406.475
3.11056491,45.76341456,406.479
3.11056568,45.76341288,406.5
3.11056646,45.76341139,406.485
3.11056771,45.76340996,406.475
3.11056915,45.76340846,406.476
3.11057068,45.76340701,406.463
3.11057229,45.76340559,406.463
3.11057366,45.76340410,406.458
3.11057484,45.76340235,406.46
3.11057578,45.76340067,406.473
3.11057644,45.76339895,406.482
3.11057702,45.76339693,406.502
3.11057746,45.76339513,406.52
3.11057812,45.76339329,406.527
3.11057917,45.76339141,406.543
3.11058020,45.76338971,406.538
3.11058108,45.76338813,406.539
3.11058223,45.76338646,406.526
3.11058320,45.76338477,406.524
3.11058377,45.76338319,406.507
3.11058463,45.76338134,406.512
3.11058522,45.76337976,406.505
3.11058603,45.76337798,406.503
3.11058655,45.76337637,406.507
3.11058718,45.76337494,406.493
3.11058791,45.76337311,406.505
3.11058832,45.76337141,406.513
3.11058870,45.76336978,406.523
3.11058936,45.76336809,406.52
3.11059012,45.76336636,406.523
3.11059075,45.76336469,406.522
3.11059158,45.76336299,406.525
3.11059230,45.76336135,406.523
3.11059315,45.76335998,406.503
3.11059427,45.76335805,406.534
3.11059509,45.76335656,406.519
3.11059585,45.76335489,406.51
3.11059657,45.76335307,406.52
3.11059715,45.76335150,406.526
3.11059763,45.76334979,406.53
3.11059814,45.76334812,406.521
3.11059880,45.76334643,406.52
3.11059934,45.76334462,406.522
3.11059971,45.76334287,406.526
3.11059997,45.76334104,406.534
3.11060044,45.76333930,406.528
3.11060110,45.76333758,406.533
3.11060205,45.76333583,406.515
3.11060313,45.76333412,406.521
3.11060413,45.76333256,406.502
3.11060499,45.76333076,406.505
3.11060596,45.76332908,406.505
3.11060647,45.76332737,406.497
3.11060684,45.76332548,406.499
3.11060704,45.76332371,406.501
3.11060736,45.76332189,406.497
3.11060787,45.76331999,406.504
3.11060833,45.76331830,406.505
3.11060893,45.76331658,406.498
3.11060970,45.76331490,406.485
3.11061034,45.76331325,406.485
3.11061095,45.76331164,406.47
3.11061175,45.76330977,406.458
3.11061249,45.76330824,406.446
3.11061353,45.76330665,406.436
3.11061444,45.76330505,406.428
3.11061516,45.76330355,406.409
3.11061573,45.76330185,406.41
3.11061652,45.76330028,406.408
3.11061715,45.76329874,406.405
3.11061779,45.76329713,406.39
3.11061841,45.76329555,406.399
3.11061901,45.76329402,406.389
3.11061930,45.76329246,406.391
3.11061974,45.76329079,406.395
3.11062020,45.76328916,406.386
3.11062092,45.76328752,406.395
3.11062170,45.76328607,406.397
3.11062248,45.76328448,406.392
3.11062317,45.76328281,406.403
3.11062379,45.76328128,406.406
3.11062447,45.76327976,406.395
3.11062512,45.76327802,406.412
3.11062589,45.76327650,406.41
3.11062676,45.76327471,406.409
3.11062727,45.76327309,406.41
3.11062781,45.76327138,406.416
3.11062847,45.76326960,406.418
3.11062919,45.76326795,406.434
3.11063009,45.76326627,406.433
3.11063086,45.76326453,406.432
3.11063114,45.76326280,406.447
3.11063159,45.76326103,406.456
3.11063214,45.76325916,406.468
3.11063271,45.76325765,406.453
3.11063358,45.76325602,406.446
3.11063460,45.76325426,406.461
3.11063556,45.76325281,406.433
3.11063667,45.76325104,406.455
3.11063756,45.76324946,406.438
3.11063830,45.76324774,406.443
3.11063894,45.76324597,406.442
3.11063979,45.76324435,406.434
3.11064063,45.76324262,406.435
3.11064176,45.76324092,406.438
3.11064295,45.76323935,406.416
3.11064413,45.76323778,406.416
3.11064528,45.76323631,406.405
3.11064597,45.76323487,406.398
3.11064662,45.76323347,406.399
3.11064723,45.76323223,406.394
3.11064787,45.76323117,406.39
3.11064842,45.76323037,406.385
3.11064885,45.76322969,406.391
3.11064913,45.76322936,406.394
3.11064924,45.76322921,406.397
3.11064923,45.76322914,406.395
3.11064905,45.76322925,406.396
3.11064892,45.76322932,406.397
3.11064896,45.76322931,406.391
3.11064904,45.76322927,406.39
3.11064902,45.76322928,406.394
3.11064899,45.76322930,406.392
3.11064899,45.76322927,406.394
3.11064897,45.76322928,406.391
3.11064896,45.76322930,406.392
3.11064897,45.76322928,406.397
        </coordinates> 
      </LineString> 
    </Placemark> 
  </Document> 
</kml> 
