<?xml version="1.0" encoding="UTF-8"?> 
<kml xmlns="http://www.opengis.net/kml/2.2" 
     xmlns:gx="http://www.google.com/kml/ext/2.2" 
     xmlns:kml="http://www.opengis.net/kml/2.2"
     xmlns:atom="http://www.w3.org/2005/Atom"> 
  <Document> 
    <name>gps_traj.kml</name> 
    <Placemark> 
      <name>Trajectoire</name> 
      <LineString> 
        <tessellate>1</tessellate> 
        <coordinates> 
3.11057104,45.76321144,406.514
3.11057108,45.76321144,406.516
3.11057109,45.76321145,406.514
3.11057106,45.76321147,406.509
3.11057107,45.76321147,406.511
3.11057106,45.76321146,406.511
3.11057107,45.76321145,406.513
3.11057107,45.76321145,406.51
3.11057106,45.76321146,406.513
3.11057105,45.76321146,406.512
3.11057104,45.76321145,406.511
3.11057104,45.76321145,406.51
3.11057100,45.76321145,406.513
3.11057083,45.76321146,406.511
3.11057054,45.76321149,406.51
3.11057008,45.76321154,406.509
3.11056942,45.76321157,406.509
3.11056857,45.76321156,406.515
3.11056756,45.76321160,406.513
3.11056627,45.76321166,406.518
3.11056473,45.76321173,406.525
3.11056293,45.76321174,406.532
3.11056090,45.76321170,406.532
3.11055888,45.76321161,406.536
3.11055679,45.76321151,406.543
3.11055459,45.76321144,406.538
3.11055236,45.76321157,406.522
3.11055036,45.76321163,406.527
3.11054795,45.76321171,406.547
3.11054565,45.76321179,406.544
3.11054361,45.76321195,406.549
3.11054120,45.76321211,406.557
3.11053899,45.76321220,406.563
3.11053688,45.76321218,406.57
3.11053468,45.76321222,406.565
3.11053246,45.76321217,406.572
3.11053025,45.76321204,406.575
3.11052807,45.76321196,406.574
3.11052581,45.76321186,406.584
3.11052359,45.76321181,406.565
3.11052137,45.76321179,406.56
3.11051915,45.76321179,406.574
3.11051704,45.76321178,406.563
3.11051505,45.76321181,406.586
3.11051301,45.76321182,406.588
3.11051090,45.76321179,406.581
3.11050884,45.76321170,406.579
3.11050683,45.76321170,406.58
3.11050490,45.76321189,406.551
3.11050298,45.76321199,406.551
3.11050102,45.76321205,406.546
3.11049909,45.76321209,406.551
3.11049717,45.76321210,406.559
3.11049515,45.76321209,406.545
3.11049328,45.76321198,406.542
3.11049131,45.76321193,406.532
3.11048932,45.76321194,406.538
3.11048736,45.76321204,406.54
3.11048545,45.76321222,406.548
3.11048350,45.76321254,406.553
3.11048142,45.76321271,406.547
3.11047938,45.76321272,406.56
3.11047746,45.76321287,406.579
3.11047570,45.76321311,406.581
3.11047378,45.76321328,406.584
3.11047174,45.76321318,406.559
3.11046981,45.76321309,406.561
3.11046798,45.76321310,406.575
3.11046606,45.76321319,406.57
3.11046418,45.76321332,406.581
3.11046223,45.76321350,406.578
3.11046025,45.76321381,406.591
3.11045828,45.76321408,406.597
3.11045636,45.76321415,406.598
3.11045422,45.76321436,406.617
3.11045202,45.76321448,406.607
3.11044997,45.76321481,406.632
3.11044781,45.76321515,406.643
3.11044561,45.76321542,406.651
3.11044326,45.76321538,406.637
3.11044097,45.76321546,406.645
3.11043882,45.76321546,406.639
3.11043642,45.76321553,406.615
3.11043436,45.76321586,406.641
3.11043224,45.76321628,406.648
3.11043014,45.76321677,406.657
3.11042819,45.76321729,406.667
3.11042621,45.76321778,406.664
3.11042423,45.76321831,406.681
3.11042220,45.76321873,406.667
3.11042037,45.76321925,406.674
3.11041835,45.76321965,406.675
3.11041633,45.76322007,406.675
3.11041426,45.76322027,406.672
3.11041218,45.76322067,406.656
3.11041021,45.76322103,406.659
3.11040818,45.76322133,406.657
3.11040619,45.76322179,406.673
3.11040438,45.76322227,406.65
3.11040251,45.76322274,406.648
3.11040071,45.76322327,406.664
3.11039888,45.76322373,406.66
3.11039680,45.76322410,406.654
3.11039482,45.76322465,406.679
3.11039305,45.76322531,406.687
3.11039131,45.76322590,406.69
3.11038934,45.76322650,406.69
3.11038733,45.76322693,406.682
3.11038535,45.76322745,406.682
3.11038327,45.76322791,406.674
3.11038144,45.76322832,406.677
3.11037944,45.76322889,406.672
3.11037749,45.76322946,406.659
3.11037559,45.76323002,406.688
3.11037370,45.76323059,406.681
3.11037181,45.76323124,406.684
3.11037000,45.76323196,406.695
3.11036829,45.76323262,406.705
3.11036637,45.76323323,406.714
3.11036453,45.76323383,406.719
3.11036269,45.76323438,406.723
3.11036095,45.76323498,406.731
3.11035916,45.76323570,406.719
3.11035766,45.76323641,406.733
3.11035596,45.76323713,406.735
3.11035416,45.76323781,406.748
3.11035246,45.76323847,406.73
3.11035070,45.76323904,406.732
3.11034874,45.76323958,406.728
3.11034672,45.76323994,406.702
3.11034486,45.76324054,406.698
3.11034290,45.76324124,406.716
3.11034107,45.76324182,406.727
3.11033915,45.76324245,406.716
3.11033711,45.76324302,406.695
3.11033523,45.76324348,406.683
3.11033338,45.76324418,406.717
3.11033164,45.76324498,406.717
3.11032982,45.76324563,406.716
3.11032800,45.76324636,406.713
3.11032624,45.76324716,406.717
3.11032453,45.76324782,406.722
3.11032267,45.76324847,406.72
3.11032068,45.76324890,406.724
3.11031886,45.76324942,406.698
3.11031695,45.76325007,406.686
3.11031504,45.76325065,406.692
3.11031327,45.76325141,406.693
3.11031149,45.76325212,406.683
3.11030959,45.76325285,406.683
3.11030779,45.76325350,406.678
3.11030584,45.76325418,406.675
3.11030390,45.76325483,406.664
3.11030177,45.76325539,406.673
3.11029973,45.76325604,406.675
3.11029779,45.76325669,406.657
3.11029594,45.76325734,406.66
3.11029428,45.76325811,406.656
3.11029249,45.76325894,406.663
3.11029081,45.76325956,406.684
3.11028949,45.76326016,406.661
3.11028782,45.76326100,406.656
3.11028637,45.76326190,406.649
3.11028499,45.76326281,406.641
3.11028356,45.76326393,406.649
3.11028222,45.76326505,406.649
3.11028095,45.76326601,406.649
3.11027947,45.76326694,406.646
3.11027800,45.76326780,406.653
3.11027635,45.76326856,406.634
3.11027485,45.76326952,406.638
3.11027334,45.76327047,406.645
3.11027203,45.76327144,406.649
3.11027077,45.76327250,406.659
3.11026933,45.76327356,406.674
3.11026805,45.76327446,406.677
3.11026650,45.76327548,406.682
3.11026489,45.76327627,406.672
3.11026321,45.76327689,406.654
3.11026146,45.76327767,406.667
3.11025995,45.76327858,406.663
3.11025851,45.76327953,406.677
3.11025717,45.76328070,406.685
3.11025574,45.76328182,406.708
3.11025441,45.76328284,406.704
3.11025255,45.76328372,406.696
3.11025050,45.76328449,406.708
3.11024863,45.76328533,406.722
3.11024695,45.76328632,406.702
3.11024523,45.76328724,406.709
3.11024345,45.76328815,406.709
3.11024168,45.76328896,406.707
3.11023993,45.76328983,406.706
3.11023835,45.76329063,406.695
3.11023683,45.76329149,406.682
3.11023511,45.76329228,406.669
3.11023343,45.76329301,406.678
3.11023187,45.76329388,406.682
3.11023054,45.76329481,406.659
3.11022900,45.76329560,406.637
3.11022721,45.76329630,406.619
3.11022529,45.76329688,406.601
3.11022351,45.76329742,406.595
3.11022193,45.76329826,406.602
3.11022054,45.76329913,406.597
3.11021905,45.76330003,406.601
3.11021753,45.76330101,406.608
3.11021622,45.76330194,406.612
3.11021486,45.76330297,406.63
3.11021339,45.76330387,406.639
3.11021191,45.76330463,406.638
3.11021032,45.76330536,406.641
3.11020874,45.76330616,406.63
3.11020706,45.76330692,406.63
3.11020546,45.76330767,406.63
3.11020380,45.76330831,406.61
3.11020218,45.76330908,406.622
3.11020069,45.76330990,406.619
3.11019904,45.76331076,406.611
3.11019744,45.76331151,406.605
3.11019572,45.76331241,406.614
3.11019413,45.76331321,406.601
3.11019254,45.76331400,406.619
3.11019084,45.76331478,406.63
3.11018923,45.76331559,406.632
3.11018753,45.76331639,406.639
3.11018598,45.76331719,406.625
3.11018429,45.76331799,406.624
3.11018259,45.76331880,406.632
3.11018093,45.76331959,406.635
3.11017932,45.76332030,406.637
3.11017757,45.76332103,406.632
3.11017596,45.76332181,406.631
3.11017438,45.76332260,406.625
3.11017283,45.76332338,406.639
3.11017108,45.76332420,406.63
3.11016930,45.76332483,406.623
3.11016758,45.76332550,406.629
3.11016573,45.76332609,406.62
3.11016396,45.76332669,406.618
3.11016206,45.76332729,406.618
3.11016037,45.76332803,406.62
3.11015869,45.76332885,406.614
3.11015696,45.76332952,406.595
3.11015521,45.76333021,406.595
3.11015344,45.76333090,406.596
3.11015175,45.76333159,406.592
3.11015008,45.76333240,406.603
3.11014835,45.76333327,406.6
3.11014679,45.76333423,406.609
3.11014522,45.76333505,406.605
3.11014354,45.76333584,406.613
3.11014182,45.76333666,406.614
3.11014010,45.76333735,406.605
3.11013857,45.76333823,406.615
3.11013701,45.76333907,406.609
3.11013535,45.76333999,406.616
3.11013362,45.76334085,406.614
3.11013197,45.76334169,406.621
3.11013027,45.76334234,406.605
3.11012855,45.76334297,406.603
3.11012693,45.76334368,406.602
3.11012519,45.76334447,406.604
3.11012347,45.76334521,406.593
3.11012184,45.76334589,406.587
3.11012006,45.76334657,406.579
3.11011821,45.76334718,406.576
3.11011646,45.76334776,406.561
3.11011459,45.76334839,406.559
3.11011292,45.76334901,406.556
3.11011141,45.76334974,406.56
3.11010994,45.76335074,406.568
3.11010850,45.76335185,406.586
3.11010714,45.76335301,406.591
3.11010553,45.76335390,406.59
3.11010389,45.76335468,406.587
3.11010211,45.76335531,406.59
3.11010034,45.76335595,406.58
3.11009853,45.76335662,406.578
3.11009670,45.76335728,406.576
3.11009500,45.76335820,406.585
3.11009361,45.76335911,406.591
3.11009196,45.76335994,406.586
3.11009014,45.76336085,406.612
3.11008847,45.76336156,406.622
3.11008683,45.76336217,406.601
3.11008502,45.76336284,406.6
3.11008326,45.76336348,406.591
3.11008158,45.76336427,406.589
3.11007997,45.76336502,406.603
3.11007831,45.76336571,406.598
3.11007655,45.76336634,406.597
3.11007486,45.76336703,406.604
3.11007308,45.76336774,406.57
3.11007116,45.76336837,406.58
3.11006965,45.76336914,406.584
3.11006809,45.76336989,406.578
3.11006646,45.76337084,406.585
3.11006494,45.76337170,406.575
3.11006344,45.76337251,406.59
3.11006183,45.76337330,406.589
3.11006025,45.76337407,406.591
3.11005860,45.76337475,406.596
3.11005710,45.76337543,406.589
3.11005543,45.76337614,406.584
3.11005373,45.76337688,406.592
3.11005215,45.76337775,406.588
3.11005059,45.76337864,406.592
3.11004905,45.76337958,406.605
3.11004733,45.76338047,406.607
3.11004572,45.76338130,406.61
3.11004401,45.76338210,406.612
3.11004242,45.76338289,406.617
3.11004080,45.76338376,406.632
3.11003936,45.76338462,406.615
3.11003778,45.76338545,406.616
3.11003609,45.76338626,406.617
3.11003436,45.76338696,406.627
3.11003264,45.76338748,406.633
3.11003075,45.76338806,406.629
3.11002877,45.76338856,406.619
3.11002698,45.76338913,406.62
3.11002527,45.76338974,406.609
3.11002362,45.76339057,406.595
3.11002199,45.76339144,406.602
3.11002021,45.76339227,406.612
3.11001868,45.76339324,406.609
3.11001717,45.76339429,406.629
3.11001561,45.76339534,406.649
3.11001359,45.76339614,406.627
3.11001205,45.76339713,406.636
3.11001031,45.76339794,406.654
3.11000845,45.76339867,406.641
3.11000657,45.76339931,406.612
3.11000473,45.76339993,406.607
3.11000296,45.76340070,406.603
3.11000124,45.76340136,406.599
3.10999949,45.76340218,406.607
3.10999767,45.76340293,406.595
3.10999637,45.76340386,406.597
3.10999478,45.76340475,406.604
3.10999333,45.76340574,406.587
3.10999210,45.76340689,406.593
3.10999049,45.76340802,406.61
3.10998907,45.76340910,406.608
3.10998751,45.76341004,406.611
3.10998582,45.76341087,406.608
3.10998421,45.76341177,406.599
3.10998234,45.76341284,406.641
3.10998061,45.76341373,406.616
3.10997883,45.76341449,406.619
3.10997707,45.76341540,406.63
3.10997521,45.76341615,406.615
3.10997333,45.76341688,406.593
3.10997164,45.76341765,406.565
3.10997011,45.76341872,406.579
3.10996891,45.76341985,406.577
3.10996784,45.76342116,406.586
3.10996671,45.76342235,406.602
3.10996579,45.76342367,406.596
3.10996474,45.76342494,406.605
3.10996350,45.76342623,406.604
3.10996218,45.76342740,406.584
3.10996062,45.76342846,406.598
3.10995917,45.76342967,406.599
3.10995768,45.76343078,406.582
3.10995636,45.76343201,406.574
3.10995507,45.76343327,406.572
3.10995398,45.76343452,406.568
3.10995282,45.76343580,406.567
3.10995177,45.76343710,406.563
3.10995060,45.76343835,406.563
3.10994952,45.76343961,406.568
3.10994818,45.76344070,406.569
3.10994729,45.76344200,406.571
3.10994639,45.76344325,406.565
3.10994554,45.76344454,406.554
3.10994489,45.76344595,406.559
3.10994439,45.76344737,406.572
3.10994363,45.76344877,406.564
3.10994294,45.76345013,406.55
3.10994214,45.76345150,406.547
3.10994142,45.76345300,406.553
3.10994066,45.76345430,406.535
3.10993999,45.76345558,406.526
3.10993932,45.76345690,406.541
3.10993870,45.76345832,406.526
3.10993810,45.76345968,406.529
3.10993732,45.76346106,406.531
3.10993638,45.76346259,406.534
3.10993580,45.76346402,406.526
3.10993531,45.76346537,406.526
3.10993486,45.76346695,406.533
3.10993454,45.76346841,406.524
3.10993446,45.76346987,406.514
3.10993430,45.76347148,406.51
3.10993412,45.76347310,406.505
3.10993437,45.76347490,406.541
3.10993484,45.76347633,406.532
3.10993551,45.76347780,406.537
3.10993603,45.76347941,406.546
3.10993616,45.76348097,406.542
3.10993626,45.76348246,406.541
3.10993627,45.76348409,406.54
3.10993599,45.76348565,406.534
3.10993575,45.76348715,406.521
3.10993582,45.76348877,406.519
3.10993623,45.76349024,406.526
3.10993694,45.76349154,406.526
3.10993786,45.76349291,406.53
3.10993883,45.76349425,406.543
3.10993954,45.76349561,406.544
3.10993997,45.76349707,406.533
3.10994010,45.76349843,406.528
3.10994004,45.76349982,406.517
3.10993989,45.76350132,406.505
3.10993987,45.76350272,406.496
3.10994014,45.76350410,406.487
3.10994068,45.76350553,406.492
3.10994111,45.76350681,406.479
3.10994149,45.76350821,406.468
3.10994182,45.76350972,406.467
3.10994208,45.76351107,406.458
3.10994249,45.76351256,406.456
3.10994302,45.76351395,406.445
3.10994373,45.76351526,406.444
3.10994467,45.76351668,406.451
3.10994572,45.76351788,406.461
3.10994672,45.76351911,406.465
3.10994776,45.76352058,406.47
3.10994863,45.76352190,406.471
3.10994946,45.76352316,406.468
3.10995062,45.76352459,406.478
3.10995154,45.76352573,406.475
3.10995236,45.76352698,406.461
3.10995300,45.76352840,406.451
3.10995366,45.76352968,406.446
3.10995462,45.76353098,406.455
3.10995551,45.76353225,406.456
3.10995645,45.76353342,406.453
3.10995762,45.76353460,406.461
3.10995883,45.76353571,406.469
3.10995987,45.76353679,406.463
3.10996075,45.76353809,406.468
3.10996155,45.76353920,406.466
3.10996241,45.76354025,406.465
3.10996346,45.76354130,406.474
3.10996442,45.76354227,406.478
3.10996531,45.76354322,406.487
3.10996606,45.76354405,406.488
3.10996664,45.76354473,406.487
3.10996702,45.76354531,406.489
3.10996717,45.76354574,406.481
3.10996722,45.76354608,406.48
3.10996731,45.76354623,406.485
3.10996736,45.76354618,406.481
3.10996733,45.76354613,406.482
3.10996731,45.76354604,406.479
3.10996731,45.76354608,406.478
3.10996734,45.76354612,406.476
3.10996731,45.76354611,406.475
3.10996730,45.76354611,406.479
3.10996732,45.76354609,406.475
3.10996732,45.76354611,406.478
        </coordinates> 
      </LineString> 
    </Placemark> 
  </Document> 
</kml> 
