<?xml version="1.0" encoding="UTF-8"?> 
<kml xmlns="http://www.opengis.net/kml/2.2" 
     xmlns:gx="http://www.google.com/kml/ext/2.2" 
     xmlns:kml="http://www.opengis.net/kml/2.2"
     xmlns:atom="http://www.w3.org/2005/Atom"> 
  <Document> 
    <name>gps_traj.kml</name> 
    <Placemark> 
      <name>Trajectoire</name> 
      <LineString> 
        <tessellate>1</tessellate> 
        <coordinates> 
3.10997979,45.76276991,407.224
3.10997981,45.76276990,407.224
3.10997982,45.76276990,407.225
3.10997980,45.76276990,407.223
3.10997979,45.76276991,407.224
3.10997981,45.76276992,407.223
3.10998000,45.76276999,407.222
3.10998044,45.76277015,407.221
3.10998111,45.76277039,407.225
3.10998196,45.76277076,407.217
3.10998299,45.76277123,407.218
3.10998425,45.76277185,407.212
3.10998586,45.76277252,407.216
3.10998759,45.76277319,407.219
3.10998970,45.76277399,407.219
3.10999204,45.76277486,407.223
3.10999426,45.76277579,407.222
3.10999659,45.76277689,407.21
3.10999885,45.76277793,407.213
3.11000130,45.76277894,407.209
3.11000374,45.76277995,407.215
3.11000604,45.76278096,407.213
3.11000860,45.76278210,407.217
3.11001098,45.76278308,407.211
3.11001328,45.76278395,407.216
3.11001592,45.76278492,407.209
3.11001813,45.76278570,407.207
3.11002047,45.76278661,407.222
3.11002290,45.76278774,407.218
3.11002494,45.76278870,407.206
3.11002719,45.76278967,407.223
3.11002946,45.76279070,407.205
3.11003143,45.76279159,407.216
3.11003386,45.76279245,407.192
3.11003630,45.76279337,407.208
3.11003848,45.76279419,407.202
3.11004078,45.76279531,407.204
3.11004282,45.76279629,407.207
3.11004488,45.76279728,407.19
3.11004732,45.76279812,407.185
3.11004936,45.76279898,407.192
3.11005169,45.76279989,407.199
3.11005381,45.76280077,407.202
3.11005590,45.76280156,407.18
3.11005795,45.76280259,407.183
3.11005987,45.76280362,407.159
3.11006209,45.76280458,407.162
3.11006438,45.76280526,407.163
3.11006664,45.76280613,407.154
3.11006865,45.76280697,407.154
3.11007082,45.76280775,407.144
3.11007314,45.76280862,407.151
3.11007546,45.76280940,407.157
3.11007742,45.76281010,407.154
3.11007969,45.76281103,407.15
3.11008166,45.76281195,407.142
3.11008360,45.76281284,407.13
3.11008576,45.76281367,407.16
3.11008791,45.76281465,407.146
3.11009009,45.76281553,407.141
3.11009220,45.76281637,407.15
3.11009435,45.76281727,407.142
3.11009646,45.76281809,407.148
3.11009850,45.76281897,407.141
3.11010095,45.76281986,407.15
3.11010280,45.76282076,407.135
3.11010505,45.76282177,407.128
3.11010733,45.76282270,407.155
3.11010942,45.76282362,407.149
3.11011164,45.76282457,407.124
3.11011405,45.76282538,407.129
3.11011640,45.76282599,407.139
3.11011881,45.76282670,407.139
3.11012139,45.76282738,407.165
3.11012358,45.76282819,407.139
3.11012607,45.76282908,407.146
3.11012845,45.76282983,407.153
3.11013081,45.76283034,407.149
3.11013325,45.76283086,407.145
3.11013565,45.76283120,407.135
3.11013830,45.76283171,407.167
3.11014039,45.76283229,407.147
3.11014288,45.76283304,407.15
3.11014526,45.76283359,407.154
3.11014757,45.76283410,407.145
3.11015014,45.76283455,407.16
3.11015248,45.76283501,407.146
3.11015492,45.76283550,407.184
3.11015733,45.76283584,407.169
3.11015977,45.76283663,407.179
3.11016203,45.76283736,407.192
3.11016450,45.76283789,407.182
3.11016677,45.76283850,407.179
3.11016909,45.76283933,407.162
3.11017136,45.76283991,407.152
3.11017378,45.76284039,407.167
3.11017607,45.76284107,407.175
3.11017838,45.76284171,407.171
3.11018059,45.76284217,407.131
3.11018290,45.76284281,407.155
3.11018509,45.76284336,407.145
3.11018751,45.76284378,407.159
3.11018979,45.76284438,407.154
3.11019206,45.76284501,407.137
3.11019438,45.76284563,407.139
3.11019671,45.76284630,407.137
3.11019883,45.76284701,407.136
3.11020133,45.76284772,407.157
3.11020348,45.76284852,407.132
3.11020562,45.76284937,407.128
3.11020793,45.76285003,407.142
3.11021024,45.76285054,407.143
3.11021252,45.76285118,407.118
3.11021502,45.76285171,407.117
3.11021742,45.76285260,407.139
3.11021936,45.76285325,407.121
3.11022179,45.76285400,407.121
3.11022404,45.76285464,407.13
3.11022614,45.76285505,407.138
3.11022876,45.76285574,407.138
3.11023087,45.76285646,407.142
3.11023295,45.76285739,407.12
3.11023556,45.76285824,407.151
3.11023766,45.76285885,407.139
3.11023983,45.76285944,407.129
3.11024241,45.76286030,407.162
3.11024440,45.76286094,407.133
3.11024653,45.76286188,407.146
3.11024881,45.76286269,407.152
3.11025084,45.76286345,407.152
3.11025317,45.76286408,407.147
3.11025548,45.76286484,407.175
3.11025758,45.76286558,407.159
3.11025981,45.76286641,407.121
3.11026196,45.76286705,407.127
3.11026419,45.76286775,407.123
3.11026638,45.76286851,407.13
3.11026846,45.76286939,407.122
3.11027053,45.76287022,407.127
3.11027264,45.76287110,407.129
3.11027478,45.76287185,407.125
3.11027688,45.76287270,407.121
3.11027909,45.76287349,407.125
3.11028123,45.76287423,407.151
3.11028351,45.76287511,407.161
3.11028564,45.76287587,407.166
3.11028781,45.76287664,407.169
3.11029002,45.76287763,407.163
3.11029211,45.76287848,407.15
3.11029421,45.76287937,407.155
3.11029632,45.76288023,407.146
3.11029849,45.76288098,407.148
3.11030066,45.76288174,407.139
3.11030300,45.76288256,407.159
3.11030526,45.76288340,407.158
3.11030738,45.76288424,407.176
3.11030951,45.76288509,407.18
3.11031165,45.76288598,407.164
3.11031383,45.76288693,407.158
3.11031599,45.76288795,407.154
3.11031802,45.76288901,407.149
3.11032033,45.76288987,407.161
3.11032270,45.76289060,407.184
3.11032512,45.76289150,407.189
3.11032725,45.76289218,407.163
3.11032936,45.76289295,407.168
3.11033178,45.76289397,407.184
3.11033367,45.76289484,407.147
3.11033589,45.76289570,407.17
3.11033777,45.76289668,407.139
3.11033990,45.76289753,407.139
3.11034205,45.76289858,407.138
3.11034427,45.76289954,407.134
3.11034612,45.76290045,407.112
3.11034841,45.76290141,407.11
3.11035068,45.76290230,407.116
3.11035291,45.76290287,407.116
3.11035531,45.76290371,407.08
3.11035742,45.76290428,407.021
3.11036003,45.76290495,407.014
3.11036234,45.76290562,407.012
3.11036472,45.76290627,406.996
3.11036716,45.76290703,407.011
3.11037014,45.76290774,407.123
3.11037236,45.76290840,407.11
3.11037460,45.76290912,407.111
3.11037692,45.76291000,407.087
3.11037889,45.76291089,407.024
3.11038109,45.76291161,407.022
3.11038364,45.76291213,407.043
3.11038593,45.76291277,407.039
3.11038831,45.76291331,407.029
3.11039053,45.76291379,407.041
3.11039280,45.76291442,407.032
3.11039531,45.76291528,407.041
3.11039740,45.76291607,407.055
3.11039958,45.76291680,407.036
3.11040178,45.76291759,407.077
3.11040404,45.76291820,407.102
3.11040643,45.76291875,407.1
3.11040884,45.76291931,407.109
3.11041113,45.76291987,407.114
3.11041356,45.76292065,407.122
3.11041582,45.76292118,407.133
3.11041814,45.76292180,407.13
3.11042053,45.76292263,407.13
3.11042264,45.76292341,407.116
3.11042482,45.76292428,407.106
3.11042715,45.76292509,407.098
3.11042943,45.76292577,407.11
3.11043188,45.76292628,407.116
3.11043427,45.76292684,407.12
3.11043660,45.76292737,407.117
3.11043898,45.76292805,407.117
3.11044132,45.76292883,407.117
3.11044351,45.76292967,407.108
3.11044574,45.76293043,407.101
3.11044815,45.76293121,407.103
3.11045047,45.76293190,407.11
3.11045279,45.76293260,407.111
3.11045516,45.76293321,407.112
3.11045753,45.76293386,407.118
3.11045977,45.76293458,407.118
3.11046220,45.76293531,407.122
3.11046454,45.76293588,407.121
3.11046680,45.76293648,407.133
3.11046895,45.76293720,407.109
3.11047128,45.76293788,407.117
3.11047342,45.76293856,407.117
3.11047556,45.76293923,407.108
3.11047794,45.76293999,407.113
3.11048025,45.76294072,407.105
3.11048244,45.76294128,407.105
3.11048494,45.76294201,407.095
3.11048707,45.76294278,407.081
3.11048907,45.76294361,407.075
3.11049139,45.76294470,407.084
3.11049377,45.76294535,407.086
3.11049590,45.76294587,407.087
3.11049855,45.76294618,407.105
3.11050097,45.76294658,407.113
3.11050324,45.76294712,407.111
3.11050529,45.76294808,407.08
3.11050760,45.76294898,407.098
3.11050952,45.76294979,407.079
3.11051192,45.76295062,407.09
3.11051405,45.76295124,407.085
3.11051637,45.76295178,407.082
3.11051886,45.76295246,407.099
3.11052107,45.76295298,407.098
3.11052341,45.76295359,407.103
3.11052587,45.76295425,407.098
3.11052809,45.76295499,407.106
3.11053030,45.76295570,407.098
3.11053261,45.76295659,407.097
3.11053479,45.76295725,407.102
3.11053705,45.76295795,407.1
3.11053953,45.76295856,407.11
3.11054169,45.76295912,407.111
3.11054408,45.76295981,407.108
3.11054643,45.76296056,407.122
3.11054853,45.76296113,407.114
3.11055086,45.76296199,407.106
3.11055307,45.76296275,407.091
3.11055519,45.76296350,407.088
3.11055750,45.76296437,407.091
3.11055982,45.76296509,407.095
3.11056202,45.76296572,407.083
3.11056452,45.76296640,407.112
3.11056669,45.76296697,407.108
3.11056901,45.76296773,407.103
3.11057130,45.76296852,407.118
3.11057349,45.76296936,407.102
3.11057571,45.76297021,407.087
3.11057794,45.76297104,407.086
3.11058031,45.76297174,407.092
3.11058257,45.76297249,407.091
3.11058501,45.76297321,407.087
3.11058730,45.76297385,407.088
3.11058984,45.76297443,407.093
3.11059232,45.76297500,407.1
3.11059485,45.76297549,407.102
3.11059726,45.76297603,407.104
3.11059962,45.76297670,407.091
3.11060209,45.76297735,407.099
3.11060444,45.76297795,407.094
3.11060686,45.76297847,407.096
3.11060940,45.76297913,407.102
3.11061168,45.76297966,407.076
3.11061408,45.76298027,407.079
3.11061660,45.76298081,407.081
3.11061880,45.76298136,407.069
3.11062123,45.76298207,407.071
3.11062372,45.76298267,407.086
3.11062607,45.76298313,407.079
3.11062856,45.76298377,407.083
3.11063088,45.76298434,407.079
3.11063321,45.76298503,407.052
3.11063558,45.76298581,407.05
3.11063796,45.76298643,407.053
3.11064039,45.76298691,407.055
3.11064290,45.76298726,407.064
3.11064530,45.76298764,407.062
3.11064787,45.76298814,407.055
3.11065019,45.76298872,407.046
3.11065254,45.76298940,407.045
3.11065498,45.76299007,407.044
3.11065720,45.76299061,407.035
3.11065966,45.76299110,407.042
3.11066204,45.76299168,407.045
3.11066446,45.76299223,407.04
3.11066691,45.76299292,407.041
3.11066914,45.76299349,407.041
3.11067148,45.76299405,407.026
3.11067387,45.76299461,407.022
3.11067623,45.76299513,407.02
3.11067852,45.76299571,407.013
3.11068087,45.76299631,407.014
3.11068323,45.76299689,407.013
3.11068549,45.76299750,407.009
3.11068786,45.76299807,407.005
3.11069001,45.76299869,406.995
3.11069233,45.76299938,406.989
3.11069459,45.76300001,406.983
3.11069684,45.76300061,406.978
3.11069914,45.76300117,406.98
3.11070145,45.76300173,406.981
3.11070383,45.76300231,406.978
3.11070617,45.76300287,406.982
3.11070848,45.76300340,406.985
3.11071082,45.76300395,406.981
3.11071314,45.76300452,406.981
3.11071546,45.76300513,406.982
3.11071765,45.76300576,406.988
3.11071998,45.76300647,406.987
3.11072224,45.76300718,406.989
3.11072452,45.76300788,406.982
3.11072676,45.76300864,406.976
3.11072903,45.76300936,406.979
3.11073117,45.76300996,406.974
3.11073314,45.76301050,406.974
3.11073504,45.76301096,406.973
3.11073659,45.76301149,406.964
3.11073788,45.76301189,406.966
3.11073899,45.76301221,406.965
3.11073975,45.76301248,406.969
3.11074026,45.76301267,406.965
3.11074051,45.76301275,406.965
3.11074053,45.76301273,406.965
3.11074039,45.76301267,406.962
3.11074027,45.76301263,406.965
3.11074028,45.76301262,406.966
3.11074035,45.76301264,406.966
3.11074031,45.76301264,406.965
3.11074024,45.76301264,406.969
3.11074028,45.76301261,406.969
3.11074031,45.76301262,406.967
3.11074029,45.76301260,406.964
3.11074026,45.76301262,406.967
3.11074028,45.76301263,406.964
3.11074028,45.76301263,406.964
3.11074026,45.76301261,406.964
3.11074029,45.76301260,406.965
3.11074028,45.76301260,406.962
3.11074026,45.76301260,406.964
3.11074028,45.76301261,406.963
3.11074028,45.76301260,406.961
3.11074029,45.76301261,406.965
3.11074029,45.76301260,406.965
        </coordinates> 
      </LineString> 
    </Placemark> 
  </Document> 
</kml> 
