<?xml version="1.0" encoding="UTF-8"?> 
<kml xmlns="http://www.opengis.net/kml/2.2" 
     xmlns:gx="http://www.google.com/kml/ext/2.2" 
     xmlns:kml="http://www.opengis.net/kml/2.2"
     xmlns:atom="http://www.w3.org/2005/Atom"> 
  <Document> 
    <name>gps_traj.kml</name> 
    <Placemark> 
      <name>Trajectoire</name> 
      <LineString> 
        <tessellate>1</tessellate> 
        <coordinates> 
3.11042506,45.76352111,406.133
3.11042506,45.76352111,406.135
3.11042506,45.76352112,406.132
3.11042506,45.76352112,406.133
3.11042506,45.76352112,406.134
3.11042508,45.76352113,406.135
3.11042508,45.76352113,406.134
3.11042509,45.76352113,406.134
3.11042511,45.76352113,406.134
3.11042511,45.76352114,406.135
3.11042513,45.76352114,406.136
3.11042510,45.76352117,406.135
3.11042500,45.76352130,406.136
3.11042473,45.76352157,406.138
3.11042433,45.76352198,406.135
3.11042379,45.76352245,406.135
3.11042314,45.76352307,406.139
3.11042244,45.76352372,406.141
3.11042174,45.76352451,406.13
3.11042103,45.76352527,406.115
3.11042018,45.76352602,406.116
3.11041923,45.76352685,406.106
3.11041842,45.76352770,406.111
3.11041748,45.76352852,406.105
3.11041657,45.76352934,406.094
3.11041574,45.76353008,406.088
3.11041501,45.76353086,406.078
3.11041422,45.76353165,406.06
3.11041328,45.76353240,406.099
3.11041269,45.76353328,406.073
3.11041204,45.76353405,406.064
3.11041145,45.76353472,406.06
3.11041086,45.76353541,406.057
3.11041031,45.76353596,406.059
3.11040972,45.76353637,406.103
3.11040937,45.76353669,406.11
3.11040913,45.76353686,406.106
3.11040902,45.76353701,406.104
3.11040886,45.76353704,406.106
3.11040867,45.76353723,406.109
3.11040842,45.76353747,406.107
3.11040806,45.76353784,406.102
3.11040752,45.76353833,406.102
3.11040699,45.76353886,406.1
3.11040627,45.76353938,406.102
3.11040558,45.76354001,406.1
3.11040493,45.76354072,406.105
3.11040419,45.76354141,406.117
3.11040338,45.76354226,406.091
3.11040257,45.76354298,406.089
3.11040189,45.76354378,406.095
3.11040108,45.76354454,406.091
3.11040033,45.76354531,406.096
3.11039957,45.76354607,406.101
3.11039884,45.76354686,406.093
3.11039816,45.76354764,406.088
3.11039735,45.76354834,406.101
3.11039664,45.76354919,406.09
3.11039587,45.76354988,406.081
3.11039514,45.76355050,406.096
3.11039443,45.76355129,406.087
3.11039378,45.76355208,406.086
3.11039301,45.76355278,406.091
3.11039243,45.76355357,406.091
3.11039185,45.76355441,406.078
3.11039123,45.76355520,406.089
3.11039050,45.76355590,406.085
3.11038974,45.76355668,406.089
3.11038895,45.76355736,406.081
3.11038828,45.76355806,406.06
3.11038754,45.76355883,406.058
3.11038683,45.76355966,406.059
3.11038613,45.76356049,406.063
3.11038550,45.76356131,406.072
3.11038469,45.76356206,406.071
3.11038397,45.76356283,406.085
3.11038313,45.76356354,406.097
3.11038248,45.76356436,406.088
3.11038195,45.76356524,406.05
3.11038126,45.76356607,406.067
3.11038067,45.76356691,406.064
3.11038006,45.76356774,406.074
3.11037959,45.76356864,406.059
3.11037901,45.76356953,406.067
3.11037841,45.76357050,406.077
3.11037787,45.76357136,406.072
3.11037738,45.76357219,406.083
3.11037692,45.76357316,406.072
3.11037652,45.76357408,406.084
3.11037607,45.76357491,406.086
3.11037575,45.76357587,406.101
3.11037522,45.76357676,406.087
3.11037492,45.76357773,406.085
3.11037446,45.76357866,406.073
3.11037399,45.76357964,406.061
3.11037345,45.76358051,406.076
3.11037329,45.76358149,406.058
3.11037303,45.76358240,406.062
3.11037283,45.76358324,406.066
3.11037250,45.76358406,406.072
3.11037225,45.76358487,406.07
3.11037192,45.76358564,406.071
3.11037170,45.76358644,406.084
3.11037143,45.76358723,406.039
3.11037123,45.76358801,406.062
3.11037120,45.76358883,406.067
3.11037119,45.76358966,406.071
3.11037111,45.76359043,406.054
3.11037112,45.76359119,406.096
3.11037104,45.76359188,406.094
3.11037074,45.76359233,406.078
3.11037040,45.76359277,406.07
3.11037018,45.76359302,406.062
3.11037001,45.76359319,406.06
3.11036997,45.76359337,406.062
3.11036999,45.76359365,406.053
3.11037018,45.76359402,406.057
3.11037038,45.76359465,406.011
3.11036996,45.76359512,406.041
3.11036949,45.76359586,406.07
3.11036921,45.76359681,406.071
3.11036883,45.76359786,406.064
3.11036819,45.76359899,406.046
3.11036765,45.76360034,406.05
3.11036681,45.76360153,406.064
3.11036612,45.76360281,406.044
3.11036514,45.76360406,406.032
3.11036430,45.76360539,406.053
3.11036345,45.76360672,406.045
3.11036233,45.76360808,406.005
3.11036155,45.76360940,406.012
3.11036067,45.76361074,406.005
3.11035973,45.76361207,406.002
3.11035906,45.76361347,406.01
3.11035843,45.76361489,406.029
3.11035807,45.76361641,406.028
3.11035765,45.76361790,406.053
3.11035726,45.76361941,406.04
3.11035681,45.76362079,406.03
3.11035603,45.76362197,406.028
3.11035534,45.76362311,406.015
3.11035442,45.76362411,406.02
3.11035365,45.76362501,406.033
3.11035284,45.76362606,406.02
3.11035209,45.76362701,406.026
3.11035158,45.76362805,406.033
3.11035110,45.76362907,406.026
3.11035084,45.76363017,406.046
3.11035049,45.76363130,406.039
3.11035027,45.76363244,406.053
3.11034975,45.76363362,406.034
3.11034911,45.76363476,406.04
3.11034817,45.76363586,406.041
3.11034705,45.76363678,406.046
3.11034587,45.76363760,406.055
3.11034442,45.76363829,406.051
3.11034307,45.76363900,406.055
3.11034175,45.76363981,406.043
3.11034068,45.76364078,406.058
3.11033938,45.76364163,406.058
3.11033798,45.76364251,406.069
3.11033656,45.76364329,406.059
3.11033507,45.76364403,406.056
3.11033333,45.76364486,406.063
3.11033177,45.76364573,406.061
3.11033014,45.76364669,406.06
3.11032850,45.76364770,406.062
3.11032695,45.76364873,406.055
3.11032512,45.76364976,406.071
3.11032319,45.76365076,406.06
3.11032120,45.76365171,406.062
3.11031902,45.76365264,406.089
3.11031689,45.76365358,406.066
3.11031478,45.76365464,406.07
3.11031271,45.76365564,406.046
3.11031073,45.76365672,406.022
3.11030882,45.76365785,406.041
3.11030701,45.76365894,406.042
3.11030522,45.76365995,406.044
3.11030363,45.76366084,406.025
3.11030229,45.76366160,406.022
3.11030095,45.76366236,406.033
3.11029970,45.76366298,406.034
3.11029852,45.76366358,406.024
3.11029750,45.76366417,406.024
3.11029637,45.76366473,406.028
3.11029525,45.76366531,406.029
3.11029419,45.76366588,406.024
3.11029311,45.76366642,406.033
3.11029207,45.76366700,406.041
3.11029096,45.76366756,406.046
3.11028984,45.76366810,406.045
3.11028870,45.76366863,406.041
3.11028747,45.76366912,406.047
3.11028618,45.76366958,406.05
3.11028496,45.76367006,406.052
3.11028371,45.76367047,406.029
3.11028248,45.76367091,406.036
3.11028100,45.76367129,406.011
3.11027973,45.76367173,406.028
3.11027833,45.76367208,406.025
3.11027690,45.76367244,406.027
3.11027552,45.76367285,406.017
3.11027398,45.76367312,406.034
3.11027249,45.76367338,406.028
3.11027103,45.76367358,406.028
3.11026936,45.76367378,406.023
3.11026796,45.76367414,406.029
3.11026643,45.76367444,406.037
3.11026473,45.76367476,406.02
3.11026314,45.76367492,406.022
3.11026150,45.76367516,406.028
3.11025989,45.76367534,406.018
3.11025831,45.76367550,406.019
3.11025665,45.76367569,406.031
3.11025491,45.76367592,406.025
3.11025307,45.76367616,406.025
3.11025143,45.76367645,406.039
3.11024959,45.76367650,406.048
3.11024780,45.76367664,406.024
3.11024622,45.76367677,406.041
3.11024456,45.76367690,406.039
3.11024293,45.76367708,406.033
3.11024124,45.76367725,406.034
3.11023971,45.76367735,406.055
3.11023814,45.76367753,406.054
3.11023660,45.76367759,406.058
3.11023497,45.76367772,406.067
3.11023351,45.76367774,406.065
3.11023201,45.76367776,406.061
3.11023024,45.76367792,406.074
3.11022874,45.76367803,406.086
3.11022709,45.76367822,406.07
3.11022525,45.76367832,406.056
3.11022366,45.76367839,406.065
3.11022186,45.76367851,406.065
3.11022020,45.76367862,406.051
3.11021855,45.76367865,406.065
3.11021680,45.76367915,406.048
3.11021500,45.76367932,406.056
3.11021335,45.76367939,406.04
3.11021158,45.76367945,406.061
3.11021000,45.76367948,406.071
3.11020835,45.76367925,406.069
3.11020680,45.76367929,406.067
3.11020515,45.76367937,406.068
3.11020343,45.76367932,406.05
3.11020193,45.76367935,406.075
3.11020005,45.76367929,406.059
3.11019836,45.76367913,406.05
3.11019704,45.76367888,406.043
3.11019568,45.76367869,406.044
3.11019440,45.76367851,406.049
3.11019312,45.76367834,406.045
3.11019210,45.76367806,406.059
3.11019062,45.76367796,406.089
3.11018920,45.76367777,406.092
3.11018767,45.76367740,406.102
3.11018607,45.76367730,406.086
3.11018471,45.76367721,406.083
3.11018304,45.76367674,406.074
3.11018124,45.76367654,406.077
3.11017966,45.76367616,406.088
3.11017784,45.76367594,406.08
3.11017612,45.76367541,406.106
3.11017435,45.76367500,406.106
3.11017252,45.76367453,406.098
3.11017075,45.76367423,406.106
3.11016893,45.76367401,406.125
3.11016728,45.76367342,406.116
3.11016550,45.76367309,406.129
3.11016367,45.76367282,406.124
3.11016197,45.76367245,406.123
3.11016015,45.76367221,406.115
3.11015813,45.76367192,406.122
3.11015639,45.76367156,406.129
3.11015454,45.76367120,406.123
3.11015275,45.76367078,406.12
3.11015114,45.76367030,406.12
3.11014939,45.76366989,406.114
3.11014771,45.76366945,406.118
3.11014595,45.76366898,406.105
3.11014420,45.76366856,406.086
3.11014247,45.76366811,406.1
3.11014062,45.76366763,406.116
3.11013887,45.76366722,406.123
3.11013713,45.76366677,406.121
3.11013536,45.76366640,406.124
3.11013351,45.76366600,406.114
3.11013170,45.76366568,406.118
3.11012986,45.76366534,406.127
3.11012807,45.76366494,406.127
3.11012629,45.76366461,406.135
3.11012463,45.76366426,406.138
3.11012298,45.76366382,406.142
3.11012150,45.76366331,406.137
3.11011991,45.76366276,406.148
3.11011836,45.76366226,406.139
3.11011688,45.76366179,406.151
3.11011539,45.76366140,406.158
3.11011390,45.76366090,406.158
3.11011232,45.76366030,406.157
3.11011084,45.76365965,406.152
3.11010919,45.76365904,406.165
3.11010781,45.76365843,406.159
3.11010623,45.76365772,406.173
3.11010471,45.76365697,406.177
3.11010323,45.76365621,406.18
3.11010182,45.76365539,406.197
3.11010048,45.76365459,406.188
3.11009911,45.76365375,406.199
3.11009774,45.76365280,406.204
3.11009643,45.76365186,406.205
3.11009507,45.76365093,406.217
3.11009377,45.76365001,406.213
3.11009238,45.76364907,406.207
3.11009102,45.76364812,406.207
3.11008960,45.76364724,406.222
3.11008816,45.76364641,406.232
3.11008675,45.76364557,406.213
3.11008543,45.76364464,406.219
3.11008411,45.76364372,406.213
3.11008283,45.76364275,406.216
3.11008154,45.76364182,406.218
3.11008018,45.76364084,406.229
3.11007874,45.76363988,406.236
3.11007736,45.76363894,406.248
3.11007584,45.76363796,406.252
3.11007450,45.76363702,406.253
3.11007311,45.76363593,406.246
3.11007174,45.76363483,406.26
3.11007035,45.76363379,406.256
3.11006893,45.76363278,406.264
3.11006746,45.76363181,406.281
3.11006590,45.76363074,406.287
3.11006434,45.76362971,406.304
3.11006279,45.76362870,406.32
3.11006133,45.76362784,406.323
3.11005984,45.76362686,406.33
3.11005834,45.76362575,406.333
3.11005695,45.76362481,406.329
3.11005539,45.76362378,406.337
3.11005396,45.76362274,406.349
3.11005251,45.76362186,406.356
3.11005088,45.76362088,406.368
3.11004933,45.76361984,406.369
3.11004796,45.76361875,406.387
3.11004670,45.76361766,406.382
3.11004553,45.76361637,406.367
3.11004422,45.76361508,406.353
3.11004286,45.76361395,406.366
3.11004138,45.76361292,406.372
3.11003981,45.76361189,406.382
3.11003806,45.76361079,406.391
3.11003647,45.76360979,406.402
3.11003485,45.76360853,406.409
3.11003344,45.76360714,406.411
3.11003220,45.76360572,406.409
3.11003097,45.76360436,406.403
3.11002979,45.76360315,406.395
3.11002848,45.76360190,406.384
3.11002712,45.76360055,406.387
3.11002584,45.76359923,406.393
3.11002461,45.76359791,406.378
3.11002330,45.76359653,406.402
3.11002205,45.76359517,406.391
3.11002073,45.76359392,406.399
3.11001936,45.76359273,406.406
3.11001776,45.76359137,406.409
3.11001677,45.76359002,406.414
3.11001550,45.76358862,406.418
3.11001425,45.76358715,406.412
3.11001313,45.76358577,406.414
3.11001198,45.76358439,406.405
3.11001050,45.76358298,406.421
3.11000904,45.76358167,406.432
3.11000765,45.76358038,406.429
3.11000634,45.76357886,406.427
3.11000520,45.76357740,406.431
3.11000414,45.76357612,406.421
3.11000275,45.76357483,406.443
3.11000155,45.76357334,406.438
3.11000043,45.76357169,406.434
3.10999939,45.76357043,406.435
3.10999797,45.76356903,406.45
3.10999643,45.76356750,406.446
3.10999517,45.76356612,406.456
3.10999406,45.76356475,406.447
3.10999288,45.76356310,406.444
3.10999181,45.76356155,406.443
3.10999088,45.76355994,406.446
3.10998982,45.76355841,406.445
3.10998865,45.76355722,406.439
3.10998732,45.76355587,406.444
3.10998607,45.76355425,406.455
3.10998507,45.76355272,406.448
3.10998411,45.76355121,406.436
3.10998289,45.76354979,406.448
3.10998162,45.76354834,406.449
3.10998038,45.76354686,406.444
3.10997900,45.76354544,406.438
3.10997753,45.76354398,406.451
3.10997621,45.76354254,406.462
3.10997487,45.76354094,406.462
3.10997364,45.76353950,406.468
3.10997226,45.76353817,406.464
3.10997093,45.76353665,406.462
3.10996992,45.76353508,406.448
3.10996912,45.76353359,406.446
3.10996826,45.76353201,406.444
3.10996724,45.76353045,406.452
3.10996602,45.76352909,406.455
3.10996455,45.76352763,406.465
3.10996320,45.76352633,406.465
3.10996202,45.76352477,406.481
3.10996125,45.76352322,406.473
3.10996060,45.76352177,406.467
3.10996001,45.76352027,406.459
3.10995927,45.76351896,406.454
3.10995851,45.76351759,406.454
3.10995774,45.76351620,406.456
3.10995695,45.76351484,406.461
3.10995600,45.76351358,406.451
3.10995507,45.76351228,406.464
3.10995429,45.76351092,406.463
3.10995351,45.76350951,406.464
3.10995284,45.76350817,406.467
3.10995206,45.76350681,406.472
3.10995132,45.76350548,406.477
3.10995069,45.76350420,406.476
3.10994999,45.76350292,406.48
3.10994938,45.76350178,406.485
3.10994869,45.76350072,406.496
3.10994807,45.76349963,406.498
3.10994743,45.76349835,406.504
3.10994704,45.76349732,406.503
3.10994679,45.76349631,406.502
3.10994648,45.76349499,406.503
3.10994623,45.76349381,406.501
3.10994594,45.76349280,406.491
3.10994548,45.76349164,406.508
3.10994493,45.76349041,406.513
3.10994433,45.76348936,406.526
3.10994398,45.76348813,406.528
3.10994388,45.76348695,406.531
3.10994387,45.76348598,406.524
3.10994418,45.76348479,406.52
3.10994464,45.76348370,406.515
3.10994508,45.76348268,406.508
3.10994561,45.76348159,406.516
3.10994640,45.76348050,406.521
3.10994735,45.76347937,406.515
3.10994816,45.76347827,406.498
3.10994843,45.76347706,406.487
3.10994841,45.76347559,406.497
3.10994852,45.76347406,406.526
3.10994920,45.76347261,406.531
3.10995001,45.76347133,406.539
3.10995091,45.76347011,406.534
3.10995188,45.76346891,406.541
3.10995313,45.76346771,406.54
3.10995425,45.76346645,406.523
3.10995533,45.76346526,406.517
3.10995612,45.76346381,406.519
3.10995689,45.76346234,406.525
3.10995771,45.76346083,406.524
3.10995869,45.76345927,406.529
3.10995956,45.76345775,406.539
3.10996062,45.76345624,406.534
3.10996190,45.76345478,406.548
3.10996341,45.76345352,406.533
3.10996487,45.76345224,406.544
3.10996616,45.76345093,406.523
3.10996729,45.76344969,406.553
3.10996847,45.76344845,406.537
3.10996954,45.76344707,406.539
3.10997030,45.76344574,406.55
3.10997110,45.76344446,406.545
3.10997201,45.76344302,406.564
3.10997294,45.76344169,406.558
3.10997423,45.76344049,406.539
3.10997554,45.76343922,406.546
3.10997693,45.76343812,406.534
3.10997830,45.76343706,406.538
3.10998000,45.76343625,406.521
3.10998140,45.76343532,406.523
3.10998281,45.76343435,406.538
3.10998392,45.76343318,406.557
3.10998526,45.76343220,406.565
3.10998669,45.76343111,406.573
3.10998806,45.76343013,406.584
3.10998944,45.76342916,406.596
3.10999112,45.76342823,406.591
3.10999266,45.76342722,406.561
3.10999398,45.76342635,406.602
3.10999604,45.76342543,406.593
3.10999796,45.76342461,406.595
3.10999973,45.76342376,406.589
3.11000187,45.76342320,406.589
3.11000402,45.76342263,406.504
3.11000642,45.76342209,406.508
3.11000816,45.76342116,406.513
3.11001033,45.76342034,406.505
3.11001261,45.76341949,406.505
3.11001467,45.76341881,406.534
3.11001664,45.76341765,406.482
3.11001860,45.76341673,406.495
3.11002033,45.76341561,406.509
3.11002198,45.76341458,406.538
3.11002375,45.76341344,406.531
3.11002549,45.76341234,406.567
3.11002734,45.76341140,406.56
3.11002923,45.76341056,406.58
3.11003161,45.76340954,406.543
3.11003333,45.76340865,406.536
3.11003527,45.76340788,406.531
3.11003741,45.76340716,406.563
3.11003958,45.76340664,406.558
3.11004153,45.76340580,406.522
3.11004365,45.76340509,406.54
3.11004558,45.76340456,406.529
3.11004756,45.76340379,406.522
3.11004964,45.76340293,406.517
3.11005143,45.76340197,406.533
3.11005319,45.76340082,406.571
3.11005512,45.76339991,406.577
3.11005699,45.76339887,406.563
3.11005898,45.76339789,406.567
3.11006107,45.76339709,406.566
3.11006314,45.76339637,406.554
3.11006516,45.76339555,406.552
3.11006718,45.76339461,406.556
3.11006912,45.76339371,406.541
3.11007082,45.76339273,406.536
3.11007257,45.76339168,406.543
3.11007425,45.76339070,406.54
3.11007602,45.76338970,406.541
3.11007786,45.76338866,406.533
3.11007978,45.76338774,406.571
3.11008172,45.76338694,406.543
3.11008378,45.76338618,406.535
3.11008602,45.76338539,406.555
3.11008803,45.76338462,406.544
3.11008999,45.76338377,406.538
3.11009192,45.76338276,406.549
3.11009359,45.76338161,406.536
3.11009517,45.76338037,406.572
3.11009690,45.76337905,406.579
3.11009848,45.76337784,406.594
3.11010023,45.76337662,406.625
3.11010240,45.76337573,406.612
3.11010432,45.76337494,406.628
3.11010603,45.76337413,406.626
3.11010791,45.76337310,406.588
3.11010964,45.76337209,406.595
3.11011119,45.76337112,406.601
3.11011287,45.76336991,406.618
3.11011468,45.76336903,406.611
3.11011645,45.76336822,406.608
3.11011820,45.76336745,406.577
3.11012026,45.76336665,406.534
3.11012193,45.76336571,406.547
3.11012365,45.76336466,406.543
3.11012509,45.76336359,406.575
3.11012667,45.76336265,406.563
3.11012830,45.76336175,406.57
3.11012995,45.76336080,406.593
3.11013179,45.76335981,406.584
3.11013322,45.76335875,406.571
3.11013487,45.76335768,406.629
3.11013646,45.76335664,406.639
3.11013809,45.76335567,406.669
3.11013977,45.76335466,406.7
3.11014159,45.76335359,406.618
3.11014354,45.76335275,406.573
3.11014541,45.76335173,406.549
3.11014720,45.76335077,406.545
3.11014918,45.76334983,406.526
3.11015104,45.76334891,406.537
3.11015274,45.76334797,406.564
3.11015449,45.76334693,406.602
3.11015592,45.76334574,406.617
3.11015735,45.76334446,406.71
3.11015950,45.76334348,406.543
3.11016118,45.76334236,406.565
3.11016259,45.76334146,406.577
3.11016447,45.76334054,406.543
3.11016632,45.76333955,406.55
3.11016813,45.76333855,406.605
3.11017011,45.76333772,406.598
3.11017201,45.76333661,406.627
3.11017382,45.76333578,406.637
3.11017562,45.76333491,406.62
3.11017767,45.76333392,406.598
3.11017956,45.76333295,406.594
3.11018146,45.76333205,406.57
3.11018345,45.76333104,406.589
3.11018533,45.76333013,406.595
3.11018701,45.76332907,406.62
3.11018875,45.76332798,406.613
3.11019041,45.76332680,406.616
3.11019209,45.76332584,406.627
3.11019393,45.76332472,406.622
3.11019562,45.76332371,406.644
3.11019730,45.76332278,406.613
3.11019909,45.76332181,406.618
3.11020084,45.76332085,406.632
3.11020266,45.76331992,406.596
3.11020477,45.76331893,406.573
3.11020663,45.76331796,406.589
3.11020817,45.76331699,406.559
3.11020995,45.76331587,406.572
3.11021127,45.76331456,406.606
3.11021285,45.76331367,406.596
3.11021424,45.76331279,406.581
3.11021617,45.76331189,406.608
3.11021775,45.76331113,406.582
3.11021939,45.76331033,406.589
3.11022104,45.76330940,406.61
3.11022271,45.76330853,406.608
3.11022418,45.76330746,406.601
3.11022538,45.76330624,406.602
3.11022693,45.76330504,406.611
3.11022886,45.76330411,406.618
3.11023035,45.76330331,406.622
3.11023212,45.76330228,406.644
3.11023377,45.76330116,406.68
3.11023542,45.76330027,406.665
3.11023727,45.76329914,406.66
3.11023918,45.76329810,406.67
3.11024099,45.76329707,406.681
3.11024284,45.76329622,406.684
3.11024485,45.76329510,406.675
3.11024655,45.76329386,406.691
3.11024797,45.76329266,406.721
3.11024986,45.76329122,406.737
3.11025186,45.76329009,406.752
3.11025367,45.76328923,406.739
3.11025589,45.76328824,406.722
3.11025773,45.76328731,406.717
3.11025947,45.76328637,406.717
3.11026145,45.76328528,406.707
3.11026298,45.76328420,406.738
3.11026428,45.76328311,406.696
3.11026569,45.76328177,406.701
3.11026725,45.76328070,406.714
3.11026900,45.76327982,406.708
3.11027096,45.76327907,406.698
3.11027285,45.76327847,406.674
3.11027491,45.76327788,406.651
3.11027694,45.76327709,406.646
3.11027882,45.76327628,406.624
3.11028042,45.76327551,406.616
3.11028206,45.76327461,406.624
3.11028376,45.76327352,406.661
3.11028553,45.76327255,406.652
3.11028719,45.76327155,406.672
3.11028880,45.76327048,406.678
3.11029045,45.76326951,406.673
3.11029232,45.76326845,406.684
3.11029423,45.76326752,406.687
3.11029618,45.76326654,406.693
3.11029787,45.76326539,406.701
3.11029955,45.76326430,406.688
3.11030162,45.76326336,406.713
3.11030368,45.76326245,406.729
3.11030564,45.76326157,406.731
3.11030773,45.76326097,406.722
3.11030957,45.76326049,406.717
3.11031186,45.76326009,406.703
3.11031403,45.76325940,406.701
3.11031602,45.76325875,406.691
3.11031779,45.76325781,406.699
3.11031953,45.76325718,406.702
3.11032107,45.76325636,406.718
3.11032252,45.76325567,406.731
3.11032358,45.76325510,406.729
3.11032447,45.76325480,406.734
3.11032523,45.76325454,406.731
3.11032571,45.76325453,406.726
3.11032595,45.76325463,406.725
3.11032597,45.76325471,406.719
3.11032585,45.76325475,406.714
3.11032567,45.76325470,406.721
3.11032566,45.76325463,406.724
3.11032566,45.76325459,406.728
3.11032565,45.76325461,406.722
3.11032565,45.76325463,406.722
3.11032576,45.76325471,406.714
3.11032575,45.76325468,406.709
3.11032572,45.76325466,406.715
3.11032573,45.76325465,406.716
3.11032575,45.76325466,406.712
3.11032573,45.76325466,406.72
3.11032572,45.76325467,406.718
3.11032570,45.76325464,406.72
3.11032571,45.76325465,406.716
3.11032569,45.76325464,406.721
        </coordinates> 
      </LineString> 
    </Placemark> 
  </Document> 
</kml> 
