<?xml version="1.0" encoding="UTF-8"?> 
<kml xmlns="http://www.opengis.net/kml/2.2" 
     xmlns:gx="http://www.google.com/kml/ext/2.2" 
     xmlns:kml="http://www.opengis.net/kml/2.2"
     xmlns:atom="http://www.w3.org/2005/Atom"> 
  <Document> 
    <name>gps_traj.kml</name> 
    <Placemark> 
      <name>Trajectoire</name> 
      <LineString> 
        <tessellate>1</tessellate> 
        <coordinates> 
3.10996730,45.76354607,406.473
3.10996729,45.76354607,406.473
3.10996729,45.76354607,406.476
3.10996731,45.76354607,406.475
3.10996732,45.76354607,406.474
3.10996731,45.76354608,406.476
3.10996731,45.76354608,406.474
3.10996731,45.76354609,406.475
3.10996733,45.76354609,406.476
3.10996733,45.76354609,406.478
3.10996733,45.76354608,406.476
3.10996733,45.76354609,406.477
3.10996732,45.76354610,406.478
3.10996733,45.76354613,406.476
3.10996746,45.76354626,406.475
3.10996765,45.76354650,406.475
3.10996793,45.76354685,406.476
3.10996834,45.76354734,406.481
3.10996881,45.76354799,406.478
3.10996941,45.76354881,406.475
3.10997021,45.76354975,406.476
3.10997117,45.76355077,406.482
3.10997217,45.76355188,406.491
3.10997311,45.76355298,406.498
3.10997417,45.76355412,406.502
3.10997532,45.76355530,406.51
3.10997613,45.76355656,406.509
3.10997685,45.76355793,406.505
3.10997742,45.76355930,406.501
3.10997781,45.76356064,406.49
3.10997835,45.76356206,406.479
3.10997917,45.76356355,406.49
3.10998008,45.76356490,406.479
3.10998120,45.76356609,406.478
3.10998259,45.76356729,406.487
3.10998404,45.76356868,406.49
3.10998505,45.76356993,406.495
3.10998593,45.76357125,406.496
3.10998681,45.76357273,406.481
3.10998742,45.76357407,406.482
3.10998806,45.76357542,406.463
3.10998889,45.76357686,406.466
3.10998979,45.76357812,406.462
3.10999080,45.76357942,406.474
3.10999158,45.76358075,406.469
3.10999231,45.76358208,406.462
3.10999319,45.76358346,406.468
3.10999407,45.76358467,406.457
3.10999499,45.76358593,406.455
3.10999584,45.76358735,406.456
3.10999676,45.76358864,406.453
3.10999781,45.76358990,406.457
3.10999893,45.76359116,406.45
3.11000006,45.76359236,406.444
3.11000116,45.76359359,406.455
3.11000229,45.76359491,406.457
3.11000348,45.76359608,406.453
3.11000470,45.76359717,406.452
3.11000579,45.76359833,406.464
3.11000660,45.76359967,406.453
3.11000752,45.76360098,406.448
3.11000847,45.76360211,406.435
3.11000961,45.76360335,406.442
3.11001068,45.76360452,406.433
3.11001173,45.76360567,406.444
3.11001276,45.76360693,406.429
3.11001389,45.76360823,406.436
3.11001482,45.76360946,406.444
3.11001565,45.76361066,406.414
3.11001677,45.76361190,406.421
3.11001805,45.76361305,406.419
3.11001937,45.76361423,406.426
3.11002051,45.76361547,406.431
3.11002143,45.76361667,406.411
3.11002257,45.76361788,406.407
3.11002374,45.76361907,406.394
3.11002499,45.76362020,406.404
3.11002636,45.76362125,406.406
3.11002777,45.76362233,406.404
3.11002888,45.76362351,406.398
3.11002988,45.76362469,406.391
3.11003079,45.76362602,406.392
3.11003177,45.76362724,406.387
3.11003294,45.76362834,406.384
3.11003434,45.76362937,406.38
3.11003572,45.76363051,406.387
3.11003693,45.76363170,406.38
3.11003813,45.76363301,406.374
3.11003937,45.76363422,406.372
3.11004063,45.76363546,406.375
3.11004193,45.76363666,406.367
3.11004324,45.76363781,406.36
3.11004476,45.76363895,406.368
3.11004634,45.76364001,406.362
3.11004791,45.76364097,406.362
3.11004950,45.76364205,406.354
3.11005091,45.76364326,406.351
3.11005228,45.76364438,406.336
3.11005383,45.76364541,406.331
3.11005545,45.76364641,406.332
3.11005701,45.76364737,406.328
3.11005871,45.76364826,406.33
3.11006042,45.76364914,406.33
3.11006202,45.76364997,406.311
3.11006361,45.76365082,406.308
3.11006508,45.76365174,406.303
3.11006664,45.76365267,406.294
3.11006814,45.76365369,406.293
3.11006973,45.76365452,406.291
3.11007139,45.76365535,406.29
3.11007300,45.76365635,406.292
3.11007445,45.76365733,406.283
3.11007604,45.76365827,406.278
3.11007760,45.76365921,406.273
3.11007926,45.76366009,406.266
3.11008094,45.76366101,406.267
3.11008268,45.76366183,406.261
3.11008444,45.76366262,406.258
3.11008620,45.76366349,406.258
3.11008796,45.76366426,406.253
3.11008963,45.76366512,406.244
3.11009128,45.76366606,406.241
3.11009294,45.76366692,406.226
3.11009453,45.76366778,406.226
3.11009622,45.76366849,406.215
3.11009799,45.76366921,406.21
3.11009972,45.76366988,406.203
3.11010145,45.76367055,406.203
3.11010323,45.76367122,406.2
3.11010491,45.76367190,406.198
3.11010657,45.76367257,406.189
3.11010821,45.76367326,406.183
3.11010988,45.76367398,406.18
3.11011150,45.76367467,406.184
3.11011319,45.76367528,406.183
3.11011488,45.76367599,406.18
3.11011653,45.76367665,406.177
3.11011820,45.76367737,406.174
3.11011992,45.76367814,406.178
3.11012156,45.76367881,406.175
3.11012329,45.76367954,406.176
3.11012506,45.76368030,406.173
3.11012683,45.76368098,406.166
3.11012872,45.76368173,406.163
3.11013057,45.76368236,406.16
3.11013243,45.76368288,406.165
3.11013427,45.76368332,406.155
3.11013618,45.76368375,406.161
3.11013801,45.76368416,406.17
3.11013978,45.76368459,406.17
3.11014151,45.76368506,406.166
3.11014317,45.76368549,406.152
3.11014493,45.76368593,406.16
3.11014661,45.76368624,406.157
3.11014828,45.76368643,406.145
3.11015020,45.76368669,406.146
3.11015195,45.76368689,406.158
3.11015369,45.76368713,406.154
3.11015540,45.76368732,406.148
3.11015721,45.76368765,406.146
3.11015891,45.76368792,406.14
3.11016069,45.76368820,406.135
3.11016253,45.76368836,406.135
3.11016414,45.76368853,406.127
3.11016567,45.76368843,406.112
3.11016777,45.76368841,406.11
3.11016946,45.76368829,406.122
3.11017119,45.76368824,406.126
3.11017318,45.76368834,406.112
3.11017493,45.76368826,406.103
3.11017682,45.76368822,406.111
3.11017905,45.76368832,406.116
3.11018064,45.76368827,406.144
3.11018239,45.76368817,406.15
3.11018422,45.76368816,406.12
3.11018572,45.76368825,406.109
3.11018747,45.76368815,406.097
3.11018912,45.76368807,406.085
3.11019078,45.76368789,406.041
3.11019299,45.76368766,406.112
3.11019477,45.76368753,406.128
3.11019625,45.76368741,406.135
3.11019796,45.76368740,406.093
3.11019978,45.76368731,406.063
3.11020133,45.76368751,406.078
3.11020291,45.76368755,406.115
3.11020457,45.76368746,406.056
3.11020639,45.76368741,406.073
3.11020803,45.76368727,406.071
3.11021068,45.76368742,406.077
3.11021260,45.76368719,406.096
3.11021450,45.76368720,406.116
3.11021614,45.76368723,406.116
3.11021746,45.76368738,406.067
3.11021908,45.76368705,406.075
3.11022102,45.76368702,406.071
3.11022282,45.76368702,406.065
3.11022461,45.76368697,406.084
3.11022628,45.76368691,406.036
3.11022821,45.76368681,406.068
3.11022987,45.76368675,406.03
3.11023189,45.76368659,406.061
3.11023359,45.76368654,406.052
3.11023533,45.76368644,406.055
3.11023734,45.76368641,406.063
3.11023873,45.76368638,406.014
3.11024053,45.76368639,406.008
3.11024255,45.76368628,406.05
3.11024437,45.76368626,406.048
3.11024625,45.76368626,406.086
3.11024801,45.76368622,406.07
3.11024988,45.76368625,406.077
3.11025171,45.76368619,406.069
3.11025371,45.76368600,406.083
3.11025536,45.76368588,406.021
3.11025710,45.76368577,406.005
3.11025902,45.76368567,406.008
3.11026083,45.76368550,406.0
3.11026291,45.76368524,406.019
3.11026494,45.76368501,406.033
3.11026674,45.76368483,406.024
3.11026863,45.76368450,406.032
3.11027055,45.76368426,406.034
3.11027237,45.76368395,406.033
3.11027421,45.76368379,406.04
3.11027602,45.76368359,406.044
3.11027787,45.76368341,406.05
3.11027957,45.76368322,406.04
3.11028120,45.76368305,406.029
3.11028291,45.76368287,406.03
3.11028469,45.76368266,406.023
3.11028646,45.76368246,406.042
3.11028812,45.76368216,406.032
3.11028988,45.76368189,406.051
3.11029142,45.76368161,406.053
3.11029300,45.76368126,406.05
3.11029461,45.76368095,406.062
3.11029610,45.76368062,406.055
3.11029763,45.76368026,406.047
3.11029914,45.76367996,406.045
3.11030073,45.76367960,406.038
3.11030227,45.76367921,406.034
3.11030380,45.76367885,406.034
3.11030544,45.76367845,406.024
3.11030714,45.76367798,406.021
3.11030867,45.76367741,406.03
3.11031004,45.76367679,406.034
3.11031146,45.76367610,406.043
3.11031288,45.76367538,406.041
3.11031432,45.76367463,406.057
3.11031560,45.76367381,406.064
3.11031680,45.76367292,406.074
3.11031783,45.76367202,406.088
3.11031853,45.76367120,406.09
3.11031906,45.76367050,406.09
3.11031954,45.76366991,406.091
3.11031997,45.76366948,406.08
3.11032045,45.76366919,406.076
3.11032088,45.76366898,406.075
3.11032111,45.76366885,406.069
3.11032117,45.76366879,406.068
3.11032127,45.76366881,406.069
3.11032146,45.76366883,406.069
3.11032164,45.76366880,406.069
3.11032174,45.76366866,406.072
3.11032188,45.76366843,406.077
3.11032210,45.76366813,406.078
3.11032241,45.76366777,406.074
3.11032285,45.76366738,406.081
3.11032334,45.76366691,406.085
3.11032385,45.76366644,406.082
3.11032442,45.76366592,406.079
3.11032490,45.76366543,406.074
3.11032526,45.76366492,406.083
3.11032556,45.76366448,406.071
3.11032592,45.76366402,406.064
3.11032628,45.76366363,406.062
3.11032657,45.76366325,406.065
3.11032694,45.76366287,406.064
3.11032733,45.76366248,406.067
3.11032760,45.76366209,406.07
3.11032785,45.76366163,406.07
3.11032809,45.76366118,406.071
3.11032838,45.76366063,406.069
3.11032880,45.76365998,406.074
3.11032924,45.76365924,406.073
3.11032983,45.76365838,406.077
3.11033046,45.76365748,406.077
3.11033115,45.76365658,406.081
3.11033187,45.76365563,406.084
3.11033264,45.76365461,406.079
3.11033340,45.76365360,406.079
3.11033415,45.76365254,406.077
3.11033499,45.76365151,406.074
3.11033583,45.76365048,406.075
3.11033664,45.76364950,406.07
3.11033755,45.76364855,406.063
3.11033852,45.76364766,406.061
3.11033938,45.76364673,406.052
3.11034028,45.76364574,406.046
3.11034111,45.76364468,406.046
3.11034193,45.76364365,406.048
3.11034277,45.76364255,406.046
3.11034359,45.76364146,406.045
3.11034468,45.76364037,406.048
3.11034564,45.76363931,406.04
3.11034661,45.76363819,406.04
3.11034761,45.76363705,406.032
3.11034855,45.76363602,406.033
3.11034935,45.76363486,406.035
3.11035014,45.76363360,406.038
3.11035098,45.76363249,406.044
3.11035182,45.76363141,406.055
3.11035269,45.76363037,406.032
3.11035354,45.76362940,406.035
3.11035442,45.76362845,406.036
3.11035517,45.76362750,406.035
3.11035601,45.76362657,406.035
3.11035669,45.76362562,406.041
3.11035749,45.76362476,406.037
3.11035836,45.76362381,406.035
3.11035926,45.76362298,406.03
3.11036016,45.76362216,406.013
3.11036118,45.76362131,406.014
3.11036214,45.76362050,406.016
3.11036309,45.76361962,405.994
3.11036413,45.76361870,405.986
3.11036516,45.76361774,405.985
3.11036592,45.76361669,405.985
3.11036675,45.76361563,405.991
3.11036761,45.76361451,406.004
3.11036846,45.76361336,406.011
3.11036926,45.76361216,406.01
3.11037018,45.76361099,406.01
3.11037113,45.76360945,405.962
3.11037188,45.76360816,405.989
3.11037277,45.76360682,405.982
3.11037360,45.76360552,405.972
3.11037475,45.76360423,406.018
3.11037554,45.76360294,406.023
3.11037665,45.76360157,406.007
3.11037737,45.76360019,406.019
3.11037785,45.76359875,406.019
3.11037888,45.76359740,406.0
3.11037951,45.76359618,405.994
3.11038008,45.76359482,405.984
3.11038096,45.76359353,405.992
3.11038164,45.76359230,405.998
3.11038248,45.76359117,406.003
3.11038317,45.76358987,406.01
3.11038390,45.76358870,406.013
3.11038467,45.76358750,406.009
3.11038553,45.76358629,406.021
3.11038636,45.76358522,406.017
3.11038740,45.76358406,406.033
3.11038845,45.76358292,406.028
3.11038939,45.76358184,406.041
3.11039039,45.76358068,406.055
3.11039177,45.76357966,406.028
3.11039311,45.76357862,406.016
3.11039447,45.76357759,406.026
3.11039572,45.76357653,406.022
3.11039691,45.76357554,406.019
3.11039806,45.76357440,406.039
3.11039912,45.76357331,406.056
3.11040013,45.76357209,406.033
3.11040141,45.76357091,406.046
3.11040261,45.76356985,406.028
3.11040396,45.76356859,406.061
3.11040521,45.76356746,406.052
3.11040655,45.76356633,406.042
3.11040763,45.76356521,406.038
3.11040864,45.76356414,406.059
3.11040980,45.76356297,406.06
3.11041103,45.76356182,406.049
3.11041216,45.76356069,406.039
3.11041337,45.76355968,406.069
3.11041445,45.76355859,406.087
3.11041565,45.76355757,406.086
3.11041647,45.76355633,406.084
3.11041759,45.76355523,406.111
3.11041869,45.76355408,406.1
3.11041983,45.76355305,406.125
3.11042087,45.76355188,406.12
3.11042181,45.76355075,406.112
3.11042310,45.76354976,406.115
3.11042430,45.76354872,406.103
3.11042552,45.76354751,406.107
3.11042650,45.76354637,406.12
3.11042762,45.76354521,406.108
3.11042873,45.76354407,406.115
3.11042980,45.76354297,406.132
3.11043088,45.76354173,406.132
3.11043197,45.76354061,406.114
3.11043291,45.76353946,406.121
3.11043415,45.76353836,406.115
3.11043524,45.76353732,406.13
3.11043636,45.76353625,406.113
3.11043740,45.76353518,406.119
3.11043815,45.76353398,406.152
3.11043924,45.76353272,406.141
3.11044031,45.76353157,406.134
3.11044160,45.76353052,406.148
3.11044221,45.76352925,406.147
3.11044330,45.76352811,406.149
3.11044434,45.76352686,406.155
3.11044583,45.76352598,406.186
3.11044696,45.76352479,406.185
3.11044814,45.76352364,406.171
3.11044926,45.76352260,406.172
3.11045025,45.76352143,406.193
3.11045110,45.76352014,406.192
3.11045194,45.76351894,406.189
3.11045303,45.76351769,406.183
3.11045397,45.76351638,406.172
3.11045516,45.76351537,406.201
3.11045652,45.76351430,406.183
3.11045757,45.76351334,406.191
3.11045894,45.76351201,406.145
3.11046050,45.76351124,406.152
3.11046154,45.76351008,406.18
3.11046256,45.76350882,406.19
3.11046358,45.76350764,406.192
3.11046435,45.76350642,406.199
3.11046576,45.76350550,406.234
3.11046697,45.76350448,406.198
3.11046825,45.76350351,406.215
3.11046985,45.76350257,406.243
3.11047066,45.76350134,406.198
3.11047220,45.76350025,406.188
3.11047351,45.76349921,406.213
3.11047446,45.76349791,406.183
3.11047574,45.76349706,406.183
3.11047671,45.76349593,406.192
3.11047747,45.76349470,406.229
3.11047882,45.76349372,406.22
3.11047988,45.76349262,406.231
3.11048089,45.76349156,406.23
3.11048227,45.76349053,406.249
3.11048330,45.76348939,406.225
3.11048455,45.76348849,406.272
3.11048578,45.76348757,406.308
3.11048674,45.76348643,406.303
3.11048820,45.76348526,406.273
3.11048942,45.76348428,406.298
3.11049057,45.76348321,406.314
3.11049181,45.76348208,406.326
3.11049300,45.76348078,406.334
3.11049404,45.76347958,406.341
3.11049548,45.76347873,406.352
3.11049684,45.76347743,406.345
3.11049784,45.76347634,406.335
3.11049901,45.76347518,406.368
3.11050017,45.76347398,406.386
3.11050127,45.76347286,406.395
3.11050225,45.76347173,406.417
3.11050348,45.76347060,406.434
3.11050476,45.76346964,406.451
3.11050597,45.76346855,406.444
3.11050715,45.76346736,406.454
3.11050830,45.76346627,406.446
3.11050956,45.76346504,406.443
3.11051090,45.76346385,406.441
3.11051207,45.76346277,406.461
3.11051308,45.76346144,406.464
3.11051412,45.76346020,406.468
3.11051516,45.76345911,406.477
3.11051640,45.76345788,406.505
3.11051762,45.76345670,406.504
3.11051909,45.76345573,406.505
3.11052072,45.76345475,406.491
3.11052232,45.76345389,406.497
3.11052385,45.76345299,406.493
3.11052524,45.76345198,406.49
3.11052631,45.76345087,406.489
3.11052708,45.76344958,406.495
3.11052786,45.76344812,406.504
3.11052888,45.76344699,406.502
3.11053022,45.76344593,406.51
3.11053216,45.76344437,406.468
3.11053335,45.76344340,406.457
3.11053475,45.76344239,406.457
3.11053615,45.76344132,406.445
3.11053741,45.76344033,406.462
3.11053846,45.76343919,406.448
3.11053967,45.76343797,406.456
3.11054066,45.76343680,406.451
3.11054186,45.76343563,406.452
3.11054344,45.76343440,406.488
3.11054460,45.76343339,406.485
3.11054600,45.76343216,406.486
3.11054733,45.76343092,406.497
3.11054838,45.76342984,406.493
3.11054951,45.76342850,406.48
3.11055055,45.76342731,406.492
3.11055141,45.76342602,406.494
3.11055253,45.76342460,406.507
3.11055370,45.76342342,406.507
3.11055508,45.76342230,406.512
3.11055651,45.76342108,406.532
3.11055771,45.76342000,406.527
3.11055886,45.76341882,406.517
3.11055988,45.76341744,406.53
3.11056045,45.76341627,406.5
3.11056109,45.76341489,406.504
3.11056181,45.76341359,406.504
3.11056264,45.76341227,406.509
3.11056317,45.76341090,406.512
3.11056389,45.76340964,406.505
3.11056498,45.76340832,406.505
3.11056623,45.76340711,406.487
3.11056732,45.76340594,406.47
3.11056858,45.76340468,406.476
3.11056986,45.76340340,406.477
3.11057089,45.76340219,406.477
3.11057178,45.76340076,406.493
3.11057241,45.76339935,406.497
3.11057286,45.76339790,406.504
3.11057323,45.76339635,406.534
3.11057368,45.76339483,406.546
3.11057427,45.76339339,406.552
3.11057500,45.76339203,406.558
3.11057585,45.76339065,406.554
3.11057682,45.76338919,406.557
3.11057753,45.76338791,406.555
3.11057838,45.76338654,406.554
3.11057925,45.76338524,406.548
3.11057990,45.76338390,406.55
3.11058033,45.76338252,406.531
3.11058086,45.76338111,406.52
3.11058146,45.76337975,406.522
3.11058221,45.76337837,406.507
3.11058306,45.76337701,406.488
3.11058375,45.76337562,406.482
3.11058427,45.76337431,406.472
3.11058456,45.76337290,406.461
3.11058491,45.76337146,406.482
3.11058477,45.76337012,406.479
3.11058478,45.76336854,406.513
3.11058450,45.76336710,406.525
3.11058446,45.76336572,406.518
3.11058462,45.76336420,406.526
3.11058457,45.76336272,406.514
3.11058456,45.76336120,406.532
3.11058458,45.76335967,406.534
3.11058446,45.76335813,406.547
3.11058432,45.76335670,406.55
3.11058417,45.76335514,406.558
3.11058407,45.76335367,406.56
3.11058387,45.76335236,406.554
3.11058389,45.76335084,406.57
3.11058392,45.76334943,406.571
3.11058401,45.76334809,406.569
3.11058396,45.76334651,406.57
3.11058386,45.76334506,406.565
3.11058403,45.76334362,406.56
3.11058420,45.76334212,406.542
3.11058438,45.76334063,406.54
3.11058429,45.76333918,406.546
3.11058420,45.76333770,406.55
3.11058391,45.76333616,406.55
3.11058367,45.76333464,406.557
3.11058348,45.76333310,406.564
3.11058330,45.76333172,406.558
3.11058318,45.76333027,406.565
3.11058321,45.76332891,406.557
3.11058307,45.76332752,406.557
3.11058284,45.76332611,406.562
3.11058234,45.76332480,406.552
3.11058202,45.76332344,406.559
3.11058177,45.76332211,406.555
3.11058167,45.76332068,406.563
3.11058171,45.76331937,406.554
3.11058189,45.76331803,406.544
3.11058195,45.76331661,406.542
3.11058195,45.76331528,406.539
3.11058199,45.76331395,406.534
3.11058197,45.76331256,406.542
3.11058164,45.76331118,406.541
3.11058151,45.76330983,406.541
3.11058142,45.76330844,406.546
3.11058146,45.76330709,406.546
3.11058148,45.76330572,406.543
3.11058149,45.76330428,406.565
3.11058143,45.76330290,406.56
3.11058142,45.76330152,406.569
3.11058154,45.76330002,406.565
3.11058129,45.76329861,406.559
3.11058131,45.76329711,406.578
3.11058134,45.76329566,406.579
3.11058136,45.76329429,406.581
3.11058121,45.76329294,406.572
3.11058096,45.76329147,406.582
3.11058054,45.76329015,406.578
3.11058023,45.76328887,406.55
3.11057983,45.76328741,406.558
3.11057961,45.76328605,406.557
3.11057939,45.76328466,406.557
3.11057923,45.76328324,406.566
3.11057929,45.76328182,406.574
3.11057922,45.76328046,406.572
3.11057900,45.76327913,406.571
3.11057867,45.76327790,406.57
3.11057842,45.76327664,406.562
3.11057832,45.76327531,406.565
3.11057836,45.76327406,406.563
3.11057842,45.76327286,406.553
3.11057857,45.76327170,406.551
3.11057847,45.76327050,406.548
3.11057805,45.76326928,406.558
3.11057761,45.76326813,406.562
3.11057713,45.76326692,406.563
3.11057654,45.76326573,406.578
3.11057605,45.76326460,406.564
3.11057574,45.76326347,406.567
3.11057555,45.76326220,406.566
3.11057535,45.76326079,406.558
3.11057511,45.76325942,406.559
3.11057507,45.76325837,406.57
3.11057491,45.76325714,406.562
3.11057472,45.76325559,406.559
3.11057463,45.76325432,406.558
3.11057452,45.76325306,406.538
3.11057423,45.76325163,406.528
3.11057400,45.76325037,406.537
3.11057380,45.76324922,406.531
3.11057373,45.76324797,406.528
3.11057380,45.76324696,406.519
3.11057393,45.76324602,406.512
3.11057407,45.76324516,406.51
3.11057403,45.76324449,406.504
3.11057381,45.76324398,406.501
3.11057333,45.76324357,406.506
3.11057271,45.76324332,406.507
3.11057206,45.76324316,406.514
3.11057157,45.76324307,406.519
3.11057141,45.76324298,406.521
3.11057158,45.76324291,406.523
3.11057186,45.76324296,406.513
3.11057213,45.76324297,406.505
3.11057218,45.76324297,406.502
3.11057210,45.76324295,406.508
        </coordinates> 
      </LineString> 
    </Placemark> 
  </Document> 
</kml> 
