<?xml version="1.0" encoding="UTF-8"?> 
<kml xmlns="http://www.opengis.net/kml/2.2" 
     xmlns:gx="http://www.google.com/kml/ext/2.2" 
     xmlns:kml="http://www.opengis.net/kml/2.2"
     xmlns:atom="http://www.w3.org/2005/Atom"> 
  <Document> 
    <name>gps_traj.kml</name> 
    <Placemark> 
      <name>Trajectoire</name> 
      <LineString> 
        <tessellate>1</tessellate> 
        <coordinates> 
3.11057804,45.76316996,406.53
3.11057805,45.76316996,406.53
3.11057805,45.76316996,406.531
3.11057805,45.76316997,406.531
3.11057806,45.76316997,406.53
3.11057804,45.76316996,406.527
3.11057805,45.76316995,406.527
3.11057805,45.76316996,406.527
3.11057805,45.76316995,406.526
3.11057805,45.76316995,406.525
3.11057805,45.76316995,406.525
3.11057805,45.76316995,406.527
3.11057804,45.76316999,406.524
3.11057804,45.76317015,406.523
3.11057804,45.76317042,406.522
3.11057802,45.76317082,406.523
3.11057797,45.76317135,406.521
3.11057799,45.76317209,406.516
3.11057807,45.76317307,406.519
3.11057818,45.76317418,406.523
3.11057835,45.76317539,406.524
3.11057861,45.76317676,406.53
3.11057885,45.76317823,406.538
3.11057900,45.76317971,406.536
3.11057910,45.76318126,406.535
3.11057878,45.76318283,406.537
3.11057841,45.76318442,406.532
3.11057824,45.76318599,406.525
3.11057821,45.76318755,406.531
3.11057836,45.76318915,406.539
3.11057852,45.76319076,406.556
3.11057871,45.76319230,406.536
3.11057863,45.76319384,406.539
3.11057838,45.76319543,406.545
3.11057790,45.76319695,406.521
3.11057772,45.76319847,406.52
3.11057762,45.76319986,406.522
3.11057755,45.76320139,406.516
3.11057720,45.76320290,406.505
3.11057729,45.76320436,406.51
3.11057722,45.76320577,406.502
3.11057713,45.76320717,406.511
3.11057698,45.76320863,406.503
3.11057706,45.76320996,406.498
3.11057732,45.76321133,406.5
3.11057745,45.76321277,406.504
3.11057768,45.76321412,406.508
3.11057775,45.76321553,406.513
3.11057781,45.76321691,406.51
3.11057764,45.76321832,406.505
3.11057732,45.76321971,406.501
3.11057717,45.76322108,406.493
3.11057715,45.76322245,406.5
3.11057726,45.76322378,406.507
3.11057701,45.76322510,406.51
3.11057682,45.76322637,406.502
3.11057647,45.76322767,406.496
3.11057627,45.76322894,406.496
3.11057606,45.76323025,406.485
3.11057591,45.76323168,406.496
3.11057576,45.76323281,406.49
3.11057561,45.76323416,406.487
3.11057556,45.76323565,406.498
3.11057571,45.76323683,406.485
3.11057569,45.76323817,406.486
3.11057544,45.76323951,406.476
3.11057530,45.76324082,406.485
3.11057529,45.76324223,406.491
3.11057520,45.76324363,406.51
3.11057508,45.76324499,406.52
3.11057515,45.76324640,406.529
3.11057541,45.76324780,406.541
3.11057534,45.76324914,406.538
3.11057510,45.76325069,406.541
3.11057512,45.76325214,406.556
3.11057501,45.76325347,406.551
3.11057485,45.76325490,406.56
3.11057463,45.76325633,406.576
3.11057443,45.76325773,406.575
3.11057450,45.76325907,406.583
3.11057454,45.76326042,406.589
3.11057439,45.76326191,406.58
3.11057424,45.76326331,406.588
3.11057398,45.76326470,406.597
3.11057380,45.76326609,406.607
3.11057358,45.76326748,406.606
3.11057354,45.76326887,406.606
3.11057357,45.76327035,406.609
3.11057360,45.76327177,406.618
3.11057349,45.76327323,406.609
3.11057347,45.76327465,406.608
3.11057326,45.76327605,406.614
3.11057299,45.76327736,406.613
3.11057249,45.76327875,406.608
3.11057206,45.76328016,406.616
3.11057175,45.76328147,406.625
3.11057156,45.76328283,406.616
3.11057148,45.76328417,406.646
3.11057098,45.76328565,406.625
3.11057095,45.76328704,406.621
3.11057084,45.76328843,406.627
3.11057065,45.76328984,406.625
3.11057036,45.76329129,406.626
3.11057003,45.76329273,406.611
3.11056960,45.76329406,406.599
3.11056930,45.76329545,406.612
3.11056913,45.76329674,406.608
3.11056891,45.76329800,406.604
3.11056873,45.76329934,406.609
3.11056860,45.76330057,406.616
3.11056828,45.76330190,406.613
3.11056786,45.76330322,406.613
3.11056764,45.76330452,406.605
3.11056748,45.76330584,406.599
3.11056720,45.76330718,406.603
3.11056696,45.76330852,406.608
3.11056657,45.76330994,406.601
3.11056638,45.76331133,406.604
3.11056615,45.76331269,406.604
3.11056585,45.76331413,406.609
3.11056561,45.76331551,406.61
3.11056553,45.76331693,406.626
3.11056531,45.76331839,406.621
3.11056532,45.76331986,406.633
3.11056519,45.76332121,406.635
3.11056506,45.76332253,406.633
3.11056479,45.76332396,406.65
3.11056465,45.76332541,406.647
3.11056448,45.76332688,406.653
3.11056447,45.76332843,406.667
3.11056445,45.76332985,406.683
3.11056437,45.76333135,406.674
3.11056432,45.76333280,406.681
3.11056414,45.76333430,406.693
3.11056386,45.76333581,406.704
3.11056344,45.76333736,406.707
3.11056285,45.76333887,406.693
3.11056232,45.76334043,406.701
3.11056186,45.76334190,406.707
3.11056139,45.76334334,406.685
3.11056095,45.76334477,406.682
3.11056089,45.76334607,406.667
3.11056090,45.76334756,406.673
3.11056096,45.76334902,406.682
3.11056045,45.76335025,406.669
3.11056002,45.76335163,406.666
3.11055959,45.76335301,406.634
3.11055929,45.76335412,406.624
3.11055874,45.76335553,406.583
3.11055842,45.76335696,406.583
3.11055830,45.76335820,406.581
3.11055834,45.76335966,406.585
3.11055830,45.76336097,406.574
3.11055819,45.76336234,406.585
3.11055828,45.76336379,406.623
3.11055804,45.76336508,406.627
3.11055773,45.76336636,406.613
3.11055728,45.76336785,406.621
3.11055687,45.76336913,406.607
3.11055652,45.76337043,406.59
3.11055610,45.76337190,406.598
3.11055575,45.76337317,406.584
3.11055560,45.76337454,406.597
3.11055556,45.76337588,406.607
3.11055547,45.76337707,406.613
3.11055520,45.76337854,406.621
3.11055490,45.76337993,406.639
3.11055449,45.76338123,406.622
3.11055369,45.76338255,406.627
3.11055299,45.76338404,406.625
3.11055234,45.76338533,406.611
3.11055177,45.76338678,406.605
3.11055113,45.76338821,406.603
3.11055068,45.76338956,406.597
3.11055024,45.76339119,406.553
3.11055017,45.76339260,406.56
3.11055010,45.76339385,406.567
3.11054986,45.76339515,406.574
3.11054940,45.76339647,406.554
3.11054904,45.76339780,406.555
3.11054882,45.76339898,406.555
3.11054857,45.76340024,406.556
3.11054805,45.76340165,406.544
3.11054757,45.76340294,406.547
3.11054684,45.76340409,406.53
3.11054570,45.76340523,406.501
3.11054451,45.76340638,406.516
3.11054336,45.76340727,406.488
3.11054219,45.76340833,406.481
3.11054105,45.76340948,406.466
3.11054035,45.76341062,406.471
3.11053982,45.76341189,406.481
3.11053956,45.76341333,406.503
3.11053899,45.76341469,406.517
3.11053820,45.76341600,406.532
3.11053719,45.76341719,406.541
3.11053622,45.76341826,406.538
3.11053514,45.76341953,406.514
3.11053404,45.76342078,406.512
3.11053303,45.76342211,406.516
3.11053232,45.76342333,406.512
3.11053136,45.76342465,406.522
3.11053040,45.76342595,406.522
3.11052944,45.76342720,406.527
3.11052860,45.76342851,406.532
3.11052771,45.76342967,406.53
3.11052670,45.76343096,406.531
3.11052547,45.76343222,406.526
3.11052463,45.76343340,406.537
3.11052353,45.76343463,406.536
3.11052231,45.76343588,406.538
3.11052120,45.76343716,406.517
3.11051998,45.76343837,406.514
3.11051905,45.76343963,406.512
3.11051779,45.76344082,406.495
3.11051668,45.76344210,406.504
3.11051566,45.76344317,406.492
3.11051450,45.76344434,406.484
3.11051343,45.76344553,406.514
3.11051266,45.76344667,406.507
3.11051175,45.76344787,406.501
3.11051050,45.76344902,406.505
3.11050933,45.76345007,406.498
3.11050787,45.76345088,406.45
3.11050627,45.76345177,406.428
3.11050473,45.76345279,406.413
3.11050344,45.76345400,406.42
3.11050231,45.76345522,406.424
3.11050149,45.76345647,406.431
3.11050067,45.76345794,406.436
3.11049985,45.76345934,406.447
3.11049854,45.76346070,406.431
3.11049737,45.76346193,406.432
3.11049607,45.76346301,406.446
3.11049468,45.76346400,406.415
3.11049312,45.76346513,406.413
3.11049184,45.76346620,406.407
3.11049055,45.76346726,406.376
3.11048930,45.76346863,406.377
3.11048858,45.76347002,406.388
3.11048779,45.76347136,406.384
3.11048688,45.76347260,406.397
3.11048593,45.76347366,406.394
3.11048456,45.76347461,406.35
3.11048314,45.76347548,406.329
3.11048184,45.76347631,406.322
3.11048056,45.76347741,406.303
3.11047910,45.76347832,406.296
3.11047787,45.76347928,406.261
3.11047675,45.76348035,406.234
3.11047545,45.76348143,406.239
3.11047425,45.76348259,406.264
3.11047288,45.76348357,406.245
3.11047163,45.76348468,406.213
3.11047015,45.76348569,406.196
3.11046888,45.76348659,406.195
3.11046755,45.76348762,406.195
3.11046608,45.76348867,406.209
3.11046489,45.76348981,406.214
3.11046360,45.76349077,406.166
3.11046225,45.76349195,406.151
3.11046132,45.76349315,406.177
3.11045967,45.76349398,406.143
3.11045853,45.76349506,406.217
3.11045715,45.76349607,406.197
3.11045545,45.76349691,406.197
3.11045418,45.76349797,406.193
3.11045308,45.76349906,406.185
3.11045178,45.76350013,406.2
3.11045053,45.76350133,406.164
3.11044911,45.76350224,406.166
3.11044791,45.76350329,406.16
3.11044669,45.76350443,406.174
3.11044533,45.76350542,406.149
3.11044353,45.76350614,406.158
3.11044223,45.76350695,406.127
3.11044106,45.76350819,406.136
3.11043988,45.76350930,406.157
3.11043856,45.76351044,406.169
3.11043765,45.76351163,406.163
3.11043632,45.76351261,406.155
3.11043506,45.76351375,406.163
3.11043397,45.76351489,406.149
3.11043268,45.76351595,406.141
3.11043055,45.76351689,406.173
3.11042926,45.76351779,406.151
3.11042831,45.76351899,406.13
3.11042723,45.76352012,406.123
3.11042631,45.76352151,406.166
3.11042529,45.76352271,406.158
3.11042422,45.76352398,406.169
3.11042314,45.76352506,406.156
3.11042204,45.76352620,406.143
3.11042081,45.76352736,406.156
3.11041941,45.76352854,406.169
3.11041821,45.76352962,406.169
3.11041706,45.76353064,406.149
3.11041596,45.76353184,406.16
3.11041476,45.76353290,406.152
3.11041370,45.76353401,406.126
3.11041267,45.76353499,406.099
3.11041158,45.76353617,406.096
3.11041028,45.76353725,406.084
3.11040911,45.76353840,406.092
3.11040781,45.76353979,406.129
3.11040672,45.76354088,406.131
3.11040547,45.76354196,406.132
3.11040437,45.76354314,406.128
3.11040319,45.76354429,406.132
3.11040219,45.76354539,406.107
3.11040101,45.76354651,406.104
3.11040008,45.76354758,406.091
3.11039910,45.76354877,406.113
3.11039823,45.76354974,406.101
3.11039744,45.76355090,406.101
3.11039658,45.76355201,406.108
3.11039585,45.76355307,406.118
3.11039509,45.76355407,406.106
3.11039456,45.76355516,406.096
3.11039384,45.76355628,406.119
3.11039325,45.76355730,406.119
3.11039271,45.76355839,406.117
3.11039214,45.76355935,406.111
3.11039151,45.76356040,406.119
3.11039070,45.76356143,406.114
3.11039012,45.76356250,406.124
3.11038961,45.76356348,406.113
3.11038898,45.76356443,406.114
3.11038851,45.76356544,406.112
3.11038822,45.76356627,406.057
3.11038772,45.76356721,406.057
3.11038728,45.76356814,406.053
3.11038671,45.76356911,406.059
3.11038615,45.76357004,406.046
3.11038533,45.76357121,406.102
3.11038484,45.76357217,406.081
3.11038422,45.76357320,406.09
3.11038357,45.76357422,406.088
3.11038283,45.76357514,406.07
3.11038183,45.76357609,406.062
3.11038116,45.76357702,406.067
3.11038060,45.76357806,406.055
3.11037996,45.76357902,406.042
3.11037964,45.76358010,406.073
3.11037878,45.76358115,406.086
3.11037794,45.76358218,406.077
3.11037718,45.76358316,406.068
3.11037643,45.76358415,406.064
3.11037574,45.76358522,406.07
3.11037515,45.76358635,406.064
3.11037472,45.76358749,406.059
3.11037423,45.76358855,406.053
3.11037381,45.76358970,406.063
3.11037307,45.76359076,406.038
3.11037235,45.76359189,406.035
3.11037145,45.76359286,406.03
3.11037077,45.76359396,406.03
3.11037002,45.76359511,406.05
3.11036940,45.76359620,406.024
3.11036889,45.76359741,406.024
3.11036821,45.76359855,406.017
3.11036744,45.76359967,406.021
3.11036672,45.76360077,406.021
3.11036588,45.76360183,406.029
3.11036503,45.76360287,406.025
3.11036427,45.76360399,406.022
3.11036338,45.76360497,406.033
3.11036265,45.76360612,406.026
3.11036177,45.76360710,406.052
3.11036106,45.76360822,406.036
3.11036025,45.76360929,406.041
3.11035934,45.76361043,406.028
3.11035863,45.76361171,406.04
3.11035778,45.76361288,406.039
3.11035725,45.76361426,406.05
3.11035669,45.76361548,406.049
3.11035600,45.76361686,406.059
3.11035525,45.76361812,406.049
3.11035459,45.76361944,406.065
3.11035363,45.76362061,406.055
3.11035257,45.76362166,406.05
3.11035151,45.76362271,406.056
3.11035035,45.76362379,406.049
3.11034920,45.76362491,406.054
3.11034817,45.76362598,406.051
3.11034716,45.76362714,406.053
3.11034623,45.76362824,406.054
3.11034555,45.76362946,406.041
3.11034475,45.76363071,406.053
3.11034393,45.76363194,406.058
3.11034306,45.76363317,406.052
3.11034214,45.76363436,406.055
3.11034101,45.76363546,406.05
3.11033984,45.76363656,406.053
3.11033880,45.76363772,406.059
3.11033762,45.76363878,406.067
3.11033651,45.76363988,406.061
3.11033547,45.76364102,406.055
3.11033457,45.76364212,406.082
3.11033367,45.76364325,406.079
3.11033266,45.76364430,406.077
3.11033163,45.76364532,406.089
3.11033064,45.76364630,406.083
3.11032969,45.76364732,406.072
3.11032877,45.76364836,406.069
3.11032790,45.76364942,406.072
3.11032715,45.76365049,406.073
3.11032639,45.76365165,406.087
3.11032556,45.76365277,406.093
3.11032479,45.76365382,406.097
3.11032372,45.76365492,406.101
3.11032261,45.76365586,406.111
3.11032127,45.76365667,406.101
3.11031991,45.76365746,406.105
3.11031843,45.76365809,406.099
3.11031683,45.76365867,406.097
3.11031527,45.76365923,406.095
3.11031381,45.76365978,406.092
3.11031224,45.76366031,406.092
3.11031072,45.76366102,406.084
3.11030921,45.76366175,406.082
3.11030786,45.76366254,406.091
3.11030631,45.76366336,406.092
3.11030479,45.76366416,406.083
3.11030316,45.76366498,406.068
3.11030177,45.76366582,406.077
3.11030027,45.76366661,406.078
3.11029875,45.76366741,406.078
3.11029726,45.76366816,406.082
3.11029560,45.76366897,406.055
3.11029404,45.76366971,406.051
3.11029257,45.76367037,406.051
3.11029104,45.76367106,406.062
3.11028950,45.76367170,406.069
3.11028803,45.76367235,406.076
3.11028653,45.76367301,406.079
3.11028506,45.76367364,406.078
3.11028351,45.76367422,406.072
3.11028198,45.76367483,406.078
3.11028046,45.76367538,406.064
3.11027901,45.76367582,406.085
3.11027748,45.76367625,406.078
3.11027607,45.76367666,406.063
3.11027460,45.76367701,406.068
3.11027306,45.76367722,406.053
3.11027158,45.76367745,406.062
3.11027003,45.76367762,406.03
3.11026858,45.76367795,406.046
3.11026703,45.76367823,406.039
3.11026543,45.76367853,406.052
3.11026382,45.76367870,406.054
3.11026218,45.76367885,406.039
3.11026060,45.76367892,406.044
3.11025897,45.76367901,406.03
3.11025726,45.76367901,406.014
3.11025575,45.76367908,406.026
3.11025416,45.76367913,406.026
3.11025255,45.76367909,406.037
3.11025077,45.76367916,406.029
3.11024904,45.76367916,406.032
3.11024729,45.76367913,406.038
3.11024543,45.76367905,406.035
3.11024358,45.76367905,406.049
3.11024175,45.76367901,406.047
3.11023978,45.76367905,406.03
3.11023787,45.76367896,406.055
3.11023594,45.76367893,406.06
3.11023399,45.76367890,406.067
3.11023185,45.76367885,406.047
3.11022976,45.76367877,406.042
3.11022803,45.76367865,406.054
3.11022608,45.76367857,406.072
3.11022392,45.76367841,406.054
3.11022218,45.76367845,406.061
3.11022007,45.76367850,406.056
3.11021816,45.76367837,406.053
3.11021638,45.76367833,406.099
3.11021440,45.76367815,406.071
3.11021237,45.76367815,406.082
3.11021030,45.76367801,406.083
3.11020842,45.76367789,406.064
3.11020651,45.76367773,406.11
3.11020459,45.76367765,406.118
3.11020255,45.76367775,406.097
3.11020062,45.76367752,406.076
3.11019862,45.76367745,406.08
3.11019654,45.76367734,406.074
3.11019461,45.76367725,406.078
3.11019270,45.76367721,406.105
3.11019076,45.76367709,406.111
3.11018877,45.76367698,406.121
3.11018677,45.76367697,406.135
3.11018469,45.76367669,406.123
3.11018274,45.76367672,406.122
3.11018062,45.76367649,406.109
3.11017863,45.76367645,406.12
3.11017653,45.76367620,406.11
3.11017448,45.76367609,406.12
3.11017245,45.76367621,406.132
3.11017045,45.76367597,406.13
3.11016854,45.76367586,406.126
3.11016645,45.76367565,406.144
3.11016448,45.76367558,406.131
3.11016251,45.76367552,406.132
3.11016052,45.76367544,406.167
3.11015863,45.76367536,406.159
3.11015665,45.76367515,406.151
3.11015475,45.76367499,406.148
3.11015275,45.76367468,406.15
3.11015087,45.76367433,406.143
3.11014901,45.76367423,406.149
3.11014715,45.76367415,406.149
3.11014528,45.76367403,406.15
3.11014334,45.76367384,406.155
3.11014156,45.76367365,406.161
3.11013976,45.76367340,406.157
3.11013797,45.76367315,406.157
3.11013624,45.76367286,406.164
3.11013451,45.76367247,406.153
3.11013280,45.76367217,406.155
3.11013095,45.76367192,406.158
3.11012922,45.76367159,406.157
3.11012742,45.76367120,406.165
3.11012586,45.76367077,406.168
3.11012423,45.76367030,406.162
3.11012256,45.76366990,406.162
3.11012084,45.76366940,406.175
3.11011909,45.76366898,406.18
3.11011736,45.76366863,406.175
3.11011556,45.76366823,406.183
3.11011378,45.76366778,406.184
3.11011219,45.76366733,406.194
3.11011049,45.76366682,406.192
3.11010874,45.76366630,406.203
3.11010716,45.76366587,406.201
3.11010550,45.76366530,406.217
3.11010388,45.76366468,406.213
3.11010235,45.76366405,406.217
3.11010097,45.76366341,406.225
3.11009950,45.76366279,406.228
3.11009810,45.76366210,406.234
3.11009666,45.76366141,406.243
3.11009529,45.76366066,406.245
3.11009387,45.76365984,406.249
3.11009247,45.76365914,406.244
3.11009118,45.76365832,406.252
3.11008989,45.76365740,406.249
3.11008873,45.76365641,406.261
3.11008759,45.76365548,406.267
3.11008634,45.76365446,406.271
3.11008519,45.76365337,406.27
3.11008407,45.76365230,406.276
3.11008284,45.76365123,406.276
3.11008176,45.76365013,406.285
3.11008070,45.76364891,406.286
3.11007975,45.76364773,406.285
3.11007886,45.76364647,406.284
3.11007801,45.76364526,406.292
3.11007692,45.76364403,406.288
3.11007604,45.76364282,406.295
3.11007510,45.76364162,406.288
3.11007415,45.76364038,406.29
3.11007331,45.76363920,406.291
3.11007241,45.76363792,406.284
3.11007150,45.76363674,406.284
3.11007055,45.76363547,406.284
3.11006966,45.76363425,406.295
3.11006879,45.76363307,406.29
3.11006788,45.76363186,406.307
3.11006692,45.76363068,406.303
3.11006606,45.76362945,406.303
3.11006519,45.76362824,406.301
3.11006421,45.76362707,406.315
3.11006321,45.76362589,406.315
3.11006234,45.76362468,406.318
3.11006139,45.76362340,406.326
3.11006043,45.76362214,406.328
3.11005943,45.76362094,406.339
3.11005850,45.76361967,406.325
3.11005753,45.76361849,406.33
3.11005646,45.76361725,406.334
3.11005541,45.76361598,406.349
3.11005449,45.76361482,406.354
3.11005356,45.76361366,406.343
3.11005255,45.76361233,406.362
3.11005176,45.76361103,406.363
3.11005112,45.76360980,406.359
3.11005032,45.76360844,406.357
3.11004953,45.76360717,406.351
3.11004873,45.76360588,406.349
3.11004780,45.76360457,406.361
3.11004691,45.76360334,406.349
3.11004595,45.76360205,406.362
3.11004508,45.76360086,406.365
3.11004415,45.76359976,406.352
3.11004306,45.76359841,406.37
3.11004216,45.76359710,406.373
3.11004119,45.76359603,406.379
3.11004010,45.76359481,406.387
3.11003911,45.76359355,406.398
3.11003817,45.76359242,406.399
3.11003717,45.76359137,406.406
3.11003621,45.76359042,406.414
3.11003548,45.76358956,406.408
3.11003486,45.76358872,406.413
3.11003437,45.76358805,406.413
3.11003408,45.76358755,406.41
3.11003391,45.76358711,406.416
3.11003382,45.76358688,406.405
3.11003378,45.76358683,406.405
        </coordinates> 
      </LineString> 
    </Placemark> 
  </Document> 
</kml> 
