<?xml version="1.0" encoding="UTF-8"?> 
<kml xmlns="http://www.opengis.net/kml/2.2" 
     xmlns:gx="http://www.google.com/kml/ext/2.2" 
     xmlns:kml="http://www.opengis.net/kml/2.2"
     xmlns:atom="http://www.w3.org/2005/Atom"> 
  <Document> 
    <name>gps_traj.kml</name> 
    <Placemark> 
      <name>Trajectoire</name> 
      <LineString> 
        <tessellate>1</tessellate> 
        <coordinates> 
3.43499773,46.33881159,280.32
3.43499774,46.33881159,280.322
3.43499772,46.33881159,280.323
3.43499773,46.33881159,280.322
3.43499773,46.33881159,280.323
3.43499773,46.33881158,280.324
3.43499772,46.33881158,280.322
3.43499772,46.33881158,280.321
3.43499771,46.33881159,280.323
3.43499772,46.33881159,280.323
3.43499771,46.33881160,280.319
3.43499761,46.33881173,280.318
3.43499742,46.33881198,280.316
3.43499714,46.33881241,280.317
3.43499677,46.33881297,280.323
3.43499626,46.33881367,280.32
3.43499566,46.33881438,280.316
3.43499508,46.33881507,280.325
3.43499466,46.33881568,280.331
3.43499430,46.33881616,280.332
3.43499394,46.33881658,280.336
3.43499351,46.33881710,280.335
3.43499293,46.33881779,280.327
3.43499238,46.33881855,280.33
3.43499184,46.33881932,280.327
3.43499132,46.33882014,280.324
3.43499083,46.33882094,280.326
3.43499028,46.33882176,280.324
3.43498965,46.33882260,280.328
3.43498901,46.33882343,280.329
3.43498837,46.33882427,280.328
3.43498772,46.33882507,280.323
3.43498708,46.33882584,280.328
3.43498649,46.33882665,280.331
3.43498596,46.33882746,280.329
3.43498541,46.33882829,280.331
3.43498484,46.33882909,280.333
3.43498425,46.33882993,280.329
3.43498361,46.33883073,280.336
3.43498300,46.33883146,280.336
3.43498240,46.33883225,280.34
3.43498187,46.33883305,280.348
3.43498128,46.33883382,280.347
3.43498070,46.33883456,280.346
3.43498003,46.33883531,280.341
3.43497937,46.33883605,280.337
3.43497874,46.33883679,280.346
3.43497817,46.33883756,280.345
3.43497762,46.33883833,280.346
3.43497702,46.33883911,280.344
3.43497643,46.33883987,280.345
3.43497583,46.33884066,280.352
3.43497529,46.33884149,280.36
3.43497472,46.33884228,280.357
3.43497405,46.33884303,280.357
3.43497339,46.33884375,280.359
3.43497273,46.33884450,280.36
3.43497215,46.33884530,280.356
3.43497159,46.33884612,280.355
3.43497106,46.33884695,280.357
3.43497050,46.33884776,280.359
3.43496989,46.33884853,280.355
3.43496919,46.33884939,280.36
3.43496836,46.33885036,280.365
3.43496744,46.33885145,280.369
3.43496640,46.33885269,280.375
3.43496519,46.33885410,280.375
3.43496393,46.33885557,280.381
3.43496270,46.33885704,280.379
3.43496148,46.33885867,280.386
3.43496031,46.33886033,280.382
3.43495915,46.33886200,280.387
3.43495793,46.33886359,280.39
3.43495655,46.33886520,280.387
3.43495518,46.33886680,280.392
3.43495378,46.33886841,280.393
3.43495246,46.33887002,280.394
3.43495118,46.33887164,280.393
3.43494991,46.33887333,280.405
3.43494865,46.33887494,280.411
3.43494737,46.33887654,280.405
3.43494617,46.33887807,280.411
3.43494489,46.33887955,280.412
3.43494360,46.33888107,280.408
3.43494225,46.33888252,280.408
3.43494091,46.33888399,280.41
3.43493957,46.33888546,280.413
3.43493819,46.33888693,280.414
3.43493684,46.33888838,280.409
3.43493552,46.33888990,280.4
3.43493429,46.33889146,280.4
3.43493314,46.33889308,280.411
3.43493199,46.33889472,280.416
3.43493070,46.33889636,280.422
3.43492943,46.33889791,280.433
3.43492816,46.33889954,280.431
3.43492706,46.33890121,280.43
3.43492608,46.33890289,280.425
3.43492513,46.33890463,280.43
3.43492417,46.33890637,280.43
3.43492320,46.33890813,280.429
3.43492235,46.33890985,280.43
3.43492158,46.33891158,280.441
3.43492078,46.33891337,280.442
3.43492004,46.33891518,280.447
3.43491938,46.33891694,280.45
3.43491871,46.33891871,280.456
3.43491805,46.33892048,280.45
3.43491744,46.33892226,280.449
3.43491696,46.33892402,280.453
3.43491644,46.33892578,280.455
3.43491590,46.33892755,280.457
3.43491535,46.33892934,280.453
3.43491488,46.33893109,280.453
3.43491435,46.33893283,280.448
3.43491383,46.33893463,280.452
3.43491341,46.33893642,280.449
3.43491313,46.33893827,280.45
3.43491279,46.33894014,280.452
3.43491248,46.33894204,280.447
3.43491225,46.33894391,280.448
3.43491209,46.33894579,280.447
3.43491208,46.33894769,280.462
3.43491210,46.33894957,280.463
3.43491210,46.33895148,280.467
3.43491218,46.33895331,280.463
3.43491254,46.33895514,280.478
3.43491306,46.33895696,280.469
3.43491343,46.33895882,280.477
3.43491360,46.33896054,280.471
3.43491368,46.33896241,280.463
3.43491369,46.33896414,280.449
3.43491367,46.33896588,280.447
3.43491364,46.33896758,280.434
3.43491386,46.33896934,280.44
3.43491427,46.33897103,280.443
3.43491470,46.33897278,280.45
3.43491513,46.33897452,280.451
3.43491540,46.33897623,280.448
3.43491557,46.33897803,280.45
3.43491554,46.33897974,280.449
3.43491553,46.33898157,280.448
3.43491571,46.33898340,280.44
3.43491608,46.33898517,280.442
3.43491649,46.33898688,280.444
3.43491693,46.33898868,280.451
3.43491738,46.33899040,280.454
3.43491777,46.33899212,280.443
3.43491826,46.33899388,280.439
3.43491884,46.33899558,280.435
3.43491948,46.33899734,280.432
3.43492004,46.33899906,280.423
3.43492061,46.33900085,280.418
3.43492130,46.33900261,280.414
3.43492208,46.33900441,280.411
3.43492294,46.33900616,280.419
3.43492398,46.33900783,280.418
3.43492507,46.33900952,280.42
3.43492619,46.33901119,280.421
3.43492734,46.33901286,280.426
3.43492858,46.33901448,280.439
3.43492986,46.33901610,280.44
3.43493116,46.33901771,280.449
3.43493244,46.33901929,280.444
3.43493380,46.33902090,280.443
3.43493522,46.33902245,280.441
3.43493660,46.33902403,280.435
3.43493819,46.33902552,280.44
3.43493981,46.33902693,280.447
3.43494148,46.33902835,280.453
3.43494312,46.33902972,280.462
3.43494474,46.33903107,280.467
3.43494635,46.33903246,280.469
3.43494791,46.33903376,280.47
3.43494939,46.33903521,280.464
3.43495094,46.33903655,280.47
3.43495243,46.33903795,280.469
3.43495398,46.33903938,280.47
3.43495545,46.33904075,280.469
3.43495696,46.33904218,280.47
3.43495843,46.33904352,280.462
3.43496004,46.33904494,280.462
3.43496159,46.33904631,280.468
3.43496327,46.33904765,280.472
3.43496491,46.33904904,280.47
3.43496652,46.33905043,280.478
3.43496811,46.33905178,280.478
3.43496963,46.33905318,280.478
3.43497122,46.33905459,280.482
3.43497277,46.33905595,280.475
3.43497448,46.33905729,280.488
3.43497612,46.33905851,280.483
3.43497773,46.33905988,280.477
3.43497928,46.33906125,280.473
3.43498081,46.33906258,280.476
3.43498247,46.33906393,280.469
3.43498414,46.33906523,280.476
3.43498583,46.33906652,280.478
3.43498745,46.33906783,280.483
3.43498910,46.33906914,280.487
3.43499070,46.33907048,280.483
3.43499223,46.33907178,280.491
3.43499373,46.33907313,280.481
3.43499514,46.33907445,280.486
3.43499653,46.33907577,280.486
3.43499788,46.33907711,280.479
3.43499918,46.33907850,280.479
3.43500046,46.33907983,280.48
3.43500180,46.33908126,280.479
3.43500302,46.33908266,280.481
3.43500428,46.33908407,280.481
3.43500549,46.33908559,280.484
3.43500662,46.33908710,280.475
3.43500781,46.33908861,280.479
3.43500894,46.33909013,280.478
3.43501027,46.33909163,280.493
3.43501148,46.33909309,280.488
3.43501277,46.33909465,280.491
3.43501393,46.33909613,280.488
3.43501511,46.33909771,280.491
3.43501619,46.33909926,280.484
3.43501727,46.33910082,280.485
3.43501855,46.33910245,280.549
3.43501958,46.33910402,280.548
3.43502068,46.33910552,280.554
3.43502173,46.33910699,280.537
3.43502279,46.33910843,280.54
3.43502387,46.33910982,280.547
3.43502484,46.33911118,280.528
3.43502573,46.33911258,280.532
3.43502671,46.33911393,280.528
3.43502772,46.33911535,280.526
3.43502862,46.33911677,280.526
3.43502957,46.33911827,280.523
3.43503062,46.33911964,280.517
3.43503179,46.33912109,280.522
3.43503297,46.33912256,280.519
3.43503402,46.33912405,280.514
3.43503516,46.33912553,280.512
3.43503632,46.33912700,280.505
3.43503765,46.33912846,280.499
3.43503904,46.33912988,280.508
3.43504077,46.33913127,280.53
3.43504228,46.33913260,280.526
3.43504397,46.33913402,280.532
3.43504553,46.33913536,280.524
3.43504734,46.33913669,280.529
3.43504907,46.33913787,280.518
3.43505102,46.33913914,280.523
3.43505296,46.33914018,280.512
3.43505506,46.33914126,280.525
3.43505697,46.33914237,280.518
3.43505887,46.33914358,280.509
3.43506073,46.33914471,280.506
3.43506263,46.33914573,280.509
3.43506467,46.33914668,280.507
3.43506669,46.33914761,280.516
3.43506856,46.33914852,280.512
3.43507047,46.33914948,280.507
3.43507239,46.33915035,280.504
3.43507424,46.33915118,280.506
3.43507607,46.33915214,280.503
3.43507782,46.33915308,280.499
3.43507968,46.33915401,280.497
3.43508149,46.33915491,280.494
3.43508331,46.33915584,280.486
3.43508519,46.33915673,280.492
3.43508709,46.33915754,280.496
3.43508912,46.33915833,280.494
3.43509105,46.33915923,280.496
3.43509283,46.33916025,280.49
3.43509471,46.33916126,280.481
3.43509671,46.33916199,280.469
3.43509887,46.33916269,280.473
3.43510104,46.33916343,280.48
3.43510319,46.33916424,280.471
3.43510536,46.33916502,280.468
3.43510750,46.33916584,280.462
3.43510976,46.33916656,280.451
3.43511215,46.33916708,280.458
3.43511456,46.33916753,280.445
3.43511701,46.33916806,280.447
3.43511960,46.33916847,280.469
3.43512198,46.33916873,280.467
3.43512442,46.33916916,280.457
3.43512691,46.33916946,280.461
3.43512935,46.33916968,280.459
3.43513179,46.33917000,280.456
3.43513420,46.33917030,280.448
3.43513660,46.33917047,280.45
3.43513892,46.33917069,280.439
3.43514132,46.33917110,280.439
3.43514358,46.33917131,280.426
3.43514590,46.33917153,280.414
3.43514831,46.33917170,280.43
3.43515058,46.33917177,280.417
3.43515298,46.33917196,280.422
3.43515527,46.33917215,280.414
3.43515759,46.33917250,280.405
3.43515983,46.33917277,280.399
3.43516216,46.33917309,280.395
3.43516448,46.33917319,280.39
3.43516674,46.33917333,280.387
3.43516909,46.33917346,280.392
3.43517138,46.33917369,280.378
3.43517370,46.33917394,280.386
3.43517596,46.33917414,280.373
3.43517828,46.33917439,280.373
3.43518061,46.33917457,280.374
3.43518284,46.33917477,280.365
3.43518509,46.33917512,280.355
3.43518733,46.33917554,280.348
3.43518945,46.33917595,280.344
3.43519167,46.33917631,280.336
3.43519394,46.33917652,280.34
3.43519615,46.33917660,280.336
3.43519844,46.33917672,280.339
3.43520078,46.33917691,280.336
3.43520307,46.33917720,280.337
3.43520528,46.33917750,280.323
3.43520757,46.33917782,280.32
3.43520990,46.33917817,280.324
3.43521221,46.33917853,280.316
3.43521446,46.33917884,280.31
3.43521687,46.33917911,280.309
3.43521920,46.33917934,280.307
3.43522155,46.33917950,280.307
3.43522390,46.33917974,280.308
3.43522622,46.33918008,280.3
3.43522845,46.33918043,280.296
3.43523072,46.33918074,280.3
3.43523308,46.33918114,280.289
3.43523543,46.33918142,280.288
3.43523773,46.33918171,280.288
3.43524006,46.33918208,280.29
3.43524233,46.33918242,280.284
3.43524457,46.33918275,280.279
3.43524697,46.33918304,280.286
3.43524929,46.33918332,280.284
3.43525162,46.33918352,280.282
3.43525402,46.33918384,280.285
3.43525632,46.33918431,280.276
3.43525873,46.33918475,280.277
3.43526099,46.33918514,280.261
3.43526337,46.33918544,280.257
3.43526595,46.33918576,280.255
3.43526846,46.33918599,280.268
3.43527105,46.33918624,280.281
3.43527353,46.33918654,280.277
3.43527594,46.33918676,280.265
3.43527843,46.33918696,280.261
3.43528096,46.33918710,280.26
3.43528355,46.33918718,280.262
3.43528610,46.33918714,280.253
3.43528857,46.33918710,280.238
3.43529117,46.33918707,280.233
3.43529355,46.33918698,280.218
3.43529608,46.33918676,280.208
3.43529845,46.33918647,280.198
3.43530090,46.33918612,280.203
3.43530316,46.33918581,280.199
3.43530558,46.33918553,280.198
3.43530776,46.33918527,280.191
3.43530999,46.33918500,280.185
3.43531215,46.33918472,280.174
3.43531428,46.33918437,280.171
3.43531646,46.33918403,280.166
3.43531864,46.33918365,280.163
3.43532075,46.33918325,280.155
3.43532300,46.33918293,280.16
3.43532527,46.33918265,280.157
3.43532759,46.33918229,280.163
3.43532987,46.33918195,280.172
3.43533225,46.33918167,280.159
3.43533473,46.33918140,280.172
3.43533709,46.33918113,280.165
3.43533960,46.33918081,280.17
3.43534197,46.33918045,280.172
3.43534442,46.33917999,280.168
3.43534680,46.33917953,280.174
3.43534934,46.33917908,280.171
3.43535173,46.33917859,280.173
3.43535420,46.33917807,280.17
3.43535652,46.33917748,280.18
3.43535894,46.33917682,280.184
3.43536129,46.33917616,280.183
3.43536362,46.33917554,280.187
3.43536600,46.33917491,280.179
3.43536831,46.33917425,280.171
3.43537058,46.33917350,280.166
3.43537284,46.33917275,280.164
3.43537512,46.33917195,280.156
3.43537735,46.33917119,280.163
3.43537963,46.33917050,280.156
3.43538185,46.33916980,280.151
3.43538401,46.33916902,280.159
3.43538614,46.33916820,280.16
3.43538831,46.33916738,280.16
3.43539042,46.33916654,280.161
3.43539258,46.33916579,280.157
3.43539476,46.33916506,280.153
3.43539683,46.33916426,280.157
3.43539891,46.33916336,280.159
3.43540095,46.33916249,280.156
3.43540309,46.33916165,280.165
3.43540530,46.33916091,280.146
3.43540753,46.33916016,280.144
3.43540973,46.33915927,280.15
3.43541186,46.33915830,280.155
3.43541389,46.33915723,280.162
3.43541604,46.33915615,280.174
3.43541815,46.33915514,280.164
3.43542018,46.33915402,280.163
3.43542220,46.33915288,280.167
3.43542429,46.33915168,280.167
3.43542623,46.33915041,280.174
3.43542813,46.33914921,280.17
3.43542992,46.33914784,280.172
3.43543169,46.33914654,280.164
3.43543340,46.33914522,280.154
3.43543513,46.33914393,280.156
3.43543679,46.33914259,280.152
3.43543843,46.33914121,280.171
3.43544005,46.33913993,280.168
3.43544168,46.33913866,280.164
3.43544320,46.33913736,280.164
3.43544484,46.33913602,280.161
3.43544633,46.33913475,280.163
3.43544784,46.33913344,280.163
3.43544941,46.33913214,280.162
3.43545103,46.33913095,280.158
3.43545287,46.33912969,280.158
3.43545452,46.33912849,280.166
3.43545606,46.33912714,280.168
3.43545762,46.33912584,280.188
3.43545921,46.33912454,280.178
3.43546079,46.33912330,280.183
3.43546234,46.33912204,280.177
3.43546405,46.33912076,280.177
3.43546560,46.33911955,280.176
3.43546731,46.33911826,280.175
3.43546901,46.33911699,280.176
3.43547080,46.33911574,280.168
3.43547241,46.33911443,280.172
3.43547401,46.33911316,280.171
3.43547568,46.33911178,280.178
3.43547731,46.33911051,280.17
3.43547901,46.33910923,280.173
3.43548076,46.33910792,280.176
3.43548243,46.33910664,280.174
3.43548417,46.33910535,280.179
3.43548584,46.33910402,280.185
3.43548755,46.33910272,280.177
3.43548929,46.33910141,280.179
3.43549117,46.33910025,280.17
3.43549315,46.33909914,280.161
3.43549504,46.33909798,280.163
3.43549681,46.33909661,280.158
3.43549861,46.33909527,280.161
3.43550041,46.33909389,280.16
3.43550220,46.33909247,280.161
3.43550405,46.33909111,280.157
3.43550591,46.33908977,280.146
3.43550772,46.33908832,280.143
3.43550942,46.33908687,280.144
3.43551102,46.33908524,280.148
3.43551250,46.33908374,280.134
3.43551403,46.33908213,280.129
3.43551551,46.33908064,280.122
3.43551699,46.33907911,280.108
3.43551844,46.33907753,280.109
3.43551978,46.33907600,280.11
3.43552110,46.33907445,280.095
3.43552249,46.33907295,280.091
3.43552386,46.33907147,280.082
3.43552521,46.33907000,280.077
3.43552655,46.33906848,280.068
3.43552779,46.33906701,280.052
3.43552897,46.33906546,280.062
3.43553014,46.33906392,280.067
3.43553129,46.33906243,280.056
3.43553252,46.33906096,280.06
3.43553384,46.33905963,280.048
3.43553511,46.33905833,280.046
3.43553660,46.33905697,280.034
3.43553808,46.33905561,280.029
3.43553948,46.33905420,280.029
3.43554088,46.33905285,280.024
3.43554227,46.33905157,280.018
3.43554387,46.33905023,280.011
3.43554543,46.33904894,280.004
3.43554690,46.33904765,279.998
3.43554839,46.33904627,279.991
3.43554984,46.33904501,279.993
3.43555141,46.33904388,279.98
3.43555298,46.33904277,279.961
3.43555456,46.33904157,279.944
3.43555611,46.33904023,279.932
3.43555751,46.33903898,279.926
3.43555911,46.33903763,279.923
3.43556065,46.33903636,279.92
3.43556209,46.33903507,279.907
3.43556365,46.33903365,279.907
3.43556534,46.33903249,279.894
3.43556724,46.33903118,279.885
3.43556893,46.33903007,279.879
3.43557075,46.33902880,279.873
3.43557229,46.33902764,279.859
3.43557358,46.33902627,279.85
3.43557505,46.33902487,279.854
3.43557641,46.33902358,279.84
3.43557805,46.33902233,279.842
3.43557948,46.33902116,279.845
3.43558088,46.33902002,279.827
3.43558250,46.33901872,279.828
3.43558386,46.33901747,279.81
3.43558545,46.33901611,279.815
3.43558681,46.33901488,279.788
3.43558859,46.33901367,279.785
3.43559031,46.33901252,279.763
3.43559209,46.33901137,279.753
3.43559378,46.33901016,279.758
3.43559529,46.33900883,279.745
3.43559680,46.33900749,279.748
3.43559845,46.33900612,279.757
3.43560000,46.33900497,279.75
3.43560151,46.33900379,279.752
3.43560290,46.33900277,279.763
3.43560414,46.33900184,279.763
3.43560515,46.33900109,279.756
3.43560601,46.33900045,279.756
3.43560656,46.33900004,279.753
3.43560701,46.33899982,279.74
3.43560721,46.33899974,279.741
3.43560721,46.33899976,279.743
3.43560709,46.33899981,279.736
3.43560701,46.33899979,279.745
3.43560706,46.33899973,279.744
3.43560709,46.33899973,279.747
3.43560708,46.33899977,279.744
3.43560707,46.33899979,279.745
3.43560707,46.33899974,279.744
3.43560706,46.33899971,279.742
3.43560706,46.33899975,279.741
3.43560705,46.33899976,279.738
3.43560707,46.33899975,279.74
3.43560706,46.33899976,279.743
3.43560705,46.33899977,279.741
3.43560706,46.33899975,279.744
3.43560707,46.33899975,279.741
3.43560707,46.33899976,279.743
3.43560705,46.33899976,279.739
3.43560709,46.33899972,279.746
3.43560710,46.33899974,279.745
3.43560711,46.33899976,279.74
3.43560710,46.33899974,279.747
3.43560707,46.33899974,279.738
3.43560707,46.33899974,279.742
3.43560707,46.33899976,279.737
3.43560707,46.33899976,279.736
3.43560707,46.33899976,279.735
3.43560706,46.33899975,279.738
3.43560707,46.33899974,279.74
        </coordinates> 
      </LineString> 
    </Placemark> 
  </Document> 
</kml> 
