<?xml version="1.0" encoding="UTF-8"?> 
<kml xmlns="http://www.opengis.net/kml/2.2" 
     xmlns:gx="http://www.google.com/kml/ext/2.2" 
     xmlns:kml="http://www.opengis.net/kml/2.2"
     xmlns:atom="http://www.w3.org/2005/Atom"> 
  <Document> 
    <name>gps_traj.kml</name> 
    <Placemark> 
      <name>Trajectoire</name> 
      <LineString> 
        <tessellate>1</tessellate> 
        <coordinates> 
3.10996953,45.76352484,406.464
3.10996954,45.76352485,406.464
3.10996954,45.76352485,406.464
3.10996954,45.76352485,406.464
3.10996955,45.76352484,406.463
3.10996956,45.76352483,406.464
3.10996955,45.76352484,406.465
3.10996954,45.76352485,406.466
3.10996953,45.76352485,406.467
3.10996955,45.76352485,406.467
3.10996957,45.76352486,406.466
3.10996963,45.76352495,406.466
3.10996976,45.76352514,406.462
3.10996993,45.76352541,406.461
3.10997021,45.76352579,406.461
3.10997061,45.76352631,406.46
3.10997117,45.76352694,406.461
3.10997189,45.76352774,406.459
3.10997268,45.76352869,406.454
3.10997354,45.76352980,406.459
3.10997431,45.76353105,406.462
3.10997502,45.76353237,406.458
3.10997592,45.76353368,406.463
3.10997684,45.76353504,406.458
3.10997791,45.76353648,406.454
3.10997890,45.76353799,406.459
3.10997968,45.76353951,406.451
3.10998051,45.76354095,406.433
3.10998169,45.76354238,406.445
3.10998263,45.76354385,406.442
3.10998366,45.76354525,406.448
3.10998465,45.76354660,406.446
3.10998574,45.76354802,406.456
3.10998648,45.76354945,406.451
3.10998727,45.76355081,406.445
3.10998818,45.76355219,406.453
3.10998903,45.76355340,406.438
3.10998986,45.76355478,406.434
3.10999091,45.76355612,406.44
3.10999189,45.76355730,406.436
3.10999279,45.76355870,406.44
3.10999355,45.76356007,406.428
3.10999435,45.76356132,406.427
3.10999535,45.76356256,406.428
3.10999641,45.76356374,406.438
3.10999744,45.76356497,406.436
3.10999838,45.76356628,406.44
3.10999917,45.76356752,406.444
3.11000015,45.76356871,406.443
3.11000107,45.76356996,406.446
3.11000202,45.76357120,406.447
3.11000268,45.76357257,406.449
3.11000347,45.76357380,406.438
3.11000427,45.76357509,406.433
3.11000492,45.76357632,406.43
3.11000546,45.76357764,406.424
3.11000615,45.76357905,406.427
3.11000693,45.76358026,406.426
3.11000798,45.76358144,406.431
3.11000907,45.76358254,406.436
3.11001026,45.76358376,406.445
3.11001124,45.76358501,406.447
3.11001199,45.76358631,406.441
3.11001275,45.76358760,406.432
3.11001351,45.76358891,406.432
3.11001412,45.76359028,406.425
3.11001495,45.76359154,406.433
3.11001584,45.76359284,406.424
3.11001706,45.76359401,406.434
3.11001826,45.76359523,406.439
3.11001923,45.76359655,406.43
3.11002008,45.76359776,406.432
3.11002100,45.76359920,406.425
3.11002183,45.76360046,406.43
3.11002261,45.76360159,406.419
3.11002355,45.76360294,406.421
3.11002458,45.76360416,406.422
3.11002566,45.76360524,406.425
3.11002672,45.76360654,406.417
3.11002760,45.76360784,406.424
3.11002836,45.76360910,406.425
3.11002919,45.76361044,406.421
3.11002994,45.76361179,406.408
3.11003065,45.76361307,406.404
3.11003160,45.76361439,406.404
3.11003259,45.76361558,406.397
3.11003353,45.76361680,406.399
3.11003454,45.76361815,406.4
3.11003538,45.76361940,406.396
3.11003626,45.76362058,406.387
3.11003705,45.76362192,406.385
3.11003765,45.76362327,406.379
3.11003843,45.76362456,406.369
3.11003932,45.76362587,406.365
3.11004013,45.76362712,406.358
3.11004095,45.76362841,406.352
3.11004193,45.76362967,406.346
3.11004303,45.76363085,406.353
3.11004406,45.76363207,406.354
3.11004501,45.76363332,406.356
3.11004584,45.76363457,406.341
3.11004665,45.76363581,406.342
3.11004754,45.76363710,406.345
3.11004836,45.76363841,406.343
3.11004921,45.76363966,406.342
3.11005006,45.76364090,406.33
3.11005113,45.76364215,406.327
3.11005219,45.76364343,406.324
3.11005332,45.76364470,406.324
3.11005427,45.76364601,406.315
3.11005544,45.76364725,406.312
3.11005670,45.76364851,406.308
3.11005802,45.76364970,406.315
3.11005932,45.76365088,406.307
3.11006072,45.76365216,406.313
3.11006208,45.76365336,406.302
3.11006346,45.76365459,406.303
3.11006490,45.76365584,406.305
3.11006650,45.76365707,406.3
3.11006810,45.76365811,406.294
3.11006976,45.76365917,406.298
3.11007137,45.76366024,406.293
3.11007298,45.76366118,406.292
3.11007457,45.76366221,406.291
3.11007605,45.76366322,406.284
3.11007765,45.76366424,406.282
3.11007914,45.76366522,406.279
3.11008059,45.76366617,406.264
3.11008219,45.76366712,406.261
3.11008376,45.76366794,406.256
3.11008543,45.76366879,406.255
3.11008719,45.76366966,406.256
3.11008882,45.76367048,406.248
3.11009039,45.76367139,406.238
3.11009201,45.76367244,406.239
3.11009362,45.76367332,406.23
3.11009520,45.76367418,406.223
3.11009695,45.76367503,406.219
3.11009873,45.76367590,406.208
3.11010053,45.76367665,406.209
3.11010229,45.76367739,406.195
3.11010407,45.76367816,406.19
3.11010592,45.76367894,406.191
3.11010775,45.76367964,406.184
3.11010958,45.76368028,406.184
3.11011137,45.76368089,406.177
3.11011326,45.76368145,406.181
3.11011515,45.76368196,406.176
3.11011705,45.76368246,406.182
3.11011889,45.76368303,406.184
3.11012065,45.76368356,406.177
3.11012246,45.76368415,406.18
3.11012430,45.76368470,406.178
3.11012616,45.76368523,406.176
3.11012801,45.76368573,406.177
3.11012987,45.76368622,406.171
3.11013180,45.76368682,406.17
3.11013365,45.76368737,406.157
3.11013565,45.76368786,406.144
3.11013760,45.76368829,406.147
3.11013968,45.76368861,406.149
3.11014180,45.76368889,406.142
3.11014400,45.76368918,406.149
3.11014615,45.76368951,406.15
3.11014822,45.76368978,406.157
3.11015024,45.76369012,406.156
3.11015227,45.76369049,406.146
3.11015436,45.76369073,406.154
3.11015641,45.76369084,406.161
3.11015853,45.76369087,406.146
3.11016057,45.76369090,406.135
3.11016278,45.76369096,406.153
3.11016480,45.76369106,406.149
3.11016680,45.76369096,406.141
3.11016869,45.76369096,406.125
3.11017066,45.76369106,406.15
3.11017269,45.76369098,406.108
3.11017469,45.76369096,406.154
3.11017666,45.76369092,406.156
3.11017859,45.76369094,406.147
3.11018065,45.76369096,406.172
3.11018241,45.76369098,406.174
3.11018436,45.76369082,406.159
3.11018645,45.76369080,406.187
3.11018846,45.76369075,406.168
3.11019038,45.76369063,406.219
3.11019227,45.76369073,406.162
3.11019407,45.76369081,406.111
3.11019643,45.76369094,406.102
3.11019777,45.76369100,406.041
3.11019918,45.76369135,406.003
3.11020101,45.76369074,406.02
3.11020288,45.76369039,405.982
3.11020485,45.76369011,405.952
3.11020655,45.76368990,405.963
3.11020829,45.76369003,405.922
3.11020991,45.76368991,405.896
3.11021172,45.76368956,405.902
3.11021516,45.76368967,406.07
3.11021691,45.76368976,406.037
3.11021876,45.76368975,406.052
3.11022080,45.76368965,406.028
3.11022319,45.76368968,406.06
3.11022502,45.76368948,406.062
3.11022657,45.76368920,406.016
3.11022822,45.76368866,406.041
3.11023027,45.76368796,406.1
3.11023202,45.76368728,406.149
3.11023390,45.76368659,406.212
3.11023563,45.76368603,406.225
3.11023724,45.76368565,406.235
3.11023969,45.76368501,406.344
3.11024180,45.76368462,406.411
3.11024361,45.76368438,406.415
3.11024554,45.76368408,406.456
3.11024744,45.76368379,406.469
3.11024945,45.76368353,406.501
3.11025114,45.76368339,406.464
3.11025307,45.76368313,406.479
3.11025490,45.76368288,406.478
3.11025681,45.76368267,406.464
3.11025872,45.76368229,406.474
3.11026081,45.76368200,406.491
3.11026291,45.76368158,406.511
3.11026488,45.76368122,406.518
3.11026694,45.76368078,406.531
3.11026904,45.76368038,406.544
3.11027100,45.76368002,406.542
3.11027295,45.76367966,406.535
3.11027500,45.76367926,406.549
3.11027715,45.76367890,406.572
3.11027914,45.76367848,406.586
3.11028119,45.76367810,406.608
3.11028310,45.76367769,406.622
3.11028508,45.76367727,406.633
3.11028719,45.76367681,406.673
3.11028917,45.76367631,406.692
3.11029084,45.76367588,406.696
3.11029251,45.76367546,406.696
3.11029410,45.76367513,406.704
3.11029561,45.76367484,406.707
3.11029689,45.76367462,406.709
3.11029806,45.76367437,406.72
3.11029900,45.76367420,406.71
3.11029964,45.76367401,406.706
3.11030003,45.76367386,406.699
3.11030028,45.76367375,406.692
3.11030513,45.76369230,406.68
3.11030538,45.76369229,406.678
3.11030565,45.76369232,406.675
3.11030599,45.76369234,406.67
3.11030642,45.76369229,406.666
3.11030690,45.76369218,406.668
3.11030739,45.76369203,406.68
3.11030789,45.76369186,406.687
3.11030848,45.76369168,406.689
3.11030915,45.76369150,406.702
3.11030757,45.76367823,406.067
3.11030838,45.76367800,406.065
3.11030925,45.76367776,406.07
3.11031014,45.76367751,406.067
3.11031104,45.76367718,406.075
3.11031190,45.76367682,406.073
3.11031272,45.76367649,406.071
3.11031351,45.76367613,406.066
3.11031433,45.76367576,406.066
3.11031518,45.76367536,406.075
3.11031597,45.76367507,406.067
3.11031675,45.76367473,406.067
3.11031741,45.76367434,406.071
3.11031808,45.76367389,406.065
3.11031883,45.76367346,406.067
3.11031959,45.76367304,406.075
3.11032044,45.76367263,406.088
3.11032118,45.76367217,406.097
3.11032190,45.76367172,406.098
3.11032273,45.76367132,406.104
3.11032355,45.76367092,406.099
3.11032441,45.76367055,406.099
3.11032534,45.76367019,406.095
3.11032630,45.76366984,406.092
3.11032725,45.76366948,406.091
3.11032819,45.76366907,406.085
3.11032917,45.76366859,406.072
3.11033022,45.76366805,406.065
3.11033136,45.76366748,406.065
3.11033253,45.76366691,406.055
3.11033366,45.76366630,406.05
3.11033471,45.76366566,406.048
3.11033589,45.76366509,406.053
3.11033699,45.76366451,406.038
3.11033799,45.76366396,406.035
3.11033876,45.76366345,406.037
3.11033951,45.76366294,406.04
3.11034006,45.76366241,406.043
3.11034049,45.76366188,406.044
3.11034090,45.76366137,406.05
3.11034127,45.76366085,406.05
3.11034163,45.76366037,406.058
3.11034201,45.76365991,406.06
3.11034250,45.76365945,406.066
3.11034291,45.76365901,406.059
3.11034337,45.76365861,406.062
3.11034385,45.76365813,406.065
3.11034429,45.76365760,406.065
3.11034474,45.76365711,406.076
3.11034515,45.76365653,406.072
3.11034568,45.76365597,406.075
3.11034623,45.76365541,406.079
3.11034683,45.76365475,406.073
3.11034739,45.76365403,406.08
3.11034784,45.76365328,406.081
3.11034833,45.76365253,406.084
3.11034893,45.76365187,406.075
3.11034953,45.76365121,406.061
3.11035012,45.76365058,406.061
3.11035074,45.76365002,406.05
3.11035146,45.76364955,406.04
3.11035222,45.76364911,406.029
3.11035294,45.76364865,406.017
3.11035358,45.76364815,406.018
3.11035415,45.76364758,406.01
3.11035476,45.76364699,406.001
3.11035523,45.76364635,405.996
3.11035574,45.76364574,405.994
3.11035617,45.76364511,405.992
3.11035680,45.76364446,405.975
3.11035745,45.76364389,405.966
3.11035799,45.76364334,405.97
3.11035868,45.76364280,405.967
3.11035933,45.76364227,405.965
3.11035994,45.76364166,405.962
3.11036047,45.76364109,405.929
3.11036102,45.76364049,405.928
3.11036155,45.76363995,405.923
3.11036204,45.76363941,405.916
3.11036250,45.76363892,405.921
3.11036290,45.76363834,405.925
3.11036314,45.76363782,405.924
3.11036340,45.76363729,405.93
3.11036352,45.76363672,405.938
3.11036376,45.76363619,405.941
3.11036401,45.76363564,405.945
3.11036430,45.76363512,405.947
3.11036468,45.76363459,405.957
3.11036493,45.76363402,405.956
3.11036534,45.76363344,405.973
3.11036571,45.76363286,405.967
3.11036611,45.76363222,405.969
3.11036644,45.76363154,405.973
3.11036681,45.76363085,405.974
3.11036717,45.76363011,405.973
3.11036758,45.76362937,405.97
3.11036804,45.76362872,405.969
3.11036857,45.76362809,405.97
3.11036909,45.76362742,405.968
3.11036965,45.76362669,405.97
3.11037009,45.76362589,405.96
3.11037050,45.76362510,405.963
3.11037092,45.76362430,405.961
3.11037130,45.76362342,405.945
3.11037163,45.76362238,405.949
3.11037209,45.76362135,405.948
3.11037251,45.76362034,405.958
3.11037291,45.76361917,405.964
3.11037328,45.76361796,405.987
3.11037372,45.76361666,405.98
3.11037422,45.76361513,405.977
3.11037496,45.76361384,405.976
3.11037600,45.76361259,405.937
3.11037703,45.76361144,405.961
3.11037803,45.76361029,405.957
3.11037907,45.76360919,405.942
3.11038032,45.76360782,405.916
3.11038104,45.76360649,405.911
3.11038232,45.76360517,405.913
3.11038313,45.76360384,405.934
3.11038386,45.76360248,405.927
3.11038398,45.76360081,405.903
3.11038494,45.76359959,405.909
3.11038531,45.76359811,405.902
3.11038611,45.76359671,405.895
3.11038694,45.76359558,405.962
3.11038765,45.76359428,405.988
3.11038848,45.76359292,405.987
3.11038901,45.76359161,405.984
3.11038973,45.76359023,405.981
3.11039052,45.76358894,406.002
3.11039119,45.76358782,406.015
3.11039193,45.76358652,406.035
3.11039273,45.76358528,406.037
3.11039360,45.76358398,406.025
3.11039452,45.76358274,406.031
3.11039571,45.76358143,406.041
3.11039657,45.76358013,406.044
3.11039738,45.76357893,406.051
3.11039834,45.76357759,406.049
3.11039922,45.76357633,406.046
3.11039994,45.76357501,406.018
3.11040059,45.76357371,406.032
3.11040137,45.76357241,406.04
3.11040211,45.76357110,406.046
3.11040292,45.76356983,406.081
3.11040370,45.76356856,406.081
3.11040448,45.76356733,406.069
3.11040530,45.76356611,406.082
3.11040600,45.76356489,406.085
3.11040689,45.76356369,406.063
3.11040772,45.76356241,406.066
3.11040871,45.76356121,406.072
3.11040968,45.76356012,406.074
3.11041056,45.76355903,406.078
3.11041162,45.76355789,406.084
3.11041265,45.76355671,406.086
3.11041347,45.76355548,406.089
3.11041425,45.76355425,406.102
3.11041510,45.76355303,406.118
3.11041611,45.76355190,406.127
3.11041719,45.76355076,406.131
3.11041818,45.76354962,406.109
3.11041927,45.76354845,406.118
3.11042016,45.76354730,406.119
3.11042113,45.76354623,406.147
3.11042221,45.76354502,406.144
3.11042307,45.76354382,406.147
3.11042417,45.76354261,406.138
3.11042516,45.76354145,406.142
3.11042628,45.76354014,406.125
3.11042745,45.76353893,406.107
3.11042834,45.76353771,406.109
3.11042935,45.76353662,406.124
3.11043024,45.76353534,406.121
3.11043129,45.76353421,406.136
3.11043200,45.76353306,406.139
3.11043296,45.76353179,406.122
3.11043419,45.76353084,406.142
3.11043522,45.76352973,406.147
3.11043631,45.76352843,406.139
3.11043727,45.76352723,406.137
3.11043801,45.76352599,406.161
3.11043901,45.76352483,406.151
3.11043984,45.76352362,406.158
3.11044099,45.76352249,406.136
3.11044177,45.76352132,406.149
3.11044288,45.76352011,406.151
3.11044413,45.76351909,406.144
3.11044531,45.76351796,406.127
3.11044647,45.76351684,406.149
3.11044738,45.76351587,406.157
3.11044854,45.76351465,406.142
3.11044967,45.76351344,406.128
3.11045052,45.76351237,406.158
3.11045169,45.76351125,406.162
3.11045275,45.76351016,406.157
3.11045393,45.76350929,406.198
3.11045508,45.76350833,406.227
3.11045591,45.76350678,406.165
3.11045759,45.76350640,406.241
3.11045865,45.76350512,406.231
3.11045992,45.76350398,406.219
3.11046087,45.76350294,406.24
3.11046185,45.76350174,406.249
3.11046307,45.76350054,406.217
3.11046404,45.76349961,406.296
3.11046506,45.76349829,406.241
3.11046638,45.76349753,406.273
3.11046772,45.76349642,406.252
3.11046851,45.76349544,406.228
3.11046974,45.76349464,406.289
3.11047088,45.76349340,406.266
3.11047196,45.76349236,406.258
3.11047304,45.76349141,406.285
3.11047412,45.76349025,406.265
3.11047515,45.76348870,406.176
3.11047633,45.76348778,406.21
3.11047749,45.76348666,406.189
3.11047881,45.76348557,406.181
3.11047976,45.76348465,406.239
3.11048094,45.76348353,406.253
3.11048233,45.76348239,406.24
3.11048346,45.76348137,406.272
3.11048492,45.76348028,406.277
3.11048597,45.76347890,406.276
3.11048746,45.76347770,406.269
3.11048903,45.76347679,406.281
3.11049058,45.76347576,406.283
3.11049198,45.76347478,406.303
3.11049343,45.76347363,406.334
3.11049492,45.76347264,406.362
3.11049622,45.76347149,406.362
3.11049746,45.76347043,406.366
3.11049876,45.76346922,406.378
3.11049979,45.76346821,406.382
3.11050089,45.76346719,406.379
3.11050211,45.76346598,406.365
3.11050330,45.76346495,406.385
3.11050454,45.76346394,406.373
3.11050605,45.76346276,406.385
3.11050730,45.76346169,406.382
3.11050851,45.76346071,406.383
3.11050956,45.76345950,406.397
3.11051046,45.76345827,406.385
3.11051166,45.76345706,406.411
3.11051306,45.76345588,406.417
3.11051443,45.76345497,406.44
3.11051616,45.76345403,406.443
3.11051789,45.76345326,406.424
3.11051952,45.76345243,406.397
3.11052119,45.76345155,406.412
3.11052250,45.76345049,406.413
3.11052369,45.76344930,406.407
3.11052483,45.76344803,406.436
3.11052581,45.76344673,406.445
3.11052692,45.76344535,406.438
3.11052816,45.76344421,406.444
3.11052953,45.76344313,406.447
3.11053084,45.76344187,406.459
3.11053190,45.76344057,406.467
3.11053282,45.76343927,406.454
3.11053383,45.76343787,406.471
3.11053464,45.76343653,406.487
3.11053550,45.76343521,406.481
3.11053642,45.76343381,406.483
3.11053772,45.76343248,406.525
3.11053885,45.76343130,406.512
3.11054000,45.76343002,406.516
3.11054096,45.76342863,406.537
3.11054138,45.76342732,406.492
3.11054196,45.76342588,406.504
3.11054267,45.76342457,406.513
3.11054342,45.76342334,406.526
3.11054406,45.76342211,406.529
3.11054521,45.76342103,406.521
3.11054628,45.76341996,406.529
3.11054730,45.76341884,406.529
3.11054824,45.76341766,406.514
3.11054905,45.76341645,406.52
3.11054940,45.76341509,406.489
3.11054993,45.76341371,406.5
3.11055081,45.76341239,406.501
3.11055195,45.76341111,406.51
3.11055314,45.76341004,406.503
3.11055458,45.76340920,406.487
3.11055627,45.76340839,406.486
3.11055807,45.76340749,406.469
3.11055941,45.76340657,406.459
3.11056062,45.76340545,406.483
3.11056144,45.76340425,406.468
3.11056201,45.76340292,406.48
3.11056256,45.76340151,406.494
3.11056320,45.76340008,406.506
3.11056392,45.76339872,406.502
3.11056495,45.76339746,406.514
3.11056633,45.76339605,406.54
3.11056753,45.76339489,406.543
3.11056878,45.76339347,406.553
3.11056997,45.76339217,406.57
3.11057095,45.76339090,406.568
3.11057226,45.76338953,406.572
3.11057321,45.76338825,406.561
3.11057439,45.76338707,406.561
3.11057556,45.76338566,406.562
3.11057658,45.76338443,406.56
3.11057742,45.76338314,406.548
3.11057836,45.76338170,406.545
3.11057929,45.76338042,406.542
3.11058027,45.76337908,406.522
3.11058143,45.76337765,406.536
3.11058236,45.76337639,406.519
3.11058337,45.76337505,406.505
3.11058396,45.76337364,406.504
3.11058446,45.76337228,406.498
3.11058469,45.76337094,406.495
3.11058464,45.76336946,406.491
3.11058457,45.76336793,406.499
3.11058468,45.76336639,406.507
3.11058479,45.76336498,406.506
3.11058487,45.76336352,406.504
3.11058518,45.76336185,406.532
3.11058515,45.76336031,406.531
3.11058525,45.76335879,406.542
3.11058513,45.76335721,406.546
3.11058501,45.76335576,406.556
3.11058479,45.76335427,406.561
3.11058474,45.76335281,406.57
3.11058449,45.76335140,406.575
3.11058434,45.76334985,406.577
3.11058423,45.76334853,406.576
3.11058409,45.76334707,406.574
3.11058402,45.76334552,406.582
3.11058396,45.76334407,406.572
3.11058410,45.76334262,406.572
3.11058416,45.76334111,406.544
3.11058413,45.76333959,406.549
3.11058393,45.76333816,406.54
3.11058360,45.76333666,406.546
3.11058319,45.76333519,406.55
3.11058274,45.76333364,406.571
3.11058228,45.76333223,406.568
3.11058215,45.76333071,406.568
3.11058208,45.76332921,406.57
3.11058196,45.76332789,406.584
3.11058147,45.76332652,406.562
3.11058105,45.76332516,406.569
3.11058058,45.76332378,406.566
3.11058022,45.76332241,406.575
3.11057979,45.76332107,406.581
3.11057951,45.76331961,406.576
3.11057938,45.76331825,406.557
3.11057945,45.76331692,406.538
3.11057927,45.76331559,406.541
3.11057897,45.76331430,406.529
3.11057875,45.76331295,406.547
3.11057843,45.76331153,406.545
3.11057812,45.76331019,406.558
3.11057791,45.76330894,406.55
3.11057779,45.76330752,406.553
3.11057752,45.76330622,406.561
3.11057733,45.76330487,406.577
3.11057714,45.76330349,406.568
3.11057679,45.76330214,406.571
3.11057637,45.76330088,406.567
3.11057600,45.76329952,406.564
3.11057608,45.76329816,406.557
3.11057619,45.76329684,406.555
3.11057602,45.76329545,406.56
3.11057580,45.76329418,406.552
3.11057546,45.76329283,406.566
3.11057537,45.76329129,406.576
3.11057512,45.76328986,406.573
3.11057493,45.76328844,406.583
3.11057468,45.76328703,406.58
3.11057448,45.76328564,406.568
3.11057444,45.76328420,406.564
3.11057448,45.76328291,406.565
3.11057444,45.76328175,406.569
3.11057425,45.76328074,406.568
3.11057402,45.76327982,406.582
3.11057396,45.76327911,406.588
3.11057391,45.76327860,406.58
3.11057391,45.76327828,406.58
3.11057394,45.76327819,406.577
3.11057398,45.76327820,406.572
3.11057404,45.76327827,406.572
3.11057401,45.76327835,406.572
3.11057391,45.76327833,406.568
3.11057386,45.76327826,406.569
3.11057395,45.76327830,406.568
        </coordinates> 
      </LineString> 
    </Placemark> 
  </Document> 
</kml> 
