<?xml version="1.0" encoding="UTF-8"?> 
<kml xmlns="http://www.opengis.net/kml/2.2" 
     xmlns:gx="http://www.google.com/kml/ext/2.2" 
     xmlns:kml="http://www.opengis.net/kml/2.2"
     xmlns:atom="http://www.w3.org/2005/Atom"> 
  <Document> 
    <name>gps_traj.kml</name> 
    <Placemark> 
      <name>Trajectoire</name> 
      <LineString> 
        <tessellate>1</tessellate> 
        <coordinates> 
3.43552483,46.33832126,278.494
3.43552484,46.33832126,278.495
3.43552485,46.33832125,278.495
3.43552485,46.33832127,278.493
3.43552485,46.33832127,278.494
3.43552484,46.33832126,278.491
3.43552484,46.33832126,278.491
3.43552484,46.33832126,278.493
3.43552484,46.33832126,278.493
3.43552484,46.33832126,278.493
3.43552483,46.33832125,278.492
3.43552484,46.33832124,278.493
3.43552483,46.33832124,278.491
3.43552483,46.33832123,278.494
3.43552483,46.33832124,278.493
3.43552482,46.33832123,278.494
3.43552482,46.33832123,278.495
3.43552482,46.33832123,278.496
3.43552482,46.33832124,278.498
3.43552481,46.33832124,278.494
3.43552481,46.33832123,278.496
3.43552480,46.33832123,278.495
3.43552473,46.33832128,278.494
3.43552453,46.33832143,278.493
3.43552420,46.33832169,278.488
3.43552372,46.33832208,278.49
3.43552323,46.33832247,278.503
3.43552275,46.33832280,278.501
3.43552214,46.33832330,278.499
3.43552156,46.33832372,278.504
3.43552084,46.33832438,278.526
3.43551986,46.33832523,278.514
3.43551877,46.33832614,278.518
3.43551728,46.33832716,278.531
3.43551565,46.33832818,278.527
3.43551387,46.33832947,278.545
3.43551247,46.33833084,278.574
3.43551094,46.33833225,278.568
3.43550945,46.33833370,278.576
3.43550803,46.33833509,278.617
3.43550637,46.33833611,278.638
3.43550456,46.33833736,278.639
3.43550275,46.33833861,278.656
3.43550110,46.33834003,278.65
3.43549945,46.33834146,278.647
3.43549774,46.33834288,278.677
3.43549599,46.33834419,278.68
3.43549412,46.33834552,278.691
3.43549236,46.33834685,278.683
3.43549067,46.33834820,278.695
3.43548908,46.33834954,278.705
3.43548755,46.33835099,278.717
3.43548579,46.33835234,278.711
3.43548411,46.33835356,278.725
3.43548238,46.33835481,278.707
3.43548078,46.33835606,278.718
3.43547914,46.33835740,278.728
3.43547755,46.33835879,278.721
3.43547602,46.33836013,278.739
3.43547445,46.33836142,278.742
3.43547291,46.33836273,278.757
3.43547119,46.33836401,278.764
3.43546964,46.33836527,278.764
3.43546803,46.33836654,278.788
3.43546635,46.33836807,278.758
3.43546482,46.33836939,278.778
3.43546316,46.33837074,278.781
3.43546162,46.33837205,278.787
3.43546002,46.33837339,278.795
3.43545846,46.33837474,278.805
3.43545683,46.33837612,278.821
3.43545523,46.33837748,278.82
3.43545375,46.33837889,278.825
3.43545213,46.33838026,278.83
3.43545061,46.33838148,278.862
3.43544891,46.33838283,278.868
3.43544741,46.33838421,278.87
3.43544572,46.33838541,278.866
3.43544415,46.33838686,278.88
3.43544255,46.33838812,278.9
3.43544093,46.33838948,278.904
3.43543937,46.33839083,278.905
3.43543772,46.33839215,278.917
3.43543609,46.33839342,278.911
3.43543467,46.33839485,278.919
3.43543327,46.33839633,278.936
3.43543186,46.33839774,278.953
3.43543028,46.33839916,278.957
3.43542856,46.33840048,278.964
3.43542676,46.33840170,278.967
3.43542520,46.33840309,278.969
3.43542371,46.33840441,278.97
3.43542218,46.33840590,278.985
3.43542068,46.33840728,278.991
3.43541913,46.33840862,278.996
3.43541768,46.33840997,278.999
3.43541621,46.33841143,279.017
3.43541471,46.33841283,279.028
3.43541324,46.33841424,279.032
3.43541178,46.33841574,279.024
3.43541027,46.33841708,279.034
3.43540871,46.33841841,279.032
3.43540713,46.33841977,279.048
3.43540563,46.33842112,279.059
3.43540409,46.33842249,279.07
3.43540255,46.33842390,279.077
3.43540101,46.33842524,279.075
3.43539956,46.33842666,279.09
3.43539803,46.33842804,279.096
3.43539651,46.33842948,279.117
3.43539493,46.33843093,279.113
3.43539331,46.33843226,279.128
3.43539176,46.33843373,279.137
3.43539033,46.33843512,279.148
3.43538886,46.33843651,279.142
3.43538731,46.33843795,279.141
3.43538580,46.33843934,279.155
3.43538413,46.33844071,279.161
3.43538252,46.33844200,279.163
3.43538096,46.33844333,279.166
3.43537939,46.33844472,279.159
3.43537800,46.33844613,279.171
3.43537644,46.33844757,279.171
3.43537489,46.33844897,279.175
3.43537340,46.33845032,279.199
3.43537204,46.33845169,279.195
3.43537061,46.33845313,279.204
3.43536901,46.33845446,279.212
3.43536743,46.33845582,279.216
3.43536593,46.33845712,279.234
3.43536443,46.33845851,279.239
3.43536292,46.33845985,279.24
3.43536141,46.33846122,279.24
3.43535979,46.33846248,279.25
3.43535808,46.33846372,279.252
3.43535648,46.33846508,279.266
3.43535508,46.33846652,279.273
3.43535376,46.33846799,279.291
3.43535236,46.33846943,279.286
3.43535077,46.33847082,279.291
3.43534919,46.33847215,279.299
3.43534755,46.33847349,279.307
3.43534601,46.33847490,279.321
3.43534448,46.33847625,279.324
3.43534307,46.33847767,279.334
3.43534159,46.33847906,279.344
3.43534007,46.33848045,279.355
3.43533847,46.33848175,279.35
3.43533694,46.33848319,279.366
3.43533536,46.33848450,279.372
3.43533374,46.33848589,279.372
3.43533222,46.33848729,279.376
3.43533066,46.33848866,279.382
3.43532912,46.33849000,279.392
3.43532758,46.33849142,279.395
3.43532609,46.33849285,279.406
3.43532455,46.33849421,279.406
3.43532304,46.33849561,279.413
3.43532148,46.33849701,279.416
3.43531995,46.33849835,279.435
3.43531842,46.33849975,279.438
3.43531688,46.33850113,279.446
3.43531541,46.33850252,279.443
3.43531391,46.33850392,279.459
3.43531235,46.33850523,279.455
3.43531076,46.33850664,279.466
3.43530921,46.33850797,279.476
3.43530761,46.33850944,279.476
3.43530609,46.33851085,279.489
3.43530460,46.33851221,279.491
3.43530301,46.33851364,279.5
3.43530148,46.33851505,279.502
3.43529992,46.33851648,279.512
3.43529844,46.33851788,279.517
3.43529695,46.33851935,279.52
3.43529545,46.33852071,279.531
3.43529391,46.33852212,279.536
3.43529241,46.33852348,279.547
3.43529087,46.33852481,279.545
3.43528938,46.33852626,279.561
3.43528792,46.33852767,279.562
3.43528633,46.33852903,279.561
3.43528483,46.33853041,279.566
3.43528327,46.33853177,279.569
3.43528177,46.33853316,279.578
3.43528034,46.33853457,279.584
3.43527885,46.33853596,279.584
3.43527735,46.33853734,279.591
3.43527579,46.33853874,279.603
3.43527423,46.33854006,279.605
3.43527268,46.33854144,279.613
3.43527122,46.33854282,279.617
3.43526969,46.33854422,279.623
3.43526814,46.33854559,279.628
3.43526664,46.33854690,279.631
3.43526511,46.33854829,279.637
3.43526351,46.33854964,279.646
3.43526193,46.33855098,279.644
3.43526045,46.33855234,279.654
3.43525890,46.33855370,279.659
3.43525730,46.33855506,279.661
3.43525578,46.33855644,279.671
3.43525422,46.33855781,279.677
3.43525265,46.33855920,279.683
3.43525113,46.33856056,279.684
3.43524959,46.33856195,279.698
3.43524814,46.33856335,279.702
3.43524662,46.33856475,279.707
3.43524504,46.33856609,279.714
3.43524342,46.33856743,279.714
3.43524177,46.33856874,279.721
3.43524013,46.33857009,279.723
3.43523849,46.33857148,279.733
3.43523695,46.33857285,279.737
3.43523551,46.33857428,279.744
3.43523408,46.33857577,279.747
3.43523257,46.33857718,279.752
3.43523097,46.33857851,279.753
3.43522931,46.33857985,279.758
3.43522770,46.33858119,279.763
3.43522615,46.33858256,279.768
3.43522454,46.33858393,279.769
3.43522297,46.33858529,279.777
3.43522140,46.33858667,279.779
3.43521984,46.33858806,279.782
3.43521823,46.33858942,279.784
3.43521657,46.33859077,279.787
3.43521498,46.33859214,279.796
3.43521347,46.33859354,279.795
3.43521197,46.33859493,279.801
3.43521045,46.33859633,279.812
3.43520896,46.33859772,279.818
3.43520737,46.33859905,279.817
3.43520572,46.33860033,279.82
3.43520411,46.33860163,279.824
3.43520257,46.33860303,279.832
3.43520109,46.33860439,279.839
3.43519960,46.33860578,279.842
3.43519811,46.33860715,279.846
3.43519656,46.33860853,279.849
3.43519504,46.33860987,279.854
3.43519354,46.33861128,279.857
3.43519202,46.33861265,279.861
3.43519042,46.33861401,279.865
3.43518879,46.33861536,279.875
3.43518715,46.33861666,279.876
3.43518553,46.33861798,279.884
3.43518390,46.33861936,279.888
3.43518234,46.33862072,279.897
3.43518085,46.33862211,279.903
3.43517936,46.33862354,279.906
3.43517788,46.33862499,279.918
3.43517644,46.33862636,279.922
3.43517501,46.33862772,279.93
3.43517341,46.33862909,279.933
3.43517164,46.33863034,279.928
3.43516989,46.33863160,279.926
3.43516818,46.33863292,279.929
3.43516654,46.33863421,279.928
3.43516505,46.33863555,279.936
3.43516342,46.33863696,279.947
3.43516194,46.33863827,279.95
3.43516030,46.33863964,279.947
3.43515876,46.33864097,279.966
3.43515732,46.33864240,279.975
3.43515583,46.33864381,279.984
3.43515430,46.33864519,279.991
3.43515261,46.33864655,279.987
3.43515093,46.33864784,279.989
3.43514920,46.33864924,279.999
3.43514773,46.33865062,280.006
3.43514624,46.33865206,280.012
3.43514479,46.33865358,280.021
3.43514332,46.33865499,280.024
3.43514182,46.33865634,280.032
3.43514026,46.33865772,280.027
3.43513863,46.33865908,280.031
3.43513706,46.33866043,280.039
3.43513550,46.33866181,280.038
3.43513401,46.33866318,280.035
3.43513252,46.33866461,280.049
3.43513103,46.33866605,280.048
3.43512953,46.33866747,280.054
3.43512804,46.33866893,280.056
3.43512661,46.33867039,280.064
3.43512507,46.33867180,280.069
3.43512360,46.33867322,280.071
3.43512210,46.33867466,280.072
3.43512072,46.33867610,280.086
3.43511933,46.33867758,280.094
3.43511786,46.33867901,280.094
3.43511649,46.33868048,280.111
3.43511512,46.33868196,280.104
3.43511382,46.33868344,280.11
3.43511252,46.33868489,280.111
3.43511109,46.33868636,280.117
3.43510972,46.33868777,280.129
3.43510832,46.33868920,280.131
3.43510695,46.33869064,280.139
3.43510557,46.33869208,280.145
3.43510418,46.33869353,280.153
3.43510272,46.33869495,280.159
3.43510121,46.33869631,280.162
3.43509967,46.33869772,280.164
3.43509822,46.33869913,280.169
3.43509685,46.33870061,280.179
3.43509548,46.33870207,280.181
3.43509416,46.33870359,280.189
3.43509272,46.33870501,280.186
3.43509127,46.33870641,280.195
3.43508979,46.33870783,280.197
3.43508831,46.33870926,280.197
3.43508689,46.33871071,280.211
3.43508547,46.33871219,280.193
3.43508402,46.33871365,280.208
3.43508256,46.33871511,280.211
3.43508110,46.33871658,280.214
3.43507972,46.33871795,280.217
3.43507847,46.33871920,280.229
3.43507735,46.33872032,280.234
3.43507635,46.33872131,280.237
3.43507550,46.33872213,280.239
3.43507482,46.33872274,280.247
3.43507430,46.33872322,280.242
3.43507399,46.33872355,280.235
3.43507389,46.33872369,280.231
3.43507393,46.33872368,280.233
3.43507406,46.33872360,280.234
3.43507410,46.33872352,280.242
3.43507405,46.33872350,280.242
3.43507398,46.33872356,280.239
3.43507402,46.33872356,280.238
3.43507405,46.33872353,280.236
3.43507404,46.33872356,280.236
3.43507407,46.33872354,280.237
3.43507408,46.33872352,280.24
3.43507405,46.33872351,280.24
3.43507408,46.33872353,280.236
3.43507410,46.33872354,280.237
3.43507407,46.33872352,280.243
3.43507407,46.33872353,280.241
3.43507406,46.33872353,280.239
3.43507407,46.33872352,280.241
3.43507405,46.33872353,280.241
3.43507406,46.33872353,280.237
        </coordinates> 
      </LineString> 
    </Placemark> 
  </Document> 
</kml> 
