<?xml version="1.0" encoding="UTF-8"?> 
<kml xmlns="http://www.opengis.net/kml/2.2" 
     xmlns:gx="http://www.google.com/kml/ext/2.2" 
     xmlns:kml="http://www.opengis.net/kml/2.2"
     xmlns:atom="http://www.w3.org/2005/Atom"> 
  <Document> 
    <name>gps_traj.kml</name> 
    <Placemark> 
      <name>Trajectoire</name> 
      <LineString> 
        <tessellate>1</tessellate> 
        <coordinates> 
3.43070626,46.34087194,284.247
3.43070625,46.34087194,284.247
3.43070624,46.34087194,284.248
3.43070625,46.34087194,284.25
3.43070625,46.34087194,284.251
3.43070625,46.34087193,284.251
3.43070624,46.34087193,284.253
3.43070625,46.34087193,284.252
3.43070624,46.34087194,284.251
3.43070625,46.34087193,284.253
3.43070625,46.34087193,284.253
3.43070626,46.34087193,284.254
3.43070625,46.34087194,284.252
3.43070625,46.34087195,284.251
3.43070625,46.34087196,284.25
3.43070625,46.34087196,284.25
3.43070625,46.34087195,284.25
3.43070624,46.34087196,284.25
3.43070624,46.34087195,284.25
3.43070625,46.34087195,284.251
3.43070625,46.34087196,284.251
3.43070626,46.34087195,284.25
3.43070624,46.34087195,284.249
3.43070625,46.34087195,284.25
3.43070624,46.34087195,284.249
3.43070624,46.34087194,284.249
3.43070624,46.34087194,284.248
3.43070606,46.34087192,284.248
3.43070561,46.34087186,284.249
3.43070490,46.34087175,284.247
3.43070395,46.34087163,284.246
3.43070284,46.34087146,284.246
3.43070164,46.34087130,284.244
3.43070034,46.34087111,284.238
3.43069902,46.34087087,284.236
3.43069764,46.34087051,284.232
3.43069635,46.34087015,284.219
3.43069508,46.34086992,284.211
3.43069375,46.34086989,284.221
3.43069241,46.34086996,284.228
3.43069102,46.34087006,284.232
3.43068969,46.34087005,284.237
3.43068843,46.34086965,284.231
3.43068718,46.34086926,284.226
3.43068593,46.34086886,284.215
3.43068460,46.34086849,284.215
3.43068343,46.34086821,284.215
3.43068208,46.34086805,284.211
3.43068064,46.34086799,284.221
3.43067923,46.34086792,284.226
3.43067772,46.34086783,284.229
3.43067643,46.34086767,284.221
3.43067495,46.34086744,284.223
3.43067355,46.34086728,284.216
3.43067218,46.34086713,284.213
3.43067079,46.34086705,284.214
3.43066945,46.34086713,284.215
3.43066812,46.34086732,284.223
3.43066686,46.34086752,284.229
3.43066545,46.34086755,284.233
3.43066409,46.34086754,284.238
3.43066288,46.34086752,284.239
3.43066159,46.34086750,284.232
3.43066009,46.34086747,284.231
3.43065873,46.34086752,284.231
3.43065758,46.34086766,284.229
3.43065624,46.34086768,284.231
3.43065499,46.34086756,284.218
3.43065376,46.34086728,284.2
3.43065247,46.34086726,284.198
3.43065133,46.34086739,284.196
3.43065005,46.34086771,284.207
3.43064879,46.34086803,284.212
3.43064765,46.34086831,284.217
3.43064645,46.34086830,284.213
3.43064510,46.34086810,284.205
3.43064388,46.34086785,284.2
3.43064262,46.34086770,284.192
3.43064135,46.34086762,284.19
3.43064006,46.34086768,284.189
3.43063887,46.34086793,284.189
3.43063756,46.34086816,284.197
3.43063641,46.34086833,284.2
3.43063514,46.34086848,284.199
3.43063394,46.34086854,284.193
3.43063265,46.34086843,284.187
3.43063126,46.34086839,284.193
3.43063012,46.34086855,284.2
3.43062892,46.34086885,284.209
3.43062770,46.34086927,284.219
3.43062650,46.34086963,284.226
3.43062521,46.34086977,284.235
3.43062395,46.34086971,284.228
3.43062265,46.34086951,284.217
3.43062147,46.34086928,284.212
3.43062021,46.34086918,284.214
3.43061908,46.34086919,284.207
3.43061785,46.34086932,284.21
3.43061661,46.34086946,284.218
3.43061531,46.34086961,284.22
3.43061407,46.34086962,284.218
3.43061274,46.34086962,284.216
3.43061129,46.34086964,284.215
3.43060998,46.34086963,284.215
3.43060861,46.34086968,284.222
3.43060742,46.34086989,284.228
3.43060625,46.34087020,284.225
3.43060495,46.34087033,284.225
3.43060357,46.34087040,284.227
3.43060223,46.34087042,284.223
3.43060089,46.34087060,284.226
3.43059966,46.34087082,284.228
3.43059829,46.34087115,284.232
3.43059693,46.34087157,284.242
3.43059555,46.34087199,284.243
3.43059414,46.34087239,284.246
3.43059272,46.34087273,284.246
3.43059138,46.34087306,284.247
3.43059012,46.34087335,284.254
3.43058882,46.34087371,284.257
3.43058767,46.34087415,284.264
3.43058654,46.34087463,284.27
3.43058547,46.34087512,284.272
3.43058433,46.34087557,284.268
3.43058315,46.34087600,284.273
3.43058191,46.34087644,284.285
3.43058077,46.34087678,284.283
3.43057963,46.34087712,284.286
3.43057846,46.34087736,284.284
3.43057725,46.34087767,284.283
3.43057609,46.34087798,284.283
3.43057492,46.34087831,284.282
3.43057378,46.34087873,284.286
3.43057279,46.34087922,284.285
3.43057154,46.34087963,284.288
3.43057039,46.34087998,284.289
3.43056929,46.34088035,284.285
3.43056816,46.34088069,284.285
3.43056697,46.34088103,284.287
3.43056594,46.34088141,284.293
3.43056481,46.34088190,284.296
3.43056372,46.34088233,284.301
3.43056261,46.34088276,284.304
3.43056147,46.34088313,284.302
3.43056020,46.34088347,284.308
3.43055897,46.34088363,284.301
3.43055761,46.34088379,284.297
3.43055642,46.34088410,284.292
3.43055529,46.34088453,284.298
3.43055408,46.34088495,284.298
3.43055290,46.34088535,284.3
3.43055172,46.34088573,284.301
3.43055053,46.34088604,284.297
3.43054929,46.34088634,284.305
3.43054807,46.34088666,284.303
3.43054690,46.34088701,284.304
3.43054578,46.34088737,284.306
3.43054457,46.34088766,284.302
3.43054328,46.34088788,284.299
3.43054200,46.34088806,284.298
3.43054074,46.34088830,284.297
3.43053947,46.34088856,284.295
3.43053820,46.34088897,284.302
3.43053697,46.34088939,284.302
3.43053579,46.34088986,284.31
3.43053469,46.34089031,284.309
3.43053345,46.34089069,284.311
3.43053227,46.34089091,284.304
3.43053100,46.34089111,284.299
3.43052976,46.34089135,284.294
3.43052848,46.34089167,284.293
3.43052725,46.34089208,284.294
3.43052604,46.34089253,284.29
3.43052488,46.34089296,284.296
3.43052361,46.34089335,284.288
3.43052224,46.34089366,284.292
3.43052096,46.34089401,284.288
3.43051978,46.34089441,284.289
3.43051862,46.34089487,284.286
3.43051746,46.34089536,284.285
3.43051629,46.34089586,284.286
3.43051516,46.34089635,284.285
3.43051402,46.34089680,284.281
3.43051284,46.34089722,284.269
3.43051161,46.34089755,284.26
3.43051043,46.34089803,284.271
3.43050951,46.34089851,284.271
3.43050872,46.34089922,284.286
3.43050804,46.34090002,284.292
3.43050729,46.34090073,284.296
3.43050634,46.34090131,284.303
3.43050522,46.34090163,284.287
3.43050384,46.34090182,284.28
3.43050247,46.34090198,284.266
3.43050123,46.34090229,284.259
3.43050016,46.34090280,284.259
3.43049921,46.34090346,284.265
3.43049839,46.34090422,284.276
3.43049763,46.34090503,284.29
3.43049672,46.34090573,284.295
3.43049576,46.34090626,284.294
3.43049462,46.34090666,284.288
3.43049345,46.34090702,284.281
3.43049235,46.34090740,284.284
3.43049131,46.34090784,284.277
3.43049026,46.34090839,284.283
3.43048937,46.34090895,284.286
3.43048836,46.34090947,284.289
3.43048733,46.34090991,284.29
3.43048624,46.34091027,284.287
3.43048517,46.34091071,284.288
3.43048417,46.34091118,284.287
3.43048323,46.34091176,284.296
3.43048235,46.34091238,284.299
3.43048139,46.34091302,284.302
3.43048036,46.34091360,284.302
3.43047927,46.34091409,284.301
3.43047816,46.34091454,284.302
3.43047700,46.34091497,284.294
3.43047590,46.34091543,284.292
3.43047496,46.34091600,284.292
3.43047412,46.34091666,284.298
3.43047330,46.34091737,284.305
3.43047243,46.34091802,284.308
3.43047150,46.34091862,284.31
3.43047045,46.34091923,284.311
3.43046937,46.34091980,284.308
3.43046823,46.34092034,284.307
3.43046710,46.34092091,284.308
3.43046603,46.34092153,284.306
3.43046506,46.34092216,284.309
3.43046406,46.34092283,284.305
3.43046306,46.34092351,284.305
3.43046199,46.34092417,284.301
3.43046082,46.34092483,284.297
3.43045986,46.34092549,284.294
3.43045908,46.34092633,284.302
3.43045844,46.34092717,284.309
3.43045787,46.34092808,284.317
3.43045735,46.34092900,284.326
3.43045688,46.34092993,284.334
3.43045634,46.34093078,284.335
3.43045577,46.34093162,284.341
3.43045519,46.34093244,284.344
3.43045460,46.34093331,284.349
3.43045401,46.34093411,284.353
3.43045342,46.34093494,284.352
3.43045281,46.34093572,284.351
3.43045214,46.34093653,284.349
3.43045154,46.34093731,284.349
3.43045098,46.34093815,284.352
3.43045040,46.34093895,284.35
3.43044981,46.34093974,284.352
3.43044914,46.34094050,284.349
3.43044837,46.34094125,284.35
3.43044769,46.34094200,284.348
3.43044703,46.34094275,284.345
3.43044643,46.34094350,284.345
3.43044587,46.34094425,284.348
3.43044540,46.34094505,284.346
3.43044494,46.34094584,284.35
3.43044446,46.34094666,284.356
3.43044389,46.34094740,284.358
3.43044332,46.34094815,284.364
3.43044286,46.34094888,284.365
3.43044240,46.34094965,284.369
3.43044197,46.34095045,284.373
3.43044158,46.34095126,284.375
3.43044115,46.34095204,284.377
3.43044054,46.34095284,284.376
3.43043983,46.34095356,284.376
3.43043908,46.34095427,284.37
3.43043839,46.34095502,284.369
3.43043774,46.34095581,284.367
3.43043722,46.34095666,284.371
3.43043672,46.34095750,284.37
3.43043622,46.34095834,284.371
3.43043563,46.34095916,284.367
3.43043490,46.34095996,284.367
3.43043415,46.34096079,284.365
3.43043342,46.34096159,284.365
3.43043280,46.34096242,284.363
3.43043231,46.34096330,284.363
3.43043200,46.34096420,284.365
3.43043169,46.34096509,284.371
3.43043135,46.34096601,284.374
3.43043094,46.34096687,284.379
3.43043048,46.34096773,284.377
3.43042992,46.34096859,284.375
3.43042943,46.34096944,284.376
3.43042907,46.34097027,284.373
3.43042879,46.34097113,284.374
3.43042858,46.34097198,284.375
3.43042836,46.34097287,284.379
3.43042813,46.34097371,284.381
3.43042783,46.34097455,284.381
3.43042748,46.34097542,284.381
3.43042724,46.34097628,284.387
3.43042707,46.34097715,284.386
3.43042686,46.34097802,284.385
3.43042659,46.34097890,284.384
3.43042634,46.34097980,284.38
3.43042614,46.34098066,284.379
3.43042597,46.34098155,284.38
3.43042577,46.34098248,284.384
3.43042557,46.34098340,284.387
3.43042536,46.34098426,284.387
3.43042506,46.34098514,284.385
3.43042471,46.34098598,284.381
3.43042433,46.34098686,284.382
3.43042403,46.34098767,284.38
3.43042380,46.34098854,284.385
3.43042363,46.34098938,284.388
3.43042348,46.34099019,284.395
3.43042333,46.34099100,284.397
3.43042318,46.34099180,284.402
3.43042302,46.34099262,284.406
3.43042287,46.34099346,284.409
3.43042270,46.34099432,284.408
3.43042247,46.34099514,284.411
3.43042216,46.34099599,284.41
3.43042182,46.34099683,284.407
3.43042150,46.34099776,284.401
3.43042124,46.34099864,284.4
3.43042102,46.34099955,284.403
3.43042079,46.34100041,284.399
3.43042058,46.34100126,284.398
3.43042037,46.34100214,284.398
3.43042020,46.34100295,284.4
3.43041994,46.34100378,284.4
3.43041957,46.34100463,284.395
3.43041928,46.34100548,284.398
3.43041908,46.34100623,284.394
3.43041882,46.34100708,284.396
3.43041869,46.34100794,284.403
3.43041864,46.34100878,284.413
3.43041857,46.34100964,284.42
3.43041836,46.34101052,284.423
3.43041818,46.34101139,284.425
3.43041805,46.34101231,284.43
3.43041798,46.34101324,284.436
3.43041787,46.34101416,284.443
3.43041774,46.34101505,284.442
3.43041759,46.34101595,284.444
3.43041728,46.34101682,284.438
3.43041691,46.34101775,284.436
3.43041660,46.34101866,284.433
3.43041637,46.34101958,284.435
3.43041621,46.34102045,284.433
3.43041622,46.34102139,284.442
3.43041629,46.34102231,284.445
3.43041629,46.34102322,284.448
3.43041620,46.34102415,284.448
3.43041609,46.34102515,284.454
3.43041603,46.34102613,284.462
3.43041618,46.34102713,284.462
3.43041647,46.34102808,284.468
3.43041670,46.34102910,284.471
3.43041697,46.34103014,284.471
3.43041700,46.34103108,284.459
3.43041694,46.34103215,284.462
3.43041701,46.34103307,284.457
3.43041717,46.34103397,284.458
3.43041748,46.34103485,284.467
3.43041785,46.34103570,284.471
3.43041840,46.34103647,284.488
3.43041882,46.34103725,284.489
3.43041908,46.34103813,284.484
3.43041905,46.34103899,284.481
3.43041914,46.34103986,284.485
3.43041915,46.34104066,284.479
3.43041957,46.34104148,284.485
3.43042017,46.34104223,284.487
3.43042089,46.34104297,284.498
3.43042149,46.34104376,284.492
3.43042180,46.34104459,284.497
3.43042189,46.34104544,284.491
3.43042189,46.34104632,284.481
3.43042202,46.34104718,284.477
3.43042230,46.34104808,284.471
3.43042266,46.34104894,284.472
3.43042313,46.34104977,284.476
3.43042359,46.34105059,284.479
3.43042407,46.34105139,284.483
3.43042443,46.34105227,284.49
3.43042480,46.34105308,284.5
3.43042512,46.34105390,284.501
3.43042545,46.34105473,284.498
3.43042582,46.34105556,284.508
3.43042622,46.34105643,284.507
3.43042658,46.34105731,284.515
3.43042689,46.34105815,284.516
3.43042717,46.34105900,284.519
3.43042759,46.34105981,284.518
3.43042803,46.34106066,284.522
3.43042845,46.34106151,284.522
3.43042880,46.34106234,284.518
3.43042929,46.34106320,284.519
3.43042979,46.34106406,284.518
3.43043038,46.34106492,284.521
3.43043095,46.34106576,284.521
3.43043152,46.34106659,284.523
3.43043203,46.34106745,284.522
3.43043264,46.34106835,284.529
3.43043329,46.34106920,284.527
3.43043398,46.34107003,284.531
3.43043475,46.34107080,284.527
3.43043550,46.34107159,284.531
3.43043622,46.34107239,284.534
3.43043698,46.34107318,284.537
3.43043777,46.34107394,284.538
3.43043858,46.34107469,284.535
3.43043938,46.34107546,284.539
3.43044006,46.34107629,284.536
3.43044067,46.34107711,284.535
3.43044131,46.34107790,284.536
3.43044206,46.34107857,284.544
3.43044291,46.34107919,284.551
3.43044383,46.34107979,284.556
3.43044468,46.34108039,284.562
3.43044532,46.34108102,284.555
3.43044590,46.34108178,284.555
3.43044647,46.34108253,284.553
3.43044732,46.34108317,284.558
3.43044821,46.34108381,284.567
3.43044905,46.34108436,284.573
3.43044991,46.34108490,284.576
3.43045064,46.34108548,284.58
3.43045131,46.34108613,284.582
3.43045193,46.34108686,284.579
3.43045257,46.34108758,284.579
3.43045332,46.34108830,284.587
3.43045401,46.34108903,284.582
3.43045492,46.34108971,284.585
3.43045596,46.34109031,284.592
3.43045702,46.34109095,284.598
3.43045802,46.34109164,284.601
3.43045897,46.34109228,284.608
3.43045978,46.34109298,284.61
3.43046040,46.34109371,284.605
3.43046106,46.34109445,284.612
3.43046185,46.34109513,284.615
3.43046270,46.34109574,284.626
3.43046355,46.34109634,284.631
3.43046446,46.34109694,284.633
3.43046539,46.34109756,284.637
3.43046617,46.34109834,284.639
3.43046682,46.34109918,284.642
3.43046737,46.34110001,284.643
3.43046794,46.34110087,284.644
3.43046859,46.34110168,284.642
3.43046947,46.34110234,284.647
3.43047050,46.34110278,284.654
3.43047166,46.34110321,284.659
3.43047266,46.34110381,284.656
3.43047345,46.34110458,284.653
3.43047411,46.34110535,284.649
3.43047481,46.34110617,284.639
3.43047578,46.34110680,284.644
3.43047691,46.34110730,284.649
3.43047807,46.34110771,284.659
3.43047912,46.34110825,284.662
3.43047996,46.34110892,284.664
3.43048057,46.34110967,284.66
3.43048105,46.34111055,284.657
3.43048150,46.34111141,284.644
3.43048216,46.34111219,284.645
3.43048307,46.34111285,284.642
3.43048416,46.34111331,284.643
3.43048551,46.34111363,284.652
3.43048690,46.34111400,284.662
3.43048804,46.34111458,284.67
3.43048878,46.34111519,284.668
3.43048932,46.34111597,284.66
3.43048969,46.34111692,284.65
3.43049012,46.34111780,284.636
3.43049077,46.34111848,284.634
3.43049163,46.34111907,284.636
3.43049264,46.34111953,284.645
3.43049369,46.34111994,284.649
3.43049488,46.34112032,284.658
3.43049605,46.34112076,284.667
3.43049715,46.34112132,284.675
3.43049811,46.34112187,284.682
3.43049893,46.34112253,284.678
3.43049969,46.34112324,284.682
3.43050042,46.34112389,284.675
3.43050123,46.34112455,284.673
3.43050202,46.34112517,284.673
3.43050285,46.34112583,284.669
3.43050359,46.34112653,284.662
3.43050428,46.34112724,284.662
3.43050501,46.34112789,284.654
3.43050590,46.34112854,284.651
3.43050679,46.34112918,284.653
3.43050771,46.34112973,284.655
3.43050865,46.34113029,284.659
3.43050965,46.34113091,284.664
3.43051046,46.34113156,284.661
3.43051112,46.34113231,284.662
3.43051180,46.34113308,284.659
3.43051255,46.34113378,284.659
3.43051352,46.34113440,284.661
3.43051463,46.34113487,284.667
3.43051592,46.34113526,284.675
3.43051713,46.34113578,284.684
3.43051812,46.34113637,284.682
3.43051896,46.34113711,284.683
3.43051966,46.34113783,284.68
3.43052027,46.34113860,284.678
3.43052099,46.34113934,284.675
3.43052181,46.34113996,284.673
3.43052274,46.34114058,284.68
3.43052368,46.34114115,284.682
3.43052460,46.34114171,284.69
3.43052545,46.34114226,284.69
3.43052628,46.34114289,284.69
3.43052707,46.34114357,284.69
3.43052792,46.34114419,284.686
3.43052876,46.34114486,284.691
3.43052950,46.34114548,284.685
3.43053023,46.34114624,284.69
3.43053093,46.34114693,284.679
3.43053172,46.34114755,284.673
3.43053271,46.34114814,284.679
3.43053369,46.34114870,284.682
3.43053466,46.34114929,284.687
3.43053554,46.34114991,284.684
3.43053636,46.34115058,284.68
3.43053710,46.34115127,284.684
3.43053796,46.34115188,284.685
3.43053891,46.34115252,284.687
3.43053982,46.34115314,284.69
3.43054069,46.34115377,284.695
3.43054152,46.34115436,284.697
3.43054222,46.34115505,284.7
3.43054291,46.34115573,284.699
3.43054359,46.34115646,284.702
3.43054431,46.34115712,284.698
3.43054509,46.34115782,284.698
3.43054585,46.34115846,284.695
3.43054667,46.34115911,284.697
3.43054752,46.34115971,284.7
3.43054828,46.34116037,284.697
3.43054910,46.34116109,284.7
3.43054988,46.34116175,284.703
3.43055073,46.34116236,284.698
3.43055153,46.34116299,284.706
3.43055237,46.34116361,284.709
3.43055329,46.34116416,284.71
3.43055412,46.34116475,284.712
3.43055498,46.34116538,284.716
3.43055569,46.34116613,284.709
3.43055634,46.34116688,284.708
3.43055700,46.34116764,284.704
3.43055779,46.34116840,284.71
3.43055866,46.34116897,284.712
3.43055962,46.34116943,284.718
3.43056078,46.34116983,284.73
3.43056165,46.34117051,284.73
3.43056235,46.34117119,284.722
3.43056293,46.34117200,284.72
3.43056353,46.34117276,284.719
3.43056425,46.34117353,284.718
3.43056510,46.34117418,284.723
3.43056602,46.34117478,284.725
3.43056704,46.34117535,284.726
3.43056793,46.34117595,284.728
3.43056879,46.34117656,284.73
3.43056957,46.34117726,284.738
3.43057035,46.34117788,284.734
3.43057109,46.34117854,284.735
3.43057188,46.34117918,284.736
3.43057274,46.34117977,284.739
3.43057355,46.34118037,284.737
3.43057437,46.34118103,284.739
3.43057523,46.34118176,284.74
3.43057611,46.34118247,284.746
3.43057679,46.34118317,284.747
3.43057749,46.34118390,284.74
3.43057813,46.34118468,284.745
3.43057884,46.34118537,284.739
3.43057963,46.34118610,284.743
3.43058050,46.34118673,284.743
3.43058141,46.34118735,284.748
3.43058237,46.34118793,284.752
3.43058327,46.34118851,284.755
3.43058412,46.34118913,284.76
3.43058485,46.34118978,284.761
3.43058547,46.34119055,284.761
3.43058603,46.34119131,284.758
3.43058667,46.34119201,284.759
3.43058740,46.34119267,284.762
3.43058825,46.34119331,284.768
3.43058922,46.34119397,284.775
3.43059016,46.34119459,284.781
3.43059104,46.34119525,284.783
3.43059178,46.34119600,284.779
3.43059228,46.34119685,284.766
3.43059266,46.34119772,284.765
3.43059314,46.34119851,284.764
3.43059382,46.34119924,284.761
3.43059467,46.34119989,284.765
3.43059560,46.34120046,284.768
3.43059648,46.34120106,284.776
3.43059722,46.34120181,284.775
3.43059800,46.34120252,284.783
3.43059881,46.34120316,284.786
3.43059972,46.34120381,284.793
3.43060070,46.34120445,284.802
3.43060172,46.34120512,284.806
3.43060273,46.34120580,284.817
3.43060363,46.34120649,284.818
3.43060441,46.34120721,284.823
3.43060514,46.34120792,284.818
3.43060599,46.34120865,284.821
3.43060683,46.34120930,284.823
3.43060785,46.34120994,284.826
3.43060887,46.34121058,284.832
3.43060981,46.34121130,284.833
3.43061063,46.34121208,284.837
3.43061127,46.34121291,284.838
3.43061179,46.34121372,284.836
3.43061237,46.34121456,284.837
3.43061310,46.34121527,284.839
3.43061402,46.34121590,284.84
3.43061506,46.34121649,284.844
3.43061609,46.34121713,284.848
3.43061710,46.34121777,284.851
3.43061796,46.34121847,284.844
3.43061873,46.34121930,284.838
3.43061955,46.34122014,284.832
3.43062036,46.34122092,284.818
3.43062125,46.34122177,284.808
3.43062223,46.34122248,284.806
3.43062334,46.34122308,284.802
3.43062449,46.34122366,284.805
3.43062561,46.34122426,284.802
3.43062666,46.34122484,284.798
3.43062771,46.34122536,284.797
3.43062875,46.34122593,284.799
3.43062968,46.34122648,284.797
3.43063068,46.34122699,284.801
3.43063160,46.34122747,284.8
3.43063268,46.34122796,284.805
3.43063373,46.34122836,284.812
3.43063478,46.34122876,284.815
3.43063582,46.34122925,284.817
3.43063675,46.34122975,284.816
3.43063777,46.34123026,284.823
3.43063879,46.34123068,284.825
3.43063985,46.34123115,284.818
3.43064096,46.34123179,284.812
3.43064184,46.34123236,284.812
3.43064280,46.34123301,284.804
3.43064390,46.34123368,284.802
3.43064493,46.34123426,284.797
3.43064610,46.34123473,284.795
3.43064726,46.34123514,284.792
3.43064853,46.34123555,284.792
3.43064984,46.34123586,284.799
3.43065108,46.34123612,284.804
3.43065236,46.34123645,284.81
3.43065361,46.34123678,284.82
3.43065485,46.34123707,284.824
3.43065619,46.34123731,284.831
3.43065752,46.34123746,284.837
3.43065884,46.34123764,284.842
3.43066015,46.34123797,284.836
3.43066134,46.34123842,284.832
3.43066257,46.34123896,284.832
3.43066373,46.34123937,284.825
3.43066498,46.34123979,284.82
3.43066630,46.34124020,284.819
3.43066752,46.34124053,284.817
3.43066858,46.34124069,284.816
3.43066950,46.34124083,284.817
3.43067015,46.34124096,284.816
3.43067056,46.34124100,284.814
3.43067067,46.34124103,284.812
3.43067067,46.34124114,284.81
3.43067058,46.34124118,284.805
3.43067052,46.34124115,284.804
3.43067053,46.34124112,284.805
3.43067057,46.34124111,284.804
3.43067053,46.34124111,284.803
3.43067051,46.34124112,284.805
3.43067053,46.34124114,284.806
3.43067051,46.34124113,284.806
3.43067052,46.34124110,284.811
3.43067053,46.34124112,284.81
3.43067053,46.34124111,284.81
3.43067051,46.34124113,284.81
3.43067051,46.34124115,284.81
3.43067052,46.34124114,284.81
3.43067052,46.34124111,284.81
3.43067053,46.34124111,284.811
3.43067052,46.34124112,284.809
3.43067053,46.34124113,284.81
3.43067053,46.34124111,284.81
3.43067053,46.34124111,284.811
3.43067053,46.34124110,284.81
3.43067052,46.34124111,284.809
3.43067052,46.34124111,284.808
3.43067052,46.34124111,284.806
3.43067051,46.34124110,284.807
3.43067052,46.34124110,284.807
3.43067051,46.34124109,284.807
3.43067053,46.34124109,284.806
3.43067052,46.34124110,284.807
3.43067053,46.34124108,284.806
3.43067053,46.34124107,284.805
3.43067053,46.34124108,284.806
3.43067053,46.34124107,284.807
3.43067053,46.34124106,284.806
3.43067053,46.34124107,284.804
3.43067054,46.34124106,284.804
3.43067054,46.34124106,284.805
3.43067053,46.34124106,284.805
3.43067053,46.34124107,284.805
3.43067053,46.34124106,284.803
3.43067053,46.34124106,284.805
3.43067054,46.34124105,284.804
3.43067054,46.34124106,284.804
3.43067054,46.34124106,284.803
3.43067053,46.34124106,284.804
3.43067054,46.34124105,284.803
3.43067054,46.34124105,284.802
3.43067054,46.34124105,284.801
3.43067054,46.34124104,284.801
3.43067055,46.34124104,284.8
        </coordinates> 
      </LineString> 
    </Placemark> 
  </Document> 
</kml> 
