<?xml version="1.0" encoding="UTF-8"?> 
<kml xmlns="http://www.opengis.net/kml/2.2" 
     xmlns:gx="http://www.google.com/kml/ext/2.2" 
     xmlns:kml="http://www.opengis.net/kml/2.2"
     xmlns:atom="http://www.w3.org/2005/Atom"> 
  <Document> 
    <name>gps_traj.kml</name> 
    <Placemark> 
      <name>Trajectoire</name> 
      <LineString> 
        <tessellate>1</tessellate> 
        <coordinates> 
3.11033773,45.76366183,406.001
3.11033773,45.76366182,406.001
3.11033772,45.76366182,406.001
3.11033773,45.76366183,406.0
3.11033774,45.76366184,406.0
3.11033773,45.76366183,406.0
3.11033774,45.76366184,405.998
3.11033775,45.76366184,405.997
3.11033776,45.76366184,405.999
3.11033776,45.76366183,406.0
3.11033777,45.76366181,406.002
3.11033776,45.76366182,406.003
3.11033777,45.76366182,406.004
3.11033779,45.76366178,406.002
3.11033792,45.76366163,406.002
3.11033814,45.76366143,406.004
3.11033837,45.76366117,406.003
3.11033858,45.76366087,406.003
3.11033878,45.76366056,406.007
3.11033901,45.76366023,406.013
3.11033924,45.76365988,406.017
3.11033948,45.76365951,406.017
3.11033979,45.76365909,406.015
3.11034020,45.76365856,406.013
3.11034065,45.76365797,406.023
3.11034106,45.76365736,406.024
3.11034153,45.76365674,406.024
3.11034206,45.76365615,406.019
3.11034251,45.76365555,406.029
3.11034290,45.76365497,406.025
3.11034332,45.76365444,406.023
3.11034366,45.76365394,406.026
3.11034402,45.76365345,406.023
3.11034439,45.76365301,406.022
3.11034473,45.76365260,406.021
3.11034504,45.76365219,406.016
3.11034531,45.76365182,406.013
3.11034557,45.76365146,406.012
3.11034588,45.76365111,406.017
3.11034620,45.76365078,406.018
3.11034652,45.76365040,406.01
3.11034686,45.76365004,406.005
3.11034723,45.76364971,406.005
3.11034762,45.76364936,406.003
3.11034806,45.76364899,406.008
3.11034841,45.76364865,406.007
3.11034878,45.76364830,406.004
3.11034919,45.76364792,405.997
3.11034961,45.76364755,405.991
3.11035002,45.76364715,405.997
3.11035043,45.76364673,405.992
3.11035087,45.76364634,405.987
3.11035131,45.76364598,405.988
3.11035166,45.76364557,405.984
3.11035202,45.76364514,405.977
3.11035236,45.76364469,405.975
3.11035265,45.76364422,405.977
3.11035303,45.76364372,405.976
3.11035345,45.76364322,405.962
3.11035386,45.76364272,405.963
3.11035430,45.76364214,405.971
3.11035478,45.76364161,405.956
3.11035530,45.76364100,405.956
3.11035571,45.76364038,405.953
3.11035620,45.76363976,405.948
3.11035665,45.76363915,405.944
3.11035712,45.76363857,405.934
3.11035744,45.76363793,405.939
3.11035771,45.76363726,405.941
3.11035796,45.76363663,405.934
3.11035821,45.76363591,405.935
3.11035842,45.76363524,405.935
3.11035868,45.76363447,405.94
3.11035894,45.76363372,405.943
3.11035915,45.76363298,405.952
3.11035934,45.76363222,405.956
3.11035974,45.76363146,405.962
3.11036006,45.76363069,405.961
3.11036036,45.76362992,405.961
3.11036074,45.76362923,405.952
3.11036117,45.76362843,405.956
3.11036170,45.76362765,405.951
3.11036218,45.76362687,405.947
3.11036272,45.76362616,405.947
3.11036325,45.76362531,405.954
3.11036371,45.76362448,405.956
3.11036428,45.76362355,405.947
3.11036470,45.76362259,405.961
3.11036534,45.76362169,405.952
3.11036573,45.76362083,405.963
3.11036618,45.76361994,405.956
3.11036667,45.76361896,405.967
3.11036704,45.76361809,405.98
3.11036720,45.76361723,405.985
3.11036758,45.76361619,406.0
3.11036786,45.76361515,405.998
3.11036819,45.76361389,406.01
3.11036876,45.76361262,406.024
3.11036931,45.76361121,406.001
3.11037008,45.76360969,405.976
3.11037071,45.76360810,405.991
3.11037174,45.76360656,405.993
3.11037237,45.76360494,406.016
3.11037308,45.76360336,405.994
3.11037394,45.76360193,406.003
3.11037473,45.76360031,405.979
3.11037582,45.76359874,405.996
3.11037681,45.76359718,405.999
3.11037782,45.76359582,406.0
3.11037887,45.76359433,405.99
3.11037995,45.76359286,405.987
3.11038120,45.76359154,405.998
3.11038266,45.76359008,405.999
3.11038408,45.76358871,405.983
3.11038514,45.76358721,406.025
3.11038645,45.76358564,406.052
3.11038772,45.76358423,406.032
3.11038889,45.76358261,406.06
3.11039037,45.76358113,406.057
3.11039190,45.76357964,406.066
3.11039333,45.76357817,406.067
3.11039485,45.76357670,406.051
3.11039635,45.76357516,406.045
3.11039762,45.76357360,406.042
3.11039877,45.76357196,406.075
3.11039991,45.76357040,406.068
3.11040102,45.76356882,406.073
3.11040211,45.76356718,406.083
3.11040318,45.76356565,406.074
3.11040456,45.76356399,406.044
3.11040558,45.76356239,406.054
3.11040662,45.76356088,406.061
3.11040759,45.76355940,406.054
3.11040872,45.76355787,406.066
3.11040981,45.76355631,406.053
3.11041081,45.76355485,406.067
3.11041181,45.76355336,406.069
3.11041290,45.76355194,406.071
3.11041413,45.76355048,406.068
3.11041537,45.76354918,406.085
3.11041652,45.76354787,406.097
3.11041804,45.76354652,406.079
3.11041929,45.76354512,406.113
3.11042067,45.76354380,406.099
3.11042206,45.76354234,406.103
3.11042363,45.76354110,406.101
3.11042488,45.76353983,406.117
3.11042637,45.76353836,406.125
3.11042784,45.76353701,406.109
3.11042901,45.76353555,406.137
3.11043047,45.76353408,406.146
3.11043205,45.76353282,406.12
3.11043366,45.76353142,406.111
3.11043506,45.76353020,406.087
3.11043641,45.76352869,406.074
3.11043764,45.76352724,406.054
3.11043919,45.76352568,406.048
3.11044035,45.76352431,406.083
3.11044196,45.76352298,406.068
3.11044332,45.76352154,406.118
3.11044480,45.76352034,406.102
3.11044636,45.76351897,406.119
3.11044769,45.76351778,406.114
3.11044888,45.76351602,406.149
3.11045026,45.76351483,406.164
3.11045149,45.76351330,406.154
3.11045286,45.76351168,406.139
3.11045418,45.76351036,406.155
3.11045567,45.76350907,406.142
3.11045731,45.76350790,406.13
3.11045878,45.76350678,406.136
3.11046045,45.76350544,406.145
3.11046195,45.76350395,406.171
3.11046331,45.76350276,406.161
3.11046462,45.76350141,406.172
3.11046636,45.76350016,406.165
3.11046807,45.76349929,406.163
3.11046979,45.76349799,406.158
3.11047138,45.76349697,406.156
3.11047211,45.76349527,406.21
3.11047338,45.76349377,406.215
3.11047486,45.76349281,406.254
3.11047621,45.76349153,406.264
3.11047783,45.76349049,406.288
3.11047979,45.76348902,406.282
3.11048159,45.76348778,406.287
3.11048319,45.76348650,406.293
3.11048478,45.76348518,406.277
3.11048633,45.76348387,406.296
3.11048789,45.76348242,406.315
3.11048987,45.76348110,406.325
3.11049166,45.76347975,406.343
3.11049365,45.76347853,406.346
3.11049549,45.76347733,406.339
3.11049733,45.76347586,406.337
3.11049888,45.76347440,406.363
3.11050042,45.76347308,406.365
3.11050195,45.76347157,406.371
3.11050356,45.76347022,406.385
3.11050502,45.76346883,406.391
3.11050644,45.76346745,406.41
3.11050801,45.76346605,406.419
3.11050955,45.76346464,406.394
3.11051134,45.76346327,406.418
3.11051303,45.76346193,406.41
3.11051460,45.76346044,406.424
3.11051603,45.76345900,406.429
3.11051747,45.76345762,406.438
3.11051903,45.76345611,406.447
3.11052094,45.76345484,406.445
3.11052298,45.76345372,406.445
3.11052506,45.76345255,406.43
3.11052693,45.76345129,406.424
3.11052837,45.76345012,406.419
3.11052965,45.76344843,406.443
3.11053087,45.76344674,406.458
3.11053209,45.76344535,406.465
3.11053360,45.76344364,406.48
3.11053488,45.76344196,406.454
3.11053639,45.76344056,406.455
3.11053785,45.76343894,406.459
3.11053935,45.76343734,406.45
3.11054049,45.76343562,406.464
3.11054157,45.76343399,406.475
3.11054259,45.76343214,406.484
3.11054352,45.76343028,406.503
3.11054392,45.76342840,406.508
3.11054476,45.76342661,406.534
3.11054567,45.76342492,406.544
3.11054653,45.76342340,406.525
3.11054709,45.76342190,406.524
3.11054786,45.76342018,406.54
3.11054862,45.76341872,406.528
3.11054958,45.76341713,406.527
3.11055031,45.76341544,406.537
3.11055077,45.76341398,406.542
3.11055158,45.76341230,406.538
3.11055265,45.76341063,406.535
3.11055377,45.76340919,406.535
3.11055540,45.76340780,406.525
3.11055718,45.76340646,406.527
3.11055875,45.76340526,406.51
3.11056028,45.76340381,406.506
3.11056136,45.76340210,406.525
3.11056216,45.76340070,406.515
3.11056263,45.76339894,406.529
3.11056289,45.76339711,406.553
3.11056330,45.76339541,406.554
3.11056405,45.76339353,406.57
3.11056474,45.76339189,406.578
3.11056567,45.76339033,406.567
3.11056668,45.76338887,406.573
3.11056746,45.76338764,406.572
3.11056827,45.76338643,406.574
3.11056888,45.76338540,406.576
3.11056933,45.76338448,406.574
3.11056980,45.76338354,406.581
3.11057032,45.76338272,406.578
3.11057075,45.76338203,406.564
3.11057140,45.76338134,406.56
3.11057201,45.76338072,406.554
3.11057257,45.76338011,406.553
3.11057308,45.76337943,406.555
3.11057355,45.76337874,406.563
3.11057396,45.76337787,406.556
3.11057445,45.76337694,406.559
3.11057523,45.76337591,406.553
3.11057627,45.76337476,406.538
3.11057734,45.76337348,406.521
3.11057829,45.76337223,406.493
3.11057954,45.76337063,406.493
3.11058041,45.76336907,406.488
3.11058094,45.76336751,406.497
3.11058115,45.76336607,406.501
3.11058119,45.76336443,406.515
3.11058146,45.76336300,406.536
3.11058175,45.76336185,406.529
3.11058244,45.76336073,406.533
3.11058335,45.76335957,406.527
3.11058433,45.76335860,406.521
3.11058522,45.76335733,406.521
3.11058611,45.76335598,406.516
3.11058688,45.76335459,406.523
3.11058756,45.76335307,406.52
3.11058816,45.76335138,406.535
3.11058851,45.76334974,406.536
3.11058923,45.76334800,406.545
3.11059005,45.76334622,406.54
3.11059057,45.76334453,406.527
3.11059104,45.76334268,406.531
3.11059169,45.76334066,406.532
3.11059227,45.76333875,406.53
3.11059270,45.76333678,406.53
3.11059331,45.76333470,406.527
3.11059365,45.76333280,406.518
3.11059404,45.76333078,406.539
3.11059421,45.76332888,406.551
3.11059421,45.76332710,406.567
3.11059400,45.76332544,406.548
3.11059399,45.76332401,406.548
3.11059384,45.76332276,406.557
3.11059412,45.76332164,406.545
3.11059428,45.76332054,406.55
3.11059479,45.76331961,406.549
3.11059505,45.76331880,406.541
3.11059515,45.76331799,406.532
3.11059528,45.76331717,406.533
3.11059519,45.76331640,406.539
3.11059490,45.76331564,406.522
3.11059486,45.76331491,406.515
3.11059483,45.76331412,406.513
3.11059491,45.76331337,406.505
3.11059504,45.76331260,406.506
3.11059513,45.76331172,406.511
3.11059527,45.76331087,406.512
3.11059539,45.76331012,406.507
3.11059542,45.76330935,406.507
3.11059546,45.76330854,406.492
3.11059529,45.76330752,406.489
3.11059510,45.76330656,406.487
3.11059482,45.76330562,406.496
3.11059466,45.76330460,406.503
3.11059446,45.76330365,406.5
3.11059434,45.76330276,406.494
3.11059429,45.76330180,406.489
3.11059428,45.76330055,406.485
3.11059399,45.76329921,406.478
3.11059356,45.76329776,406.486
3.11059316,45.76329616,406.49
3.11059243,45.76329461,406.504
3.11059192,45.76329295,406.499
3.11059153,45.76329117,406.512
3.11059105,45.76328940,406.528
3.11059050,45.76328766,406.523
3.11059002,45.76328586,406.52
3.11058990,45.76328404,406.515
3.11058976,45.76328206,406.512
3.11058943,45.76328019,406.507
3.11058916,45.76327823,406.499
3.11058877,45.76327622,406.49
3.11058807,45.76327428,406.495
3.11058732,45.76327244,406.5
3.11058668,45.76327057,406.495
3.11058591,45.76326857,406.503
3.11058512,45.76326674,406.512
3.11058429,45.76326518,406.526
3.11058340,45.76326362,406.514
3.11058262,45.76326213,406.532
3.11058199,45.76326112,406.533
3.11058133,45.76326012,406.518
3.11058053,45.76325902,406.532
3.11057985,45.76325818,406.53
3.11057951,45.76325741,406.525
3.11057939,45.76325665,406.525
3.11057908,45.76325592,406.522
3.11057867,45.76325527,406.525
3.11057826,45.76325461,406.53
3.11057784,45.76325385,406.531
3.11057719,45.76325308,406.522
3.11057666,45.76325240,406.521
3.11057615,45.76325164,406.524
3.11057576,45.76325084,406.519
3.11057541,45.76325002,406.51
3.11057491,45.76324925,406.516
3.11057448,45.76324850,406.517
3.11057402,45.76324771,406.514
3.11057373,45.76324687,406.509
3.11057327,45.76324602,406.5
3.11057287,45.76324525,406.493
3.11057227,45.76324444,406.502
3.11057164,45.76324369,406.501
3.11057096,45.76324293,406.501
3.11057017,45.76324212,406.512
3.11056933,45.76324142,406.501
3.11056855,45.76324075,406.505
3.11056784,45.76324006,406.503
3.11056719,45.76323918,406.501
3.11056622,45.76323824,406.501
3.11056487,45.76323741,406.511
3.11056349,45.76323665,406.511
3.11056197,45.76323585,406.519
3.11056030,45.76323509,406.544
3.11055897,45.76323449,406.54
3.11055781,45.76323372,406.541
3.11055676,45.76323272,406.535
3.11055585,45.76323179,406.528
3.11055490,45.76323093,406.515
3.11055375,45.76323016,406.511
3.11055259,45.76322953,406.517
3.11055131,45.76322905,406.53
3.11055002,45.76322877,406.55
3.11054867,45.76322863,406.563
3.11054740,45.76322833,406.575
3.11054631,45.76322793,406.585
3.11054538,45.76322734,406.587
3.11054458,45.76322670,406.575
3.11054377,45.76322598,406.574
3.11054283,45.76322533,406.573
3.11054185,45.76322485,406.574
3.11054067,45.76322445,406.565
3.11053938,45.76322402,406.572
3.11053818,45.76322362,406.576
3.11053701,45.76322314,406.574
3.11053596,45.76322245,406.577
3.11053496,45.76322177,406.571
3.11053396,45.76322120,406.56
3.11053287,45.76322070,406.555
3.11053186,45.76322005,406.553
3.11053075,45.76321954,406.549
3.11052957,45.76321912,406.55
3.11052835,45.76321867,406.556
3.11052719,45.76321814,406.554
3.11052603,45.76321756,406.549
3.11052496,45.76321692,406.548
3.11052383,45.76321636,406.545
3.11052272,45.76321583,406.543
3.11052162,45.76321529,406.551
3.11052041,45.76321486,406.54
3.11051927,45.76321435,406.544
3.11051809,45.76321393,406.536
3.11051698,45.76321345,406.53
3.11051582,45.76321299,406.523
3.11051462,45.76321264,406.522
3.11051333,45.76321239,406.529
3.11051209,45.76321222,406.535
3.11051082,45.76321209,406.538
3.11050949,45.76321196,406.542
3.11050825,45.76321178,406.546
3.11050698,45.76321165,406.542
3.11050564,45.76321151,406.539
3.11050428,45.76321139,406.538
3.11050299,45.76321126,406.535
3.11050162,45.76321112,406.53
3.11050017,45.76321100,406.535
3.11049875,45.76321097,406.531
3.11049733,45.76321093,406.542
3.11049597,45.76321091,406.541
3.11049459,45.76321087,406.533
3.11049318,45.76321093,406.535
3.11049176,45.76321104,406.544
3.11049036,45.76321112,406.53
3.11048892,45.76321125,406.547
3.11048750,45.76321142,406.543
3.11048598,45.76321156,406.537
3.11048462,45.76321183,406.543
3.11048327,45.76321212,406.55
3.11048194,45.76321228,406.543
3.11048063,45.76321252,406.553
3.11047938,45.76321275,406.561
3.11047829,45.76321299,406.559
3.11047708,45.76321329,406.564
3.11047594,45.76321356,406.559
3.11047480,45.76321372,406.57
3.11047348,45.76321394,406.561
3.11047233,45.76321406,406.562
3.11047119,45.76321415,406.549
3.11047017,45.76321426,406.555
3.11046913,45.76321451,406.56
3.11046806,45.76321483,406.555
3.11046692,45.76321512,406.564
3.11046565,45.76321549,406.578
3.11046455,45.76321574,406.584
3.11046348,45.76321609,406.588
3.11046225,45.76321631,406.599
3.11046110,45.76321670,406.601
3.11045989,45.76321701,406.6
3.11045855,45.76321747,406.606
3.11045711,45.76321775,406.617
3.11045568,45.76321805,406.623
3.11045422,45.76321810,406.615
3.11045279,45.76321819,406.61
3.11045132,45.76321841,406.612
3.11044993,45.76321860,406.615
3.11044880,45.76321873,406.613
3.11044738,45.76321888,406.624
3.11044602,45.76321897,406.625
3.11044466,45.76321912,406.62
3.11044333,45.76321921,406.635
3.11044181,45.76321937,406.64
3.11044040,45.76321947,406.645
3.11043902,45.76321958,406.647
3.11043768,45.76321978,406.653
3.11043618,45.76322001,406.653
3.11043464,45.76322028,406.654
3.11043320,45.76322060,406.664
3.11043182,45.76322102,406.67
3.11043045,45.76322136,406.685
3.11042911,45.76322162,406.685
3.11042753,45.76322176,406.673
3.11042595,45.76322196,406.676
3.11042428,45.76322225,406.678
3.11042268,45.76322247,406.669
3.11042122,45.76322261,406.661
3.11041965,45.76322283,406.668
3.11041821,45.76322313,406.672
3.11041676,45.76322339,406.666
3.11041538,45.76322364,406.673
3.11041416,45.76322396,406.67
3.11041278,45.76322422,406.652
3.11041152,45.76322443,406.662
3.11041031,45.76322464,406.665
3.11040911,45.76322491,406.661
3.11040786,45.76322520,406.667
3.11040670,45.76322542,406.661
3.11040559,45.76322576,406.661
3.11040448,45.76322611,406.68
3.11040336,45.76322637,406.686
3.11040223,45.76322667,406.682
3.11040104,45.76322697,406.676
3.11039991,45.76322728,406.672
3.11039868,45.76322760,406.681
3.11039748,45.76322792,406.677
3.11039650,45.76322826,406.688
3.11039531,45.76322862,406.689
3.11039414,45.76322880,406.673
3.11039276,45.76322889,406.686
3.11039164,45.76322916,406.684
3.11039044,45.76322938,406.683
3.11038916,45.76322968,406.677
3.11038802,45.76322992,406.67
3.11038675,45.76323034,406.668
3.11038567,45.76323069,406.675
3.11038439,45.76323113,406.676
3.11038318,45.76323140,406.69
3.11038211,45.76323165,406.693
3.11038083,45.76323192,406.694
3.11037956,45.76323231,406.703
3.11037844,45.76323264,406.701
3.11037729,45.76323302,406.698
3.11037596,45.76323337,406.697
3.11037479,45.76323367,406.704
3.11037356,45.76323403,406.693
3.11037235,45.76323436,406.686
3.11037105,45.76323478,406.686
3.11037012,45.76323530,406.671
3.11036899,45.76323578,406.67
3.11036782,45.76323628,406.686
3.11036685,45.76323677,406.668
3.11036584,45.76323744,406.679
3.11036473,45.76323795,406.698
3.11036372,45.76323842,406.697
3.11036263,45.76323891,406.694
3.11036164,45.76323935,406.699
3.11036040,45.76323985,406.696
3.11035931,45.76324028,406.695
3.11035824,45.76324083,406.695
3.11035719,45.76324134,406.693
3.11035613,45.76324175,406.705
3.11035507,45.76324228,406.697
3.11035360,45.76324235,406.714
3.11035247,45.76324279,406.732
3.11035136,45.76324320,406.726
3.11035014,45.76324349,406.725
3.11034883,45.76324371,406.703
3.11034760,45.76324398,406.692
3.11034625,45.76324421,406.685
3.11034504,45.76324450,406.688
3.11034402,45.76324498,406.688
3.11034296,45.76324573,406.702
3.11034203,45.76324636,406.714
3.11034102,45.76324692,406.727
3.11034005,45.76324742,406.724
3.11033890,45.76324773,406.719
3.11033790,45.76324792,406.702
3.11033668,45.76324823,406.696
3.11033554,45.76324854,406.704
3.11033442,45.76324896,406.707
3.11033328,45.76324949,406.711
3.11033238,45.76325001,406.718
3.11033154,45.76325049,406.691
3.11033050,45.76325098,406.69
3.11032929,45.76325145,406.689
3.11032795,45.76325174,406.687
3.11032674,45.76325212,406.68
3.11032565,45.76325247,406.692
3.11032480,45.76325301,406.685
3.11032392,45.76325378,406.69
3.11032298,45.76325433,406.701
3.11032214,45.76325483,406.69
3.11032105,45.76325536,406.695
3.11031985,45.76325578,406.687
3.11031844,45.76325594,406.686
3.11031698,45.76325602,406.675
3.11031566,45.76325610,406.663
3.11031430,45.76325636,406.667
3.11031311,45.76325668,406.668
3.11031212,45.76325719,406.664
3.11031114,45.76325780,406.672
3.11031020,45.76325855,406.673
3.11030909,45.76325914,406.694
3.11030797,45.76325956,406.688
3.11030676,45.76325994,406.684
3.11030552,45.76326026,406.69
3.11030451,45.76326060,406.673
3.11030363,45.76326132,406.681
3.11030269,45.76326210,406.692
3.11030153,45.76326263,406.691
3.11030037,45.76326279,406.685
3.11029915,45.76326289,406.674
3.11029794,45.76326276,406.656
3.11029665,45.76326268,406.649
3.11029537,45.76326276,406.645
3.11029434,45.76326306,406.634
3.11029355,45.76326354,406.633
3.11029285,45.76326423,406.653
3.11029224,45.76326504,406.656
3.11029141,45.76326566,406.67
3.11029051,45.76326618,406.674
3.11028934,45.76326656,406.658
3.11028818,45.76326670,406.648
3.11028691,45.76326697,406.637
3.11028583,45.76326725,406.623
3.11028474,45.76326759,406.619
3.11028369,45.76326795,406.613
3.11028256,45.76326832,406.608
3.11028141,45.76326861,406.609
3.11028019,45.76326882,406.59
3.11027904,45.76326902,406.585
3.11027785,45.76326930,406.573
3.11027680,45.76326979,406.564
3.11027584,45.76327026,406.576
3.11027504,45.76327092,406.584
3.11027422,45.76327162,406.597
3.11027336,45.76327217,406.619
3.11027241,45.76327262,406.635
3.11027144,45.76327303,406.633
3.11027035,45.76327343,406.632
3.11026928,45.76327383,406.638
3.11026813,45.76327427,406.642
3.11026699,45.76327484,406.627
3.11026583,45.76327537,406.634
3.11026458,45.76327598,406.636
3.11026333,45.76327652,406.635
3.11026226,45.76327702,406.636
3.11026109,45.76327753,406.648
3.11026003,45.76327816,406.653
3.11025882,45.76327878,406.662
3.11025773,45.76327957,406.668
3.11025680,45.76328035,406.678
3.11025588,45.76328106,406.69
3.11025489,45.76328176,406.694
3.11025385,45.76328241,406.687
3.11025262,45.76328295,406.68
3.11025129,45.76328341,406.671
3.11025002,45.76328387,406.672
3.11024890,45.76328449,406.686
3.11024798,45.76328529,406.692
3.11024713,45.76328610,406.695
3.11024615,45.76328684,406.693
3.11024511,45.76328751,406.684
3.11024404,45.76328810,406.682
3.11024293,45.76328852,406.675
3.11024171,45.76328885,406.664
3.11024047,45.76328912,406.651
3.11023951,45.76328974,406.658
3.11023874,45.76329030,406.655
3.11023797,45.76329092,406.655
3.11023723,45.76329159,406.654
3.11023634,45.76329212,406.654
3.11023546,45.76329253,406.658
3.11023448,45.76329291,406.658
3.11023344,45.76329317,406.655
3.11023253,45.76329352,406.649
3.11023163,45.76329401,406.648
3.11023059,45.76329457,406.65
3.11022942,45.76329528,406.639
3.11022792,45.76329586,406.627
3.11022629,45.76329635,406.614
3.11022473,45.76329671,406.599
3.11022305,45.76329735,406.587
3.11022142,45.76329813,406.597
3.11021996,45.76329890,406.585
3.11021807,45.76329987,406.586
3.11021602,45.76330095,406.601
3.11021421,45.76330204,406.613
3.11021249,45.76330325,406.626
3.11021057,45.76330441,406.634
3.11020844,45.76330537,406.626
3.11020618,45.76330636,406.619
3.11020379,45.76330706,406.615
3.11020149,45.76330779,406.601
3.11019900,45.76330858,406.605
3.11019665,45.76330964,406.617
3.11019463,45.76331069,406.596
3.11019258,45.76331187,406.603
3.11019039,45.76331295,406.617
3.11018818,45.76331405,406.618
3.11018601,45.76331509,406.612
3.11018388,45.76331602,406.593
3.11018159,45.76331686,406.602
3.11017950,45.76331781,406.598
3.11017739,45.76331881,406.6
3.11017534,45.76331982,406.589
3.11017343,45.76332078,406.599
3.11017135,45.76332181,406.593
3.11016931,45.76332288,406.604
3.11016734,45.76332376,406.585
3.11016501,45.76332456,406.607
3.11016293,45.76332554,406.6
3.11016102,45.76332650,406.603
3.11015896,45.76332752,406.594
3.11015679,45.76332857,406.592
3.11015467,45.76332933,406.6
3.11015247,45.76333022,406.603
3.11015023,45.76333109,406.601
3.11014819,45.76333204,406.605
3.11014602,45.76333299,406.623
3.11014400,45.76333406,406.613
3.11014216,45.76333505,406.615
3.11013998,45.76333603,406.612
3.11013784,45.76333705,406.62
3.11013593,45.76333801,406.611
3.11013397,45.76333920,406.603
3.11013195,45.76334025,406.605
3.11012981,45.76334117,406.615
3.11012768,45.76334196,406.618
3.11012571,45.76334280,406.613
3.11012359,45.76334371,406.6
3.11012103,45.76334454,406.611
3.11011888,45.76334519,406.627
3.11011667,45.76334591,406.606
3.11011417,45.76334671,406.593
3.11011191,45.76334731,406.586
3.11010986,45.76334834,406.563
3.11010779,45.76334937,406.57
3.11010611,45.76335056,406.577
3.11010416,45.76335192,406.601
3.11010224,45.76335315,406.606
3.11010038,45.76335418,406.594
3.11009814,45.76335519,406.597
3.11009612,45.76335617,406.594
3.11009400,45.76335704,406.589
3.11009173,45.76335798,406.591
3.11008966,45.76335868,406.618
3.11008750,45.76335951,406.612
3.11008522,45.76336037,406.611
3.11008324,45.76336101,406.594
3.11008114,45.76336199,406.587
3.11007922,45.76336302,406.595
3.11007745,45.76336396,406.598
3.11007542,45.76336496,406.607
3.11007337,45.76336596,406.609
3.11007147,45.76336677,406.605
3.11006944,45.76336777,406.547
3.11006730,45.76336870,406.542
3.11006534,45.76336963,406.541
3.11006332,45.76337067,406.555
3.11006162,45.76337181,406.551
3.11005964,45.76337283,406.559
3.11005729,45.76337357,406.6
3.11005530,45.76337442,406.603
3.11005319,45.76337520,406.604
3.11005115,45.76337628,406.598
3.11004918,45.76337731,406.622
3.11004734,45.76337855,406.616
3.11004538,45.76337968,406.638
3.11004351,45.76338084,406.647
3.11004138,45.76338177,406.645
3.11003938,45.76338271,406.656
3.11003747,45.76338365,406.629
3.11003562,45.76338439,406.621
3.11003353,45.76338502,406.632
3.11003150,45.76338569,406.629
3.11002978,45.76338632,406.591
3.11002795,45.76338698,406.607
3.11002615,45.76338765,406.611
3.11002441,45.76338841,406.599
3.11002251,45.76338928,406.606
3.11002076,45.76338995,406.602
3.11001891,45.76339087,406.602
3.11001706,45.76339172,406.607
3.11001554,45.76339273,406.613
3.11001374,45.76339360,406.63
3.11001209,45.76339454,406.617
3.11001028,45.76339542,406.621
3.11000836,45.76339645,406.634
3.11000661,45.76339759,406.614
3.11000486,45.76339842,406.628
3.11000311,45.76339973,406.608
3.11000142,45.76340088,406.637
3.10999970,45.76340185,406.617
3.10999788,45.76340276,406.62
3.10999631,45.76340390,406.598
3.10999476,45.76340474,406.621
3.10999370,45.76340594,406.616
3.10999275,45.76340729,406.625
3.10999183,45.76340842,406.625
3.10999092,45.76340961,406.609
3.10999010,45.76341068,406.608
3.10998964,45.76341208,406.607
3.10998872,45.76341306,406.626
3.10998800,45.76341394,406.609
3.10998734,45.76341468,406.589
3.10998649,45.76341546,406.588
3.10998574,45.76341628,406.589
3.10998491,45.76341678,406.577
3.10998406,45.76341732,406.574
3.10998316,45.76341785,406.57
3.10998249,45.76341863,406.577
3.10998182,45.76341928,406.581
3.10998121,45.76341991,406.586
3.10998060,45.76342068,406.601
3.10998015,45.76342154,406.6
3.10997957,45.76342237,406.584
3.10997884,45.76342327,406.592
3.10997810,45.76342404,406.589
3.10997731,45.76342482,406.592
3.10997650,45.76342572,406.572
3.10997568,45.76342667,406.564
3.10997507,45.76342797,406.555
3.10997426,45.76342896,406.546
3.10997350,45.76343008,406.534
3.10997255,45.76343110,406.539
3.10997151,45.76343199,406.56
3.10997047,45.76343279,406.556
3.10996941,45.76343365,406.566
3.10996830,45.76343469,406.572
3.10996738,45.76343565,406.581
3.10996645,45.76343670,406.586
3.10996578,45.76343776,406.556
3.10996495,45.76343887,406.562
3.10996406,45.76343989,406.565
3.10996322,45.76344102,406.579
3.10996248,45.76344213,406.567
3.10996176,45.76344331,406.541
3.10996108,45.76344444,406.535
3.10996024,45.76344548,406.534
3.10995952,45.76344669,406.538
3.10995881,45.76344780,406.525
3.10995805,45.76344887,406.533
3.10995735,45.76344999,406.523
3.10995662,45.76345117,406.519
3.10995603,45.76345227,406.526
3.10995551,45.76345337,406.518
3.10995511,45.76345458,406.529
3.10995490,45.76345572,406.527
3.10995455,45.76345695,406.526
3.10995388,45.76345826,406.517
3.10995334,45.76345941,406.522
3.10995302,45.76346055,406.512
3.10995276,45.76346172,406.51
3.10995252,45.76346301,406.503
3.10995248,45.76346424,406.512
3.10995247,45.76346557,406.514
3.10995244,45.76346683,406.525
3.10995239,45.76346807,406.53
3.10995238,45.76346925,406.535
3.10995211,45.76347051,406.533
3.10995170,45.76347173,406.519
3.10995131,45.76347300,406.511
3.10995109,45.76347430,406.513
3.10995102,45.76347549,406.502
3.10995089,45.76347674,406.494
3.10995081,45.76347801,406.492
3.10995096,45.76347924,406.503
3.10995122,45.76348044,406.503
3.10995144,45.76348170,406.503
3.10995169,45.76348297,406.496
3.10995211,45.76348421,406.493
3.10995256,45.76348544,406.49
3.10995319,45.76348656,406.491
3.10995408,45.76348770,406.501
3.10995495,45.76348873,406.512
3.10995542,45.76348984,406.507
3.10995573,45.76349114,406.504
3.10995583,45.76349223,406.495
3.10995572,45.76349335,406.483
3.10995539,45.76349462,406.473
3.10995511,45.76349583,406.462
3.10995508,45.76349687,406.469
3.10995547,45.76349788,406.463
3.10995608,45.76349885,406.468
3.10995699,45.76349978,406.473
3.10995804,45.76350080,406.469
3.10995879,45.76350190,406.47
3.10995943,45.76350289,406.466
3.10995999,45.76350407,406.468
3.10996019,45.76350521,406.464
3.10996008,45.76350636,406.461
3.10996009,45.76350755,406.455
3.10996042,45.76350858,406.452
3.10996094,45.76350958,406.452
3.10996164,45.76351061,406.459
3.10996230,45.76351165,406.458
3.10996286,45.76351269,406.452
3.10996343,45.76351370,406.468
3.10996381,45.76351475,406.466
3.10996403,45.76351588,406.461
3.10996407,45.76351708,406.46
3.10996442,45.76351818,406.451
3.10996506,45.76351922,406.458
3.10996565,45.76352028,406.462
3.10996613,45.76352138,406.457
3.10996654,45.76352253,406.459
3.10996698,45.76352358,406.456
3.10996719,45.76352470,406.445
3.10996724,45.76352591,406.438
3.10996755,45.76352708,406.433
3.10996802,45.76352820,406.435
3.10996873,45.76352925,406.447
3.10996949,45.76353023,406.449
3.10997016,45.76353138,406.459
3.10997062,45.76353246,406.459
3.10997085,45.76353355,406.454
3.10997112,45.76353477,406.447
3.10997152,45.76353587,406.44
3.10997186,45.76353698,406.433
3.10997211,45.76353817,406.431
3.10997258,45.76353921,406.426
3.10997339,45.76354016,406.437
3.10997420,45.76354106,406.443
3.10997492,45.76354200,406.444
3.10997549,45.76354309,406.444
3.10997599,45.76354419,406.44
3.10997644,45.76354521,406.442
3.10997677,45.76354625,406.433
3.10997708,45.76354735,406.435
3.10997758,45.76354839,406.437
3.10997827,45.76354944,406.444
3.10997895,45.76355048,406.45
3.10997949,45.76355146,406.446
3.10997996,45.76355255,406.433
3.10998051,45.76355362,406.436
3.10998113,45.76355472,406.449
3.10998190,45.76355574,406.456
3.10998262,45.76355678,406.453
3.10998338,45.76355786,406.46
3.10998425,45.76355897,406.464
3.10998508,45.76356008,406.472
3.10998587,45.76356116,406.47
3.10998644,45.76356239,406.468
3.10998694,45.76356361,406.459
3.10998750,45.76356482,406.454
3.10998844,45.76356593,406.457
3.10998924,45.76356697,406.461
3.10999015,45.76356809,406.462
3.10999111,45.76356907,406.46
3.10999208,45.76356999,406.461
3.10999287,45.76357102,406.46
3.10999337,45.76357202,406.451
3.10999405,45.76357320,406.457
3.10999469,45.76357413,406.452
3.10999535,45.76357494,406.441
3.10999609,45.76357594,406.442
3.10999692,45.76357694,406.439
3.10999780,45.76357783,406.443
3.10999865,45.76357883,406.44
3.10999935,45.76357979,406.437
3.10999992,45.76358073,406.429
3.11000062,45.76358168,406.428
3.11000140,45.76358255,406.429
3.11000221,45.76358339,406.431
3.11000321,45.76358435,406.428
3.11000411,45.76358524,406.432
3.11000500,45.76358612,406.437
3.11000583,45.76358712,406.442
3.11000651,45.76358800,406.433
3.11000712,45.76358894,406.429
3.11000774,45.76358994,406.428
3.11000845,45.76359097,406.425
3.11000912,45.76359187,406.425
3.11000987,45.76359282,406.424
3.11001067,45.76359372,406.42
3.11001152,45.76359465,406.422
3.11001236,45.76359559,406.415
3.11001304,45.76359659,406.414
3.11001374,45.76359755,406.414
3.11001451,45.76359858,406.413
3.11001523,45.76359953,406.418
3.11001591,45.76360049,406.406
3.11001661,45.76360147,406.4
3.11001745,45.76360246,406.404
3.11001832,45.76360349,406.402
3.11001922,45.76360460,406.4
3.11002013,45.76360571,406.401
3.11002104,45.76360679,406.403
3.11002201,45.76360786,406.407
3.11002296,45.76360894,406.409
3.11002373,45.76361020,406.402
3.11002447,45.76361139,406.387
3.11002521,45.76361260,406.387
3.11002602,45.76361381,406.387
3.11002688,45.76361495,406.38
3.11002783,45.76361616,406.375
3.11002887,45.76361732,406.374
3.11002982,45.76361856,406.377
3.11003078,45.76361974,406.374
3.11003188,45.76362091,406.373
3.11003298,45.76362202,406.37
3.11003416,45.76362313,406.366
3.11003527,45.76362432,406.374
3.11003636,45.76362553,406.37
3.11003740,45.76362670,406.362
3.11003842,45.76362792,406.352
3.11003952,45.76362914,406.348
3.11004071,45.76363021,406.342
3.11004213,45.76363120,406.343
3.11004361,45.76363214,406.347
3.11004502,45.76363299,406.344
3.11004641,45.76363394,406.353
3.11004773,45.76363492,406.344
3.11004889,45.76363585,406.339
3.11005015,45.76363679,406.337
3.11005149,45.76363771,406.331
3.11005272,45.76363865,406.333
3.11005392,45.76363960,406.327
3.11005506,45.76364053,406.321
3.11005628,45.76364142,406.321
3.11005747,45.76364236,406.318
3.11005863,45.76364332,406.307
3.11005995,45.76364424,406.305
3.11006121,45.76364514,406.307
3.11006255,45.76364613,406.305
3.11006390,45.76364710,406.301
3.11006522,45.76364806,406.294
3.11006654,45.76364905,406.292
3.11006798,45.76365003,406.291
3.11006939,45.76365096,406.288
3.11007080,45.76365183,406.287
3.11007241,45.76365271,406.297
3.11007393,45.76365362,406.3
3.11007541,45.76365447,406.293
3.11007693,45.76365532,406.291
3.11007843,45.76365614,406.289
3.11007993,45.76365692,406.283
3.11008143,45.76365768,406.282
3.11008286,45.76365848,406.275
3.11008419,45.76365933,406.274
3.11008562,45.76366017,406.267
3.11008705,45.76366094,406.261
3.11008836,45.76366179,406.251
3.11008973,45.76366263,406.248
3.11009105,45.76366341,406.239
3.11009243,45.76366426,406.237
3.11009373,45.76366512,406.219
3.11009520,45.76366593,406.218
3.11009666,45.76366668,406.207
3.11009814,45.76366738,406.207
3.11009967,45.76366814,406.193
3.11010118,45.76366887,406.194
3.11010276,45.76366957,406.194
3.11010437,45.76367027,406.189
3.11010595,45.76367096,406.185
3.11010761,45.76367164,406.182
3.11010932,45.76367225,406.178
3.11011097,45.76367285,406.17
3.11011272,45.76367341,406.166
3.11011443,45.76367400,406.164
3.11011614,45.76367457,406.157
3.11011788,45.76367502,406.16
3.11011957,45.76367542,406.167
3.11012125,45.76367586,406.171
3.11012294,45.76367630,406.173
3.11012461,45.76367672,406.17
3.11012633,45.76367708,406.171
3.11012808,45.76367742,406.174
3.11012972,45.76367775,406.183
3.11013134,45.76367808,406.184
3.11013299,45.76367840,406.188
3.11013482,45.76367877,406.174
3.11013660,45.76367916,406.164
3.11013828,45.76367957,406.161
3.11013991,45.76368000,406.158
3.11014166,45.76368041,406.154
3.11014342,45.76368076,406.157
3.11014523,45.76368121,406.144
3.11014697,45.76368157,406.141
3.11014877,45.76368193,406.14
3.11015057,45.76368239,406.133
3.11015232,45.76368274,406.136
3.11015412,45.76368298,406.129
3.11015594,45.76368320,406.139
3.11015763,45.76368340,406.149
3.11015947,45.76368372,406.149
3.11016145,45.76368410,406.123
3.11016327,45.76368425,406.128
3.11016510,45.76368445,406.117
3.11016693,45.76368478,406.102
3.11016861,45.76368487,406.116
3.11017036,45.76368515,406.127
3.11017201,45.76368527,406.127
3.11017375,45.76368564,406.105
3.11017558,45.76368571,406.122
3.11017701,45.76368604,406.132
3.11017877,45.76368641,406.133
3.11018050,45.76368645,406.128
3.11018227,45.76368670,406.14
3.11018405,45.76368689,406.144
3.11018560,45.76368699,406.171
3.11018750,45.76368691,406.175
3.11018922,45.76368719,406.202
3.11019101,45.76368734,406.181
3.11019308,45.76368743,406.137
3.11019480,45.76368769,406.129
3.11019711,45.76368858,406.034
3.11019877,45.76368850,406.03
3.11020039,45.76368843,406.018
3.11020207,45.76368854,406.026
3.11020370,45.76368873,405.997
3.11020575,45.76368865,405.914
3.11020721,45.76368858,405.969
3.11020918,45.76368876,406.004
3.11021069,45.76368876,405.965
3.11021236,45.76368872,405.943
3.11021477,45.76368955,405.945
3.11021602,45.76368936,406.05
3.11021766,45.76368981,406.016
3.11021959,45.76368996,406.024
3.11022120,45.76368993,406.03
3.11022276,45.76369032,405.937
3.11022448,45.76369028,405.977
3.11022638,45.76369037,405.94
3.11022792,45.76369031,405.951
3.11022993,45.76369041,405.966
3.11023150,45.76369054,405.909
3.11023373,45.76369016,405.956
3.11023515,45.76369020,405.97
3.11023715,45.76369015,405.993
3.11023849,45.76369002,405.998
3.11024041,45.76368964,406.046
3.11024183,45.76368970,406.024
3.11024352,45.76368951,406.021
3.11024519,45.76368966,405.996
3.11024721,45.76368949,406.035
3.11024893,45.76368934,406.05
3.11025023,45.76368928,406.016
3.11025216,45.76368923,406.037
3.11025372,45.76368913,406.033
3.11025546,45.76368896,406.059
3.11025717,45.76368898,406.045
3.11025888,45.76368874,406.046
3.11026063,45.76368858,406.055
3.11026223,45.76368841,406.062
3.11026385,45.76368831,406.053
3.11026567,45.76368810,406.042
3.11026725,45.76368797,406.035
3.11026912,45.76368775,406.039
3.11027095,45.76368744,406.039
3.11027271,45.76368709,406.036
3.11027444,45.76368671,406.048
3.11027628,45.76368625,406.046
3.11027802,45.76368593,406.051
3.11027976,45.76368567,406.05
3.11028174,45.76368518,406.038
3.11028345,45.76368479,406.039
3.11028521,45.76368423,406.038
3.11028683,45.76368367,406.041
3.11028847,45.76368303,406.05
3.11028989,45.76368248,406.046
3.11029146,45.76368182,406.049
3.11029305,45.76368120,406.049
3.11029466,45.76368051,406.05
3.11029622,45.76367981,406.045
3.11029777,45.76367918,406.028
3.11029939,45.76367852,406.038
3.11030099,45.76367783,406.047
3.11030249,45.76367712,406.054
3.11030387,45.76367643,406.052
3.11030534,45.76367572,406.05
3.11030684,45.76367504,406.044
3.11030831,45.76367430,406.044
3.11030971,45.76367346,406.042
3.11031102,45.76367266,406.044
3.11031233,45.76367185,406.051
3.11031370,45.76367103,406.054
3.11031497,45.76367016,406.057
3.11031627,45.76366928,406.069
3.11031759,45.76366846,406.065
3.11031892,45.76366767,406.065
3.11032028,45.76366692,406.069
3.11032165,45.76366610,406.071
3.11032304,45.76366530,406.072
3.11032442,45.76366447,406.07
3.11032581,45.76366365,406.071
3.11032713,45.76366276,406.057
3.11032844,45.76366186,406.05
3.11032963,45.76366089,406.054
3.11033080,45.76365996,406.047
3.11033193,45.76365898,406.041
3.11033290,45.76365789,406.043
3.11033386,45.76365690,406.048
3.11033468,45.76365586,406.054
3.11033551,45.76365488,406.057
3.11033618,45.76365391,406.067
3.11033694,45.76365295,406.064
3.11033773,45.76365206,406.058
3.11033852,45.76365113,406.058
3.11033933,45.76365025,406.061
3.11034021,45.76364946,406.059
3.11034106,45.76364865,406.051
3.11034190,45.76364780,406.049
3.11034277,45.76364697,406.047
3.11034368,45.76364614,406.04
3.11034473,45.76364531,406.038
3.11034576,45.76364450,406.029
3.11034688,45.76364365,406.023
3.11034806,45.76364284,406.009
3.11034911,45.76364198,406.003
3.11035014,45.76364107,405.993
3.11035120,45.76364014,405.984
3.11035226,45.76363928,405.966
3.11035336,45.76363834,405.962
3.11035444,45.76363755,405.945
3.11035550,45.76363667,405.938
3.11035657,45.76363577,405.944
3.11035749,45.76363488,405.948
3.11035832,45.76363397,405.944
3.11035907,45.76363304,405.946
3.11035970,45.76363211,405.964
3.11036036,45.76363114,405.971
3.11036122,45.76363025,405.966
3.11036220,45.76362936,405.958
3.11036319,45.76362849,405.947
3.11036433,45.76362762,405.937
3.11036546,45.76362671,405.924
3.11036646,45.76362575,405.92
3.11036746,45.76362482,405.915
3.11036838,45.76362379,405.914
3.11036913,45.76362275,405.916
3.11036991,45.76362175,405.902
3.11037047,45.76362066,405.925
3.11037096,45.76361961,405.909
3.11037129,45.76361859,405.935
3.11037162,45.76361756,405.955
3.11037191,45.76361637,405.96
3.11037237,45.76361526,405.96
3.11037266,45.76361418,405.973
3.11037336,45.76361315,405.959
3.11037404,45.76361212,405.954
3.11037467,45.76361093,405.951
3.11037531,45.76360997,405.929
3.11037580,45.76360895,405.944
3.11037632,45.76360783,405.946
3.11037685,45.76360671,405.943
3.11037735,45.76360574,405.946
3.11037768,45.76360473,405.919
3.11037818,45.76360359,405.942
3.11037857,45.76360265,405.919
3.11037908,45.76360158,405.916
3.11037906,45.76360041,405.941
3.11037966,45.76359941,405.943
3.11038002,45.76359841,405.952
3.11038039,45.76359747,405.962
3.11038073,45.76359647,405.99
3.11038146,45.76359576,405.991
3.11038208,45.76359485,405.997
3.11038281,45.76359403,406.016
3.11038352,45.76359325,406.022
3.11038429,45.76359234,406.008
3.11038509,45.76359146,405.979
3.11038581,45.76359050,405.974
3.11038667,45.76358966,405.973
3.11038764,45.76358878,405.99
3.11038872,45.76358795,405.986
3.11038967,45.76358737,405.982
3.11039059,45.76358659,405.984
3.11039179,45.76358577,405.976
3.11039291,45.76358501,405.989
3.11039402,45.76358423,405.987
3.11039486,45.76358328,406.005
3.11039578,45.76358236,406.016
3.11039675,45.76358137,406.028
3.11039767,45.76358050,406.027
3.11039874,45.76357959,406.031
3.11039986,45.76357867,406.029
3.11040078,45.76357778,406.039
3.11040199,45.76357679,406.039
3.11040298,45.76357590,406.037
3.11040385,45.76357495,406.049
3.11040476,45.76357397,406.074
3.11040577,45.76357307,406.065
3.11040680,45.76357218,406.077
3.11040785,45.76357129,406.075
3.11040886,45.76357038,406.068
3.11040998,45.76356940,406.063
3.11041102,45.76356848,406.064
3.11041194,45.76356748,406.077
3.11041284,45.76356646,406.075
3.11041386,45.76356550,406.062
3.11041490,45.76356458,406.059
3.11041569,45.76356364,406.064
3.11041631,45.76356288,406.072
3.11041672,45.76356222,406.065
3.11041711,45.76356165,406.07
3.11041737,45.76356118,406.074
3.11041744,45.76356103,406.071
3.11041750,45.76356101,406.068
3.11041761,45.76356108,406.066
3.11041765,45.76356119,406.065
3.11041757,45.76356119,406.06
3.11041760,45.76356113,406.059
3.11041760,45.76356113,406.062
        </coordinates> 
      </LineString> 
    </Placemark> 
  </Document> 
</kml> 
