<?xml version="1.0" encoding="UTF-8"?> 
<kml xmlns="http://www.opengis.net/kml/2.2" 
     xmlns:gx="http://www.google.com/kml/ext/2.2" 
     xmlns:kml="http://www.opengis.net/kml/2.2"
     xmlns:atom="http://www.w3.org/2005/Atom"> 
  <Document> 
    <name>gps_traj.kml</name> 
    <Placemark> 
      <name>Trajectoire</name> 
      <LineString> 
        <tessellate>1</tessellate> 
        <coordinates> 
3.10999994,45.76359195,406.388
3.10999995,45.76359195,406.39
3.10999995,45.76359194,406.392
3.10999994,45.76359194,406.392
3.10999992,45.76359193,406.391
3.10999992,45.76359194,406.391
3.10999992,45.76359194,406.392
3.10999992,45.76359194,406.39
3.10999993,45.76359195,406.389
3.11000001,45.76359199,406.388
3.11000021,45.76359206,406.386
3.11000048,45.76359217,406.385
3.11000081,45.76359228,406.383
3.11000122,45.76359242,406.385
3.11000170,45.76359261,406.388
3.11000226,45.76359282,406.392
3.11000281,45.76359303,406.396
3.11000337,45.76359323,406.397
3.11000395,45.76359349,406.398
3.11000447,45.76359378,406.392
3.11000498,45.76359411,406.389
3.11000551,45.76359443,406.386
3.11000597,45.76359471,406.384
3.11000642,45.76359497,406.381
3.11000698,45.76359524,406.38
3.11000755,45.76359555,406.38
3.11000809,45.76359587,406.375
3.11000873,45.76359625,406.373
3.11000942,45.76359659,406.374
3.11001015,45.76359695,406.378
3.11001087,45.76359736,406.38
3.11001151,45.76359771,406.384
3.11001198,45.76359799,406.385
3.11001239,45.76359823,406.385
3.11001275,45.76359846,406.387
3.11001322,45.76359869,406.389
3.11001372,45.76359896,406.387
3.11001415,45.76359919,406.382
3.11001462,45.76359945,406.381
3.11001521,45.76359975,406.38
3.11001585,45.76360010,406.381
3.11001663,45.76360058,406.385
3.11001736,45.76360117,406.387
3.11001807,45.76360173,406.385
3.11001885,45.76360229,406.378
3.11001970,45.76360289,406.372
3.11002057,45.76360347,406.373
3.11002162,45.76360409,406.377
3.11002265,45.76360464,406.372
3.11002368,45.76360518,406.379
3.11002471,45.76360570,406.389
3.11002570,45.76360622,406.386
3.11002665,45.76360680,406.384
3.11002749,45.76360752,406.382
3.11002822,45.76360821,406.371
3.11002904,45.76360898,406.374
3.11003004,45.76360954,406.381
3.11003107,45.76361002,406.377
3.11003216,45.76361057,406.385
3.11003320,45.76361116,406.382
3.11003415,45.76361170,406.377
3.11003504,45.76361231,406.376
3.11003586,45.76361308,406.369
3.11003658,45.76361379,406.377
3.11003735,45.76361452,406.366
3.11003816,45.76361530,406.368
3.11003895,45.76361603,406.359
3.11003981,45.76361670,406.362
3.11004071,45.76361747,406.353
3.11004152,45.76361823,406.352
3.11004227,45.76361904,406.353
3.11004318,45.76361979,406.358
3.11004422,45.76362044,406.354
3.11004520,45.76362114,406.354
3.11004627,45.76362186,406.35
3.11004729,45.76362253,406.351
3.11004825,45.76362325,406.344
3.11004921,45.76362404,406.347
3.11005020,45.76362491,406.349
3.11005116,45.76362577,406.34
3.11005210,45.76362665,406.335
3.11005296,45.76362758,406.333
3.11005382,45.76362855,406.328
3.11005491,45.76362941,406.336
3.11005611,45.76363016,406.326
3.11005732,45.76363108,406.325
3.11005847,45.76363213,406.322
3.11005975,45.76363315,406.312
3.11006086,45.76363415,406.31
3.11006202,45.76363523,406.296
3.11006308,45.76363634,406.287
3.11006424,45.76363737,406.281
3.11006559,45.76363832,406.289
3.11006683,45.76363926,406.285
3.11006805,45.76364032,406.279
3.11006931,45.76364136,406.271
3.11007040,45.76364238,406.255
3.11007161,45.76364333,406.269
3.11007289,45.76364427,406.26
3.11007429,45.76364520,406.262
3.11007564,45.76364610,406.256
3.11007692,45.76364700,406.252
3.11007823,45.76364791,406.254
3.11007958,45.76364888,406.257
3.11008090,45.76364975,406.258
3.11008228,45.76365063,406.244
3.11008374,45.76365148,406.245
3.11008515,45.76365232,406.238
3.11008654,45.76365312,406.234
3.11008807,45.76365397,406.23
3.11008952,45.76365476,406.209
3.11009103,45.76365546,406.212
3.11009259,45.76365609,406.207
3.11009410,45.76365671,406.202
3.11009567,45.76365727,406.204
3.11009729,45.76365783,406.205
3.11009884,45.76365835,406.203
3.11010034,45.76365892,406.196
3.11010190,45.76365945,406.194
3.11010323,45.76366009,406.185
3.11010454,45.76366082,406.167
3.11010593,45.76366149,406.159
3.11010741,45.76366201,406.145
3.11010889,45.76366252,406.137
3.11011042,45.76366309,406.136
3.11011179,45.76366362,406.138
3.11011325,45.76366411,406.128
3.11011471,45.76366455,406.126
3.11011612,45.76366506,406.131
3.11011735,45.76366556,406.125
3.11011867,45.76366615,406.117
3.11012006,45.76366665,406.111
3.11012143,45.76366712,406.121
3.11012296,45.76366771,406.118
3.11012450,45.76366831,406.114
3.11012602,45.76366890,406.106
3.11012740,45.76366951,406.106
3.11012889,45.76367013,406.097
3.11013056,45.76367074,406.088
3.11013213,45.76367122,406.084
3.11013375,45.76367173,406.097
3.11013533,45.76367225,406.102
3.11013688,45.76367281,406.1
3.11013847,45.76367346,406.101
3.11014007,45.76367418,406.099
3.11014158,45.76367487,406.091
3.11014305,45.76367571,406.081
3.11014443,45.76367636,406.073
3.11014605,45.76367697,406.076
3.11014755,45.76367757,406.074
3.11014914,45.76367801,406.063
3.11015070,45.76367842,406.077
3.11015247,45.76367881,406.076
3.11015432,45.76367908,406.077
3.11015604,45.76367933,406.083
3.11015774,45.76367955,406.106
3.11015964,45.76367982,406.1
3.11016144,45.76368008,406.115
3.11016318,45.76368055,406.112
3.11016498,45.76368100,406.118
3.11016667,45.76368138,406.107
3.11016853,45.76368192,406.087
3.11017026,45.76368232,406.096
3.11017212,45.76368270,406.084
3.11017391,45.76368298,406.08
3.11017558,45.76368309,406.123
3.11017735,45.76368330,406.121
3.11017932,45.76368351,406.087
3.11018111,45.76368381,406.095
3.11018280,45.76368425,406.108
3.11018477,45.76368446,406.086
3.11018664,45.76368462,406.104
3.11018814,45.76368469,406.101
3.11019002,45.76368494,406.092
3.11019166,45.76368515,406.108
3.11019346,45.76368541,406.071
3.11019543,45.76368565,406.064
3.11019691,45.76368578,406.05
3.11019878,45.76368600,406.038
3.11020062,45.76368595,406.001
3.11020241,45.76368574,406.012
3.11020379,45.76368565,406.061
3.11020604,45.76368577,406.028
3.11020746,45.76368580,406.046
3.11020891,45.76368571,406.081
3.11021106,45.76368574,406.064
3.11021339,45.76368594,406.059
3.11021528,45.76368563,405.961
3.11021712,45.76368553,406.001
3.11021899,45.76368583,406.03
3.11022055,45.76368596,406.116
3.11022257,45.76368583,406.13
3.11022426,45.76368603,406.068
3.11022609,45.76368615,406.143
3.11022806,45.76368614,406.112
3.11022979,45.76368613,406.147
3.11023159,45.76368619,406.144
3.11023355,45.76368617,406.15
3.11023551,45.76368621,406.16
3.11023731,45.76368614,406.168
3.11023926,45.76368614,406.15
3.11024108,45.76368603,406.158
3.11024287,45.76368594,406.17
3.11024484,45.76368597,406.155
3.11024665,45.76368581,406.147
3.11024849,45.76368561,406.177
3.11025040,45.76368549,406.159
3.11025226,45.76368533,406.151
3.11025406,45.76368498,406.168
3.11025596,45.76368471,406.181
3.11025822,45.76368460,406.022
3.11026010,45.76368423,406.027
3.11026185,45.76368377,406.031
3.11026349,45.76368340,406.044
3.11026479,45.76368295,406.025
3.11026590,45.76368256,406.028
3.11026676,45.76368230,406.023
3.11026726,45.76368207,406.026
3.11026754,45.76368198,406.025
3.11026767,45.76368205,406.038
3.11026766,45.76368212,406.033
3.11026761,45.76368216,406.034
3.11026764,45.76368214,406.031
3.11026784,45.76368210,406.024
3.11026806,45.76368199,406.043
3.11026836,45.76368188,406.039
3.11026878,45.76368176,406.045
3.11026935,45.76368158,406.04
3.11026997,45.76368135,406.047
3.11027067,45.76368120,406.038
3.11027144,45.76368102,406.039
3.11027218,45.76368082,406.04
3.11027281,45.76368068,406.038
3.11027335,45.76368049,406.033
3.11027357,45.76368033,406.038
3.11027380,45.76368027,406.036
3.11027392,45.76368022,406.033
3.11027397,45.76368020,406.038
3.11027407,45.76368016,406.039
3.11027430,45.76368011,406.024
3.11027459,45.76367998,406.038
3.11027513,45.76367982,406.027
3.11027587,45.76367956,406.031
3.11027680,45.76367929,406.028
3.11027790,45.76367896,406.028
3.11027940,45.76367861,406.033
3.11028120,45.76367828,406.035
3.11028315,45.76367788,406.046
3.11028512,45.76367760,406.032
3.11028710,45.76367719,406.05
3.11028920,45.76367690,406.051
3.11029096,45.76367670,406.054
3.11029265,45.76367663,406.049
3.11029400,45.76367646,406.047
3.11029496,45.76367632,406.046
3.11029572,45.76367620,406.042
3.11029616,45.76367606,406.048
3.11029640,45.76367600,406.049
3.11029648,45.76367597,406.043
3.11029644,45.76367600,406.05
3.11029641,45.76367604,406.045
3.11029639,45.76367607,406.047
3.11029645,45.76367607,406.041
3.11029643,45.76367602,406.048
3.11029643,45.76367602,406.038
3.11029644,45.76367602,406.035
3.11029641,45.76367602,406.044
3.11029638,45.76367602,406.046
3.11029639,45.76367603,406.043
3.11029638,45.76367602,406.044
3.11029650,45.76367603,406.034
3.11029662,45.76367604,406.039
3.11029679,45.76367601,406.034
3.11029704,45.76367598,406.036
3.11029731,45.76367603,406.033
3.11029756,45.76367598,406.036
3.11029790,45.76367595,406.038
3.11029826,45.76367587,406.038
3.11029866,45.76367581,406.039
3.11029916,45.76367572,406.034
3.11029974,45.76367562,406.033
3.11030030,45.76367551,406.039
3.11030093,45.76367539,406.037
3.11030162,45.76367528,406.03
3.11030229,45.76367517,406.033
3.11030294,45.76367500,406.041
3.11030361,45.76367485,406.047
3.11030446,45.76367474,406.046
3.11030540,45.76367460,406.049
3.11030630,45.76367438,406.043
3.11030731,45.76367413,406.038
3.11030841,45.76367382,406.042
3.11030949,45.76367341,406.042
3.11031063,45.76367289,406.047
3.11031172,45.76367236,406.043
3.11031284,45.76367182,406.038
3.11031390,45.76367123,406.046
3.11031483,45.76367062,406.046
3.11031564,45.76367004,406.044
3.11031652,45.76366937,406.054
3.11031740,45.76366867,406.052
3.11031810,45.76366804,406.047
3.11031885,45.76366753,406.048
3.11031950,45.76366711,406.052
3.11031989,45.76366680,406.052
3.11032011,45.76366661,406.047
3.11032021,45.76366651,406.043
3.11032029,45.76366653,406.042
3.11032038,45.76366660,406.038
3.11032039,45.76366668,406.035
3.11032033,45.76366672,406.037
3.11032036,45.76366671,406.04
3.11032049,45.76366662,406.04
3.11032065,45.76366648,406.04
3.11032080,45.76366630,406.04
3.11032102,45.76366607,406.045
3.11032129,45.76366578,406.051
3.11032157,45.76366547,406.059
3.11032191,45.76366513,406.059
3.11032233,45.76366476,406.047
3.11032280,45.76366438,406.034
3.11032329,45.76366389,406.031
3.11032377,45.76366340,406.036
3.11032440,45.76366291,406.035
3.11032503,45.76366234,406.031
3.11032567,45.76366174,406.03
3.11032637,45.76366112,406.037
3.11032702,45.76366036,406.035
3.11032757,45.76365962,406.031
3.11032819,45.76365897,406.042
3.11032886,45.76365820,406.043
3.11032960,45.76365736,406.043
3.11033031,45.76365653,406.041
3.11033110,45.76365568,406.042
3.11033188,45.76365490,406.049
3.11033279,45.76365417,406.058
3.11033363,45.76365336,406.045
3.11033447,45.76365255,406.042
3.11033518,45.76365179,406.047
3.11033589,45.76365100,406.052
3.11033670,45.76365017,406.052
3.11033748,45.76364930,406.046
3.11033828,45.76364858,406.048
3.11033888,45.76364786,406.038
3.11033964,45.76364715,406.037
3.11034049,45.76364645,406.048
3.11034127,45.76364573,406.041
3.11034211,45.76364502,406.036
3.11034292,45.76364428,406.035
3.11034379,45.76364360,406.036
3.11034462,45.76364286,406.046
3.11034543,45.76364215,406.031
3.11034621,45.76364149,406.032
3.11034698,45.76364073,406.03
3.11034786,45.76364006,406.026
3.11034873,45.76363935,406.011
3.11034964,45.76363871,406.003
3.11035043,45.76363798,406.013
3.11035126,45.76363731,406.004
3.11035213,45.76363666,406.003
3.11035294,45.76363600,405.999
3.11035373,45.76363531,405.99
3.11035447,45.76363459,405.978
3.11035525,45.76363390,405.98
3.11035601,45.76363328,405.978
3.11035672,45.76363267,405.984
3.11035734,45.76363190,405.995
3.11035799,45.76363120,405.984
3.11035867,45.76363052,405.975
3.11035941,45.76362983,405.978
3.11035999,45.76362918,405.974
3.11036055,45.76362866,405.965
3.11036111,45.76362812,405.948
3.11036192,45.76362744,405.938
3.11036274,45.76362669,405.959
3.11036346,45.76362573,405.954
3.11036429,45.76362465,405.954
3.11036510,45.76362340,405.939
3.11036575,45.76362196,405.969
3.11036655,45.76362037,405.947
3.11036728,45.76361866,405.917
3.11036785,45.76361696,405.948
3.11036838,45.76361506,405.97
3.11036868,45.76361334,405.951
3.11036931,45.76361127,405.971
3.11036995,45.76360929,405.949
3.11037045,45.76360741,405.97
3.11037140,45.76360577,405.95
3.11037236,45.76360396,405.984
3.11037310,45.76360226,405.971
3.11037416,45.76360070,405.986
3.11037519,45.76359909,405.984
3.11037637,45.76359746,405.959
3.11037726,45.76359589,405.99
3.11037847,45.76359425,405.981
3.11037970,45.76359264,405.978
3.11038079,45.76359120,405.973
3.11038221,45.76358975,405.974
3.11038335,45.76358820,405.982
3.11038470,45.76358688,405.949
3.11038584,45.76358539,405.985
3.11038703,45.76358376,405.995
3.11038832,45.76358225,405.965
3.11038947,45.76358061,406.0
3.11039070,45.76357911,406.01
3.11039202,45.76357764,405.998
3.11039333,45.76357620,405.984
3.11039470,45.76357473,406.0
3.11039604,45.76357319,406.007
3.11039753,45.76357165,405.968
3.11039872,45.76357005,405.997
3.11039998,45.76356853,405.989
3.11040111,45.76356696,406.001
3.11040216,45.76356551,406.002
3.11040324,45.76356397,406.031
3.11040442,45.76356249,406.066
3.11040568,45.76356106,406.059
3.11040703,45.76355964,406.067
3.11040844,45.76355823,406.068
3.11040969,45.76355682,406.078
3.11041105,45.76355540,406.063
3.11041239,45.76355387,406.062
3.11041350,45.76355236,406.074
3.11041480,45.76355085,406.064
3.11041652,45.76354965,406.046
3.11041759,45.76354825,406.056
3.11041889,45.76354685,406.046
3.11042020,45.76354543,406.061
3.11042160,45.76354401,406.067
3.11042314,45.76354243,406.065
3.11042453,45.76354100,406.062
3.11042585,45.76353964,406.061
3.11042741,45.76353814,406.058
3.11042872,45.76353668,406.067
3.11042974,45.76353541,406.068
3.11043105,45.76353399,406.064
3.11043236,45.76353269,406.066
3.11043363,45.76353141,406.103
3.11043502,45.76352996,406.071
3.11043678,45.76352872,406.051
3.11043821,45.76352736,406.045
3.11043938,45.76352588,406.056
3.11044078,45.76352454,406.037
3.11044223,45.76352311,406.036
3.11044350,45.76352169,406.087
3.11044497,45.76352045,406.132
3.11044646,45.76351917,406.121
3.11044786,45.76351799,406.117
3.11044919,45.76351650,406.125
3.11045110,45.76351519,406.143
3.11045270,45.76351396,406.133
3.11045407,45.76351275,406.137
3.11045568,45.76351123,406.124
3.11045696,45.76350981,406.094
3.11045874,45.76350863,406.094
3.11046045,45.76350726,406.051
3.11046214,45.76350590,406.079
3.11046340,45.76350428,406.092
3.11046516,45.76350317,406.089
3.11046649,45.76350167,406.068
3.11046931,45.76350082,406.078
3.11047079,45.76349951,406.084
3.11047255,45.76349828,406.082
3.11047355,45.76349652,406.058
3.11047507,45.76349533,406.072
3.11047630,45.76349455,406.156
3.11047758,45.76349312,406.166
3.11047883,45.76349198,406.237
3.11048050,45.76349085,406.238
3.11048215,45.76348962,406.244
3.11048376,45.76348804,406.229
3.11048557,45.76348678,406.177
3.11048718,45.76348568,406.228
3.11048894,45.76348429,406.227
3.11049046,45.76348301,406.216
3.11049204,45.76348146,406.218
3.11049388,45.76348005,406.218
3.11049568,45.76347894,406.229
3.11049777,45.76347766,406.261
3.11049920,45.76347619,406.236
3.11050055,45.76347478,406.281
3.11050220,45.76347328,406.273
3.11050380,45.76347198,406.306
3.11050502,45.76347051,406.302
3.11050676,45.76346918,406.3
3.11050866,45.76346811,406.379
3.11051036,45.76346676,406.372
3.11051207,45.76346558,406.394
3.11051373,45.76346427,406.389
3.11051547,45.76346269,406.373
3.11051711,45.76346132,406.359
3.11051867,45.76345996,406.382
3.11052004,45.76345852,406.397
3.11052160,45.76345710,406.412
3.11052332,45.76345566,406.421
3.11052543,45.76345432,406.431
3.11052737,45.76345314,406.44
3.11052922,45.76345173,406.435
3.11053081,45.76345037,406.451
3.11053246,45.76344888,406.446
3.11053399,45.76344752,406.438
3.11053540,45.76344605,406.443
3.11053685,45.76344462,406.458
3.11053831,45.76344314,406.451
3.11053972,45.76344161,406.458
3.11054123,45.76344011,406.457
3.11054245,45.76343867,406.466
3.11054390,45.76343724,406.471
3.11054532,45.76343553,406.461
3.11054683,45.76343425,406.467
3.11054853,45.76343265,406.414
3.11054993,45.76343091,406.438
3.11055101,45.76342942,406.443
3.11055222,45.76342781,406.45
3.11055345,45.76342624,406.456
3.11055435,45.76342458,406.466
3.11055528,45.76342285,406.453
3.11055633,45.76342131,406.457
3.11055742,45.76341977,406.446
3.11055890,45.76341811,406.457
3.11055985,45.76341662,406.45
3.11056088,45.76341508,406.438
3.11056208,45.76341347,406.446
3.11056285,45.76341187,406.455
3.11056358,45.76341006,406.459
3.11056465,45.76340842,406.484
3.11056600,45.76340680,406.491
3.11056750,45.76340524,406.488
3.11056892,45.76340355,406.477
3.11057005,45.76340192,406.463
3.11057110,45.76340017,406.459
3.11057199,45.76339841,406.489
3.11057246,45.76339665,406.481
3.11057275,45.76339477,406.518
3.11057287,45.76339287,406.529
3.11057345,45.76339099,406.551
3.11057437,45.76338923,406.555
3.11057524,45.76338759,406.542
3.11057621,45.76338594,406.548
3.11057723,45.76338430,406.542
3.11057795,45.76338264,406.518
3.11057849,45.76338096,406.519
3.11057928,45.76337931,406.531
3.11058008,45.76337773,406.52
3.11058114,45.76337625,406.514
3.11058221,45.76337485,406.494
3.11058326,45.76337337,406.47
3.11058427,45.76337178,406.473
3.11058480,45.76337022,406.461
3.11058539,45.76336844,406.469
3.11058571,45.76336662,406.481
3.11058604,45.76336491,406.502
3.11058668,45.76336299,406.509
3.11058732,45.76336125,406.504
3.11058833,45.76335963,406.512
3.11058926,45.76335784,406.519
3.11059008,45.76335611,406.518
3.11059117,45.76335453,406.508
3.11059212,45.76335279,406.509
3.11059284,45.76335118,406.523
3.11059322,45.76334959,406.522
3.11059349,45.76334771,406.51
3.11059362,45.76334604,406.511
3.11059368,45.76334437,406.518
3.11059395,45.76334244,406.535
3.11059460,45.76334072,406.541
3.11059524,45.76333904,406.519
3.11059616,45.76333720,406.515
3.11059741,45.76333547,406.509
3.11059851,45.76333375,406.515
3.11059911,45.76333179,406.502
3.11059957,45.76332998,406.494
3.11060004,45.76332811,406.504
3.11060041,45.76332630,406.507
3.11060072,45.76332438,406.492
3.11060105,45.76332260,406.495
3.11060129,45.76332078,406.481
3.11060160,45.76331890,406.473
3.11060191,45.76331708,406.474
3.11060213,45.76331533,406.463
3.11060222,45.76331347,406.469
3.11060235,45.76331168,406.451
3.11060255,45.76330990,406.455
3.11060276,45.76330805,406.452
3.11060291,45.76330627,406.425
3.11060296,45.76330443,406.446
3.11060293,45.76330269,406.429
3.11060273,45.76330100,406.428
3.11060265,45.76329917,406.429
3.11060240,45.76329738,406.439
3.11060213,45.76329557,406.441
3.11060184,45.76329375,406.445
3.11060155,45.76329197,406.442
3.11060103,45.76329024,406.436
3.11060049,45.76328830,406.432
3.11059985,45.76328653,406.456
3.11059912,45.76328498,406.444
3.11059812,45.76328327,406.48
3.11059711,45.76328173,406.482
3.11059627,45.76328013,406.475
3.11059548,45.76327841,406.487
3.11059485,45.76327678,406.487
3.11059420,45.76327513,406.487
3.11059350,45.76327348,406.47
3.11059279,45.76327166,406.476
3.11059221,45.76326986,406.485
3.11059157,45.76326799,406.486
3.11059092,45.76326619,406.496
3.11059023,45.76326441,406.48
3.11058958,45.76326251,406.504
3.11058891,45.76326077,406.497
3.11058808,45.76325890,406.493
3.11058723,45.76325728,406.497
3.11058652,45.76325562,406.488
3.11058538,45.76325377,406.493
3.11058444,45.76325217,406.48
3.11058319,45.76325048,406.485
3.11058194,45.76324881,406.493
3.11058075,45.76324731,406.489
3.11057944,45.76324550,406.514
3.11057824,45.76324391,406.502
3.11057706,45.76324235,406.496
3.11057576,45.76324070,406.515
3.11057481,45.76323918,406.48
3.11057313,45.76323746,406.491
3.11057137,45.76323618,406.488
3.11057010,45.76323469,406.505
3.11056856,45.76323301,406.498
3.11056703,45.76323145,406.485
3.11056529,45.76323025,406.503
3.11056322,45.76322891,406.519
3.11056119,45.76322770,406.524
3.11055917,45.76322653,406.546
3.11055710,45.76322509,406.552
3.11055544,45.76322367,406.51
3.11055398,45.76322205,406.484
3.11055201,45.76322044,406.489
3.11055016,45.76321909,406.474
3.11054812,45.76321784,406.486
3.11054596,45.76321659,406.493
3.11054355,45.76321578,406.495
3.11054102,45.76321497,406.518
3.11053863,45.76321431,406.533
3.11053618,45.76321352,406.529
3.11053385,45.76321252,406.52
3.11053137,45.76321161,406.526
3.11052906,45.76321067,406.518
3.11052669,45.76320973,406.509
3.11052425,45.76320875,406.517
3.11052184,45.76320803,406.508
3.11051937,45.76320741,406.508
3.11051670,45.76320678,406.509
3.11051419,45.76320628,406.529
3.11051181,45.76320583,406.521
3.11050962,45.76320559,406.547
3.11050763,45.76320532,406.541
3.11050566,45.76320508,406.552
3.11050405,45.76320486,406.564
3.11050283,45.76320478,406.557
3.11050184,45.76320470,406.554
3.11050123,45.76320461,406.541
3.11050096,45.76320457,406.553
3.11050092,45.76320451,406.549
3.11050104,45.76320451,406.552
3.11050124,45.76320447,406.543
3.11050127,45.76320445,406.532
3.11050117,45.76320440,406.539
3.11050114,45.76320442,406.535
3.11050118,45.76320443,406.533
3.11050110,45.76320443,406.532
3.11050111,45.76320442,406.528
3.11050116,45.76320443,406.538
3.11050117,45.76320442,406.53
3.11050116,45.76320439,406.53
3.11050115,45.76320445,406.534
        </coordinates> 
      </LineString> 
    </Placemark> 
  </Document> 
</kml> 
