<?xml version="1.0" encoding="UTF-8"?> 
<kml xmlns="http://www.opengis.net/kml/2.2" 
     xmlns:gx="http://www.google.com/kml/ext/2.2" 
     xmlns:kml="http://www.opengis.net/kml/2.2"
     xmlns:atom="http://www.w3.org/2005/Atom"> 
  <Document> 
    <name>gps_traj.kml</name> 
    <Placemark> 
      <name>Trajectoire</name> 
      <LineString> 
        <tessellate>1</tessellate> 
        <coordinates> 
3.11004969,45.76271256,407.288
3.11004970,45.76271257,407.291
3.11004970,45.76271257,407.29
3.11004970,45.76271257,407.289
3.11004970,45.76271257,407.293
3.11004971,45.76271256,407.291
3.11004971,45.76271257,407.293
3.11004971,45.76271258,407.293
3.11004971,45.76271257,407.293
3.11004971,45.76271257,407.295
3.11004972,45.76271259,407.294
3.11004970,45.76271258,407.292
3.11004969,45.76271259,407.288
3.11004967,45.76271259,407.284
3.11004968,45.76271259,407.284
3.11004968,45.76271259,407.286
3.11004969,45.76271258,407.282
3.11004986,45.76271260,407.282
3.11005007,45.76271262,407.285
3.11005030,45.76271266,407.288
3.11005054,45.76271270,407.289
3.11005082,45.76271275,407.288
3.11005115,45.76271280,407.283
3.11005155,45.76271282,407.275
3.11005198,45.76271283,407.279
3.11005246,45.76271282,407.282
3.11005302,45.76271281,407.279
3.11005357,45.76271282,407.296
3.11005421,45.76271287,407.3
3.11005483,45.76271294,407.297
3.11005540,45.76271306,407.302
3.11005600,45.76271320,407.296
3.11005658,45.76271331,407.296
3.11005721,45.76271337,407.292
3.11005803,45.76271348,407.291
3.11005864,45.76271351,407.306
3.11005933,45.76271357,407.294
3.11005989,45.76271355,407.32
3.11006044,45.76271358,407.315
3.11006091,45.76271368,407.302
3.11006136,45.76271385,407.289
3.11006215,45.76271396,407.286
3.11006285,45.76271404,407.283
3.11006369,45.76271417,407.279
3.11006460,45.76271422,407.298
3.11006544,45.76271418,407.302
3.11006618,45.76271430,407.306
3.11006707,45.76271443,407.312
3.11006783,45.76271461,407.299
3.11006853,45.76271485,407.296
3.11006933,45.76271498,407.287
3.11007004,45.76271505,407.291
3.11007088,45.76271520,407.296
3.11007159,45.76271521,407.295
3.11007212,45.76271525,407.305
3.11007258,45.76271531,407.303
3.11007309,45.76271537,407.286
3.11007365,45.76271548,407.291
3.11007441,45.76271566,407.283
3.11007515,45.76271579,407.279
3.11007613,45.76271596,407.278
3.11007723,45.76271610,407.274
3.11007808,45.76271623,407.273
3.11007904,45.76271644,407.281
3.11007998,45.76271652,407.265
3.11008078,45.76271656,407.275
3.11008171,45.76271667,407.285
3.11008251,45.76271671,407.268
3.11008333,45.76271682,407.28
3.11008412,45.76271696,407.268
3.11008486,45.76271709,407.276
3.11008555,45.76271711,407.284
3.11008611,45.76271689,407.282
3.11008681,45.76271668,407.31
3.11008745,45.76271645,407.313
3.11008824,45.76271612,407.331
3.11008898,45.76271606,407.335
3.11008970,45.76271625,407.341
3.11009022,45.76271656,407.309
3.11009060,45.76271715,407.291
3.11009121,45.76271796,407.274
3.11009189,45.76271842,407.265
3.11009254,45.76271856,407.264
3.11009327,45.76271849,407.268
3.11009411,45.76271821,407.281
3.11009524,45.76271795,407.287
3.11009641,45.76271777,407.304
3.11009745,45.76271781,407.32
3.11009832,45.76271811,407.315
3.11009912,45.76271871,407.311
3.11009956,45.76271943,407.283
3.11010011,45.76272018,407.278
3.11010087,45.76272071,407.256
3.11010170,45.76272096,407.231
3.11010254,45.76272101,407.272
3.11010341,45.76272093,407.261
3.11010409,45.76272034,407.283
3.11010500,45.76271942,407.301
3.11010622,45.76271881,407.332
3.11010739,45.76271866,407.308
3.11010831,45.76271873,407.313
3.11010918,45.76271903,407.297
3.11010978,45.76271955,407.285
3.11011054,45.76272015,407.287
3.11011135,45.76272048,407.28
3.11011225,45.76272054,407.288
3.11011314,45.76272038,407.284
3.11011419,45.76272030,407.299
3.11011512,45.76272030,407.305
3.11011598,45.76272042,407.307
3.11011673,45.76272059,407.3
3.11011731,45.76272080,407.286
3.11011812,45.76272110,407.291
3.11011909,45.76272109,407.307
3.11012015,45.76272090,407.316
3.11012140,45.76272058,407.317
3.11012260,45.76272031,407.339
3.11012363,45.76272041,407.332
3.11012474,45.76272061,407.337
3.11012548,45.76272105,407.316
3.11012613,45.76272181,407.277
3.11012716,45.76272242,407.272
3.11012816,45.76272280,407.278
3.11012924,45.76272288,407.269
3.11013066,45.76272312,407.312
3.11013157,45.76272341,407.299
3.11013252,45.76272359,407.292
3.11013348,45.76272347,407.285
3.11013470,45.76272330,407.308
3.11013606,45.76272321,407.311
3.11013734,45.76272338,407.278
3.11013853,45.76272343,407.281
3.11013958,45.76272358,407.278
3.11014047,45.76272393,407.268
3.11014140,45.76272434,407.284
3.11014253,45.76272455,407.302
3.11014367,45.76272450,407.316
3.11014473,45.76272415,407.308
3.11014595,45.76272384,407.33
3.11014710,45.76272373,407.331
3.11014816,45.76272392,407.33
3.11014919,45.76272433,407.326
3.11015007,45.76272502,407.293
3.11015108,45.76272559,407.292
3.11015219,45.76272607,407.28
3.11015328,45.76272603,407.281
3.11015450,45.76272597,407.277
3.11015565,45.76272582,407.279
3.11015693,45.76272601,407.293
3.11015787,45.76272631,407.285
3.11015860,45.76272674,407.264
3.11015945,45.76272727,407.272
3.11016042,45.76272763,407.247
3.11016159,45.76272780,407.26
3.11016272,45.76272777,407.255
3.11016400,45.76272761,407.275
3.11016532,45.76272757,407.283
3.11016644,45.76272760,407.28
3.11016745,45.76272791,407.29
3.11016854,45.76272828,407.281
3.11016970,45.76272870,407.274
3.11017078,45.76272902,407.275
3.11017185,45.76272923,407.272
3.11017308,45.76272934,407.274
3.11017419,45.76272935,407.269
3.11017528,45.76272943,407.274
3.11017628,45.76272956,407.271
3.11017720,45.76272966,407.266
3.11017791,45.76272984,407.269
3.11017835,45.76272993,407.274
3.11017855,45.76272998,407.274
3.11017859,45.76272999,407.276
3.11017854,45.76272998,407.278
3.11017847,45.76272995,407.274
3.11017850,45.76272992,407.259
3.11017856,45.76272994,407.269
3.11017852,45.76272994,407.265
3.11017849,45.76272993,407.27
3.11017854,45.76272993,407.269
3.11017850,45.76272994,407.263
3.11017848,45.76272992,407.264
3.11017848,45.76272991,407.262
3.11017851,45.76272992,407.267
3.11017849,45.76272992,407.266
3.11017852,45.76272995,407.269
3.11017851,45.76272996,407.269
3.11017851,45.76272995,407.269
3.11017852,45.76272996,407.272
3.11017852,45.76272996,407.272
3.11017852,45.76272994,407.267
        </coordinates> 
      </LineString> 
    </Placemark> 
  </Document> 
</kml> 
