<?xml version="1.0" encoding="UTF-8"?> 
<kml xmlns="http://www.opengis.net/kml/2.2" 
     xmlns:gx="http://www.google.com/kml/ext/2.2" 
     xmlns:kml="http://www.opengis.net/kml/2.2"
     xmlns:atom="http://www.w3.org/2005/Atom"> 
  <Document> 
    <name>gps_traj.kml</name> 
    <Placemark> 
      <name>Trajectoire</name> 
      <LineString> 
        <tessellate>1</tessellate> 
        <coordinates> 
3.11053520,45.76316193,406.517
3.11053520,45.76316193,406.517
3.11053518,45.76316192,406.517
3.11053519,45.76316193,406.517
3.11053519,45.76316194,406.517
3.11053520,45.76316193,406.517
3.11053518,45.76316192,406.518
3.11053518,45.76316192,406.516
3.11053517,45.76316192,406.517
3.11053517,45.76316191,406.517
3.11053513,45.76316194,406.517
3.11053500,45.76316202,406.516
3.11053475,45.76316216,406.517
3.11053437,45.76316239,406.515
3.11053387,45.76316272,406.513
3.11053325,45.76316317,406.514
3.11053240,45.76316377,406.525
3.11053138,45.76316452,406.522
3.11053016,45.76316542,406.517
3.11052885,45.76316647,406.524
3.11052761,45.76316749,406.529
3.11052605,45.76316854,406.531
3.11052461,45.76316972,406.522
3.11052325,45.76317082,406.523
3.11052197,45.76317205,406.529
3.11052081,45.76317337,406.531
3.11051941,45.76317468,406.551
3.11051802,45.76317570,406.542
3.11051630,45.76317667,406.533
3.11051472,45.76317768,406.552
3.11051365,45.76317856,406.544
3.11051227,45.76317964,406.535
3.11051056,45.76318073,406.534
3.11050900,45.76318161,406.522
3.11050744,45.76318259,406.531
3.11050589,45.76318349,406.539
3.11050422,45.76318424,406.534
3.11050236,45.76318500,406.534
3.11050081,45.76318591,406.526
3.11049926,45.76318688,406.532
3.11049780,45.76318796,406.54
3.11049640,45.76318909,406.55
3.11049507,45.76319025,406.578
3.11049382,45.76319137,406.593
3.11049233,45.76319243,406.594
3.11049087,45.76319334,406.594
3.11048939,45.76319421,406.588
3.11048775,45.76319494,406.594
3.11048609,45.76319579,406.593
3.11048450,45.76319671,406.598
3.11048314,45.76319765,406.612
3.11048177,45.76319861,406.588
3.11048063,45.76319969,406.597
3.11047932,45.76320057,406.61
3.11047786,45.76320145,406.605
3.11047641,45.76320204,406.606
3.11047481,45.76320266,406.607
3.11047312,45.76320313,406.588
3.11047144,45.76320373,406.589
3.11046986,45.76320439,406.599
3.11046827,45.76320498,406.596
3.11046653,45.76320571,406.608
3.11046499,45.76320621,406.602
3.11046330,45.76320682,406.603
3.11046171,45.76320731,406.603
3.11046013,45.76320783,406.612
3.11045848,45.76320844,406.605
3.11045678,45.76320903,406.595
3.11045512,45.76320964,406.605
3.11045344,45.76321019,406.606
3.11045174,45.76321074,406.611
3.11044988,45.76321140,406.631
3.11044808,45.76321207,406.645
3.11044635,45.76321274,406.649
3.11044469,45.76321342,406.661
3.11044290,45.76321410,406.684
3.11044092,45.76321454,406.669
3.11043894,45.76321480,406.655
3.11043691,45.76321499,406.664
3.11043498,45.76321515,406.664
3.11043322,45.76321540,406.667
3.11043128,45.76321563,406.65
3.11042931,45.76321605,406.651
3.11042756,45.76321647,406.665
3.11042574,45.76321699,406.658
3.11042385,45.76321750,406.673
3.11042217,45.76321804,406.667
3.11042016,45.76321849,406.658
3.11041813,45.76321884,406.666
3.11041613,45.76321904,406.68
3.11041397,45.76321921,406.665
3.11041188,45.76321925,406.67
3.11040967,45.76321925,406.649
3.11040757,45.76321942,406.657
3.11040568,45.76321973,406.649
3.11040370,45.76322015,406.657
3.11040182,45.76322063,406.673
3.11039984,45.76322121,406.683
3.11039779,45.76322181,406.684
3.11039578,45.76322219,406.677
3.11039375,45.76322262,406.691
3.11039171,45.76322301,406.677
3.11038973,45.76322346,406.684
3.11038767,45.76322392,406.675
3.11038574,45.76322447,406.675
3.11038386,45.76322496,406.677
3.11038194,45.76322563,406.691
3.11038002,45.76322608,406.705
3.11037816,45.76322654,406.692
3.11037617,45.76322688,406.688
3.11037432,45.76322729,406.682
3.11037245,45.76322771,406.67
3.11037057,45.76322812,406.679
3.11036861,45.76322853,406.676
3.11036656,45.76322896,406.698
3.11036464,45.76322933,406.673
3.11036280,45.76322975,406.688
3.11036086,45.76323023,406.671
3.11035891,45.76323072,406.673
3.11035714,45.76323133,406.68
3.11035539,45.76323190,406.685
3.11035338,45.76323240,406.677
3.11035147,45.76323274,406.667
3.11034948,45.76323293,406.675
3.11034734,45.76323314,406.665
3.11034531,45.76323353,406.661
3.11034350,45.76323401,406.66
3.11034157,45.76323457,406.647
3.11033946,45.76323517,406.656
3.11033752,45.76323581,406.664
3.11033541,45.76323626,406.641
3.11033326,45.76323690,406.642
3.11033130,45.76323768,406.649
3.11032937,45.76323841,406.66
3.11032741,45.76323915,406.648
3.11032556,45.76323992,406.656
3.11032385,45.76324057,406.64
3.11032217,45.76324139,406.627
3.11032067,45.76324231,406.625
3.11031920,45.76324340,406.639
3.11031746,45.76324435,406.665
3.11031574,45.76324523,406.671
3.11031373,45.76324597,406.662
3.11031193,45.76324668,406.655
3.11031030,45.76324729,406.636
3.11030854,45.76324814,406.65
3.11030668,45.76324892,406.65
3.11030513,45.76324976,406.648
3.11030349,45.76325071,406.662
3.11030201,45.76325171,406.657
3.11030054,45.76325267,406.658
3.11029880,45.76325362,406.661
3.11029691,45.76325431,406.65
3.11029500,45.76325487,406.638
3.11029317,45.76325544,406.617
3.11029156,45.76325592,406.599
3.11028981,45.76325649,406.588
3.11028813,45.76325729,406.598
3.11028687,45.76325817,406.599
3.11028563,45.76325909,406.605
3.11028425,45.76326010,406.613
3.11028290,45.76326098,406.616
3.11028149,45.76326173,406.616
3.11027977,45.76326242,406.616
3.11027811,45.76326305,406.604
3.11027660,45.76326374,406.599
3.11027515,45.76326461,406.603
3.11027382,45.76326564,406.608
3.11027231,45.76326666,406.618
3.11027069,45.76326761,406.638
3.11026902,45.76326838,406.632
3.11026730,45.76326917,406.633
3.11026553,45.76326989,406.628
3.11026361,45.76327065,406.623
3.11026182,45.76327158,406.625
3.11026020,45.76327254,406.631
3.11025857,45.76327370,406.64
3.11025728,45.76327454,406.644
3.11025567,45.76327552,406.647
3.11025416,45.76327665,406.669
3.11025304,45.76327769,406.668
3.11025180,45.76327889,406.682
3.11025046,45.76328012,406.679
3.11024895,45.76328119,406.695
3.11024720,45.76328227,406.69
3.11024553,45.76328339,406.699
3.11024392,45.76328436,406.681
3.11024205,45.76328516,406.665
3.11023995,45.76328570,406.649
3.11023784,45.76328618,406.622
3.11023612,45.76328718,406.645
3.11023488,45.76328798,406.635
3.11023380,45.76328906,406.642
3.11023307,45.76329045,406.655
3.11023219,45.76329167,406.658
3.11023092,45.76329289,406.675
3.11022935,45.76329383,406.678
3.11022789,45.76329443,406.659
3.11022610,45.76329486,406.62
3.11022402,45.76329533,406.605
3.11022246,45.76329596,406.581
3.11022076,45.76329683,406.592
3.11021943,45.76329785,406.587
3.11021806,45.76329883,406.587
3.11021661,45.76329991,406.602
3.11021526,45.76330098,406.621
3.11021406,45.76330210,406.626
3.11021282,45.76330310,406.63
3.11021136,45.76330403,406.635
3.11020990,45.76330486,406.634
3.11020832,45.76330569,406.618
3.11020667,45.76330644,406.62
3.11020501,45.76330708,406.598
3.11020330,45.76330772,406.6
3.11020158,45.76330843,406.596
3.11020013,45.76330929,406.589
3.11019870,45.76331032,406.603
3.11019725,45.76331130,406.613
3.11019566,45.76331234,406.623
3.11019416,45.76331325,406.615
3.11019255,45.76331406,406.623
3.11019093,45.76331484,406.629
3.11018919,45.76331556,406.623
3.11018751,45.76331625,406.619
3.11018596,45.76331703,406.616
3.11018431,45.76331786,406.604
3.11018272,45.76331880,406.612
3.11018126,45.76331971,406.619
3.11017969,45.76332050,406.612
3.11017800,45.76332134,406.622
3.11017651,45.76332215,406.622
3.11017504,45.76332301,406.615
3.11017338,45.76332385,406.615
3.11017174,45.76332459,406.613
3.11017009,45.76332529,406.612
3.11016838,45.76332607,406.61
3.11016657,45.76332672,406.594
3.11016481,45.76332743,406.605
3.11016296,45.76332813,406.599
3.11016126,45.76332880,406.594
3.11015955,45.76332953,406.588
3.11015783,45.76333036,406.605
3.11015618,45.76333108,406.597
3.11015450,45.76333187,406.602
3.11015283,45.76333263,406.595
3.11015119,45.76333341,406.596
3.11014940,45.76333423,406.572
3.11014789,45.76333513,406.587
3.11014645,45.76333608,406.587
3.11014494,45.76333697,406.588
3.11014328,45.76333786,406.589
3.11014166,45.76333869,406.592
3.11014018,45.76333953,406.594
3.11013848,45.76334044,406.592
3.11013690,45.76334138,406.596
3.11013528,45.76334223,406.595
3.11013359,45.76334305,406.598
3.11013188,45.76334372,406.598
3.11013011,45.76334435,406.586
3.11012832,45.76334494,406.573
3.11012657,45.76334556,406.57
3.11012490,45.76334624,406.576
3.11012309,45.76334706,406.576
3.11012149,45.76334793,406.574
3.11011991,45.76334883,406.579
3.11011827,45.76334965,406.577
3.11011657,45.76335030,406.574
3.11011476,45.76335092,406.561
3.11011307,45.76335160,406.567
3.11011136,45.76335241,406.569
3.11010980,45.76335319,406.575
3.11010815,45.76335400,406.576
3.11010667,45.76335513,406.584
3.11010507,45.76335601,406.59
3.11010348,45.76335695,406.592
3.11010179,45.76335773,406.593
3.11010008,45.76335845,406.579
3.11009840,45.76335919,406.574
3.11009657,45.76335995,406.578
3.11009483,45.76336068,406.583
3.11009314,45.76336140,406.579
3.11009145,45.76336217,406.57
3.11008990,45.76336300,406.568
3.11008832,45.76336372,406.569
3.11008664,45.76336447,406.57
3.11008495,45.76336520,406.565
3.11008327,45.76336595,406.571
3.11008176,45.76336668,406.563
3.11008015,45.76336748,406.567
3.11007852,45.76336815,406.57
3.11007682,45.76336896,406.566
3.11007517,45.76336972,406.564
3.11007352,45.76337050,406.57
3.11007192,45.76337123,406.571
3.11007036,45.76337206,406.57
3.11006859,45.76337285,406.58
3.11006697,45.76337365,406.575
3.11006552,45.76337439,406.561
3.11006394,45.76337517,406.553
3.11006227,45.76337593,406.563
3.11006059,45.76337667,406.574
3.11005896,45.76337745,406.574
3.11005726,45.76337821,406.587
3.11005560,45.76337893,406.596
3.11005396,45.76337968,406.602
3.11005210,45.76338044,406.594
3.11005036,45.76338119,406.604
3.11004872,45.76338198,406.615
3.11004708,45.76338280,406.617
3.11004552,45.76338365,406.611
3.11004392,45.76338452,406.623
3.11004235,45.76338534,406.631
3.11004075,45.76338621,406.621
3.11003910,45.76338700,406.62
3.11003741,45.76338774,406.626
3.11003563,45.76338827,406.624
3.11003409,45.76338889,406.609
3.11003214,45.76338940,406.605
3.11003032,45.76338982,406.587
3.11002836,45.76339035,406.6
3.11002670,45.76339103,406.611
3.11002515,45.76339184,406.585
3.11002354,45.76339286,406.581
3.11002181,45.76339367,406.59
3.11002023,45.76339458,406.598
3.11001853,45.76339543,406.606
3.11001681,45.76339622,406.605
3.11001519,45.76339712,406.626
3.11001350,45.76339798,406.606
3.11001161,45.76339864,406.614
3.11000966,45.76339928,406.604
3.11000784,45.76339983,406.586
3.11000598,45.76340056,406.591
3.11000402,45.76340123,406.606
3.11000225,45.76340187,406.595
3.11000050,45.76340254,406.583
3.10999873,45.76340352,406.618
3.10999715,45.76340441,406.618
3.10999546,45.76340529,406.599
3.10999380,45.76340647,406.629
3.10999246,45.76340758,406.633
3.10999098,45.76340885,406.62
3.10998948,45.76340980,406.602
3.10998793,45.76341086,406.586
3.10998640,45.76341207,406.603
3.10998482,45.76341315,406.586
3.10998309,45.76341411,406.569
3.10998143,45.76341533,406.603
3.10997972,45.76341627,406.591
3.10997808,45.76341728,406.604
3.10997650,45.76341827,406.594
3.10997498,45.76341931,406.598
3.10997373,45.76342050,406.601
3.10997277,45.76342168,406.599
3.10997195,45.76342297,406.597
3.10997103,45.76342437,406.615
3.10997013,45.76342554,406.615
3.10996906,45.76342673,406.604
3.10996794,45.76342790,406.596
3.10996651,45.76342902,406.582
3.10996493,45.76343003,406.581
3.10996339,45.76343109,406.578
3.10996192,45.76343220,406.56
3.10996057,45.76343335,406.561
3.10995946,45.76343457,406.545
3.10995836,45.76343591,406.546
3.10995743,45.76343741,406.555
3.10995672,45.76343878,406.55
3.10995597,45.76344026,406.558
3.10995520,45.76344171,406.565
3.10995450,45.76344309,406.561
3.10995378,45.76344445,406.565
3.10995307,45.76344583,406.562
3.10995228,45.76344709,406.552
3.10995142,45.76344851,406.556
3.10995052,45.76344982,406.54
3.10994958,45.76345118,406.521
3.10994858,45.76345249,406.504
3.10994770,45.76345394,406.498
3.10994715,45.76345553,406.506
3.10994687,45.76345700,406.512
3.10994674,45.76345849,406.511
3.10994673,45.76346000,406.519
3.10994684,45.76346152,406.529
3.10994704,45.76346311,406.54
3.10994713,45.76346464,406.542
3.10994721,45.76346614,406.541
3.10994717,45.76346768,406.541
3.10994727,45.76346919,406.546
3.10994729,45.76347066,406.533
3.10994703,45.76347239,406.542
3.10994685,45.76347397,406.527
3.10994660,45.76347545,406.505
3.10994664,45.76347705,406.493
3.10994656,45.76347850,406.485
3.10994688,45.76348000,406.504
3.10994763,45.76348143,406.499
3.10994836,45.76348278,406.506
3.10994925,45.76348423,406.526
3.10995020,45.76348558,406.529
3.10995092,45.76348698,406.531
3.10995136,45.76348847,406.536
3.10995138,45.76348991,406.532
3.10995120,45.76349131,406.511
3.10995099,45.76349288,406.492
3.10995070,45.76349438,406.491
3.10995083,45.76349573,406.467
3.10995114,45.76349724,406.468
3.10995169,45.76349866,406.464
3.10995241,45.76349998,406.461
3.10995318,45.76350145,406.474
3.10995393,45.76350276,406.466
3.10995473,45.76350414,406.466
3.10995550,45.76350565,406.469
3.10995613,45.76350702,406.462
3.10995698,45.76350845,406.464
3.10995796,45.76350981,406.461
3.10995918,45.76351110,406.466
3.10996046,45.76351233,406.469
3.10996152,45.76351355,406.456
3.10996222,45.76351498,406.47
3.10996317,45.76351623,406.472
3.10996395,45.76351749,406.469
3.10996460,45.76351872,406.469
3.10996526,45.76351988,406.454
3.10996606,45.76352082,406.452
3.10996705,45.76352164,406.459
3.10996787,45.76352239,406.467
3.10996868,45.76352312,406.464
3.10996924,45.76352375,406.466
3.10996965,45.76352424,406.474
3.10996975,45.76352462,406.473
3.10996966,45.76352491,406.462
3.10996951,45.76352502,406.454
3.10996939,45.76352499,406.453
3.10996936,45.76352489,406.454
3.10996940,45.76352483,406.455
3.10996951,45.76352484,406.458
3.10996958,45.76352486,406.462
3.10996958,45.76352482,406.458
3.10996950,45.76352481,406.459
3.10996945,45.76352485,406.457
3.10996946,45.76352486,406.461
        </coordinates> 
      </LineString> 
    </Placemark> 
  </Document> 
</kml> 
