<?xml version="1.0" encoding="UTF-8"?> 
<kml xmlns="http://www.opengis.net/kml/2.2" 
     xmlns:gx="http://www.google.com/kml/ext/2.2" 
     xmlns:kml="http://www.opengis.net/kml/2.2"
     xmlns:atom="http://www.w3.org/2005/Atom"> 
  <Document> 
    <name>gps_traj.kml</name> 
    <Placemark> 
      <name>Trajectoire</name> 
      <LineString> 
        <tessellate>1</tessellate> 
        <coordinates> 
3.11056858,45.76318933,406.536
3.11056859,45.76318933,406.538
3.11056858,45.76318933,406.539
3.11056858,45.76318933,406.538
3.11056857,45.76318933,406.54
3.11056858,45.76318933,406.54
3.11056857,45.76318933,406.538
3.11056857,45.76318937,406.537
3.11056857,45.76318954,406.539
3.11056861,45.76318981,406.54
3.11056874,45.76319022,406.539
3.11056892,45.76319078,406.544
3.11056915,45.76319150,406.541
3.11056936,45.76319242,406.538
3.11056942,45.76319347,406.527
3.11056946,45.76319463,406.524
3.11056949,45.76319599,406.518
3.11056960,45.76319751,406.518
3.11056977,45.76319890,406.517
3.11056973,45.76320039,406.507
3.11056993,45.76320191,406.505
3.11057006,45.76320345,406.512
3.11057022,45.76320511,406.514
3.11057056,45.76320674,406.521
3.11057077,45.76320810,406.517
3.11057089,45.76320969,406.513
3.11057089,45.76321127,406.508
3.11057116,45.76321273,406.518
3.11057151,45.76321435,406.523
3.11057188,45.76321572,406.521
3.11057208,45.76321711,406.52
3.11057232,45.76321868,406.505
3.11057249,45.76322006,406.506
3.11057247,45.76322145,406.507
3.11057252,45.76322294,406.497
3.11057256,45.76322424,406.496
3.11057265,45.76322563,406.491
3.11057263,45.76322707,406.5
3.11057240,45.76322832,406.496
3.11057210,45.76322973,406.493
3.11057184,45.76323117,406.48
3.11057220,45.76323237,406.469
3.11057252,45.76323364,406.484
3.11057281,45.76323519,406.493
3.11057300,45.76323652,406.503
3.11057327,45.76323780,406.494
3.11057345,45.76323912,406.507
3.11057371,45.76324035,406.502
3.11057379,45.76324175,406.516
3.11057377,45.76324321,406.517
3.11057377,45.76324449,406.513
3.11057371,45.76324595,406.522
3.11057377,45.76324737,406.523
3.11057378,45.76324878,406.527
3.11057366,45.76325019,406.517
3.11057382,45.76325173,406.539
3.11057408,45.76325305,406.535
3.11057429,45.76325452,406.552
3.11057439,45.76325594,406.558
3.11057442,45.76325735,406.565
3.11057461,45.76325883,406.574
3.11057477,45.76326022,406.572
3.11057495,45.76326151,406.572
3.11057480,45.76326299,406.575
3.11057470,45.76326443,406.577
3.11057484,45.76326572,406.576
3.11057469,45.76326711,406.58
3.11057460,45.76326848,406.579
3.11057468,45.76326992,406.577
3.11057486,45.76327135,406.574
3.11057510,45.76327279,406.571
3.11057538,45.76327426,406.613
3.11057567,45.76327567,406.611
3.11057573,45.76327707,406.608
3.11057559,45.76327844,406.596
3.11057536,45.76327990,406.611
3.11057525,45.76328129,406.604
3.11057497,45.76328267,406.592
3.11057484,45.76328401,406.59
3.11057503,45.76328538,406.602
3.11057501,45.76328681,406.602
3.11057474,45.76328815,406.576
3.11057447,45.76328965,406.566
3.11057431,45.76329105,406.565
3.11057431,45.76329236,406.552
3.11057429,45.76329386,406.558
3.11057429,45.76329511,406.553
3.11057449,45.76329643,406.57
3.11057446,45.76329782,406.579
3.11057440,45.76329909,406.57
3.11057433,45.76330052,406.586
3.11057440,45.76330173,406.581
3.11057432,45.76330300,406.58
3.11057428,45.76330440,406.585
3.11057431,45.76330573,406.589
3.11057419,45.76330700,406.572
3.11057421,45.76330843,406.589
3.11057414,45.76330980,406.593
3.11057419,45.76331112,406.582
3.11057396,45.76331264,406.58
3.11057384,45.76331404,406.595
3.11057355,45.76331553,406.569
3.11057357,45.76331696,406.576
3.11057346,45.76331832,406.586
3.11057313,45.76331974,406.573
3.11057303,45.76332104,406.593
3.11057308,45.76332237,406.594
3.11057319,45.76332376,406.596
3.11057324,45.76332512,406.611
3.11057318,45.76332654,406.606
3.11057322,45.76332804,406.6
3.11057352,45.76332944,406.627
3.11057380,45.76333078,406.627
3.11057386,45.76333233,406.633
3.11057408,45.76333367,406.64
3.11057393,45.76333518,406.63
3.11057374,45.76333674,406.645
3.11057347,45.76333807,406.636
3.11057292,45.76333972,406.655
3.11057271,45.76334091,406.664
3.11057234,45.76334232,406.654
3.11057203,45.76334383,406.661
3.11057190,45.76334508,406.638
3.11057140,45.76334646,406.634
3.11057079,45.76334790,406.631
3.11057031,45.76334915,406.626
3.11056966,45.76335047,406.624
3.11056908,45.76335191,406.636
3.11056862,45.76335298,406.622
3.11056823,45.76335433,406.607
3.11056782,45.76335582,406.605
3.11056766,45.76335692,406.588
3.11056715,45.76335841,406.599
3.11056674,45.76335974,406.574
3.11056621,45.76336095,406.577
3.11056577,45.76336233,406.589
3.11056552,45.76336365,406.596
3.11056520,45.76336498,406.568
3.11056511,45.76336643,406.592
3.11056503,45.76336783,406.592
3.11056470,45.76336904,406.575
3.11056373,45.76337055,406.586
3.11056322,45.76337177,406.588
3.11056221,45.76337290,406.575
3.11056095,45.76337426,406.572
3.11055989,45.76337540,406.557
3.11055921,45.76337668,406.567
3.11055866,45.76337810,406.572
3.11055828,45.76337946,406.581
3.11055755,45.76338091,406.58
3.11055683,45.76338234,406.572
3.11055624,45.76338370,406.581
3.11055562,45.76338511,406.569
3.11055495,45.76338653,406.56
3.11055419,45.76338799,406.564
3.11055350,45.76338931,406.547
3.11055302,45.76339072,406.54
3.11055280,45.76339208,406.545
3.11055256,45.76339351,406.56
3.11055240,45.76339474,406.574
3.11055208,45.76339605,406.565
3.11055164,45.76339737,406.564
3.11055123,45.76339844,406.567
3.11055073,45.76339956,406.565
3.11054988,45.76340075,406.557
3.11054895,45.76340193,406.548
3.11054805,45.76340300,406.535
3.11054688,45.76340425,406.511
3.11054559,45.76340526,406.499
3.11054425,45.76340626,406.499
3.11054282,45.76340751,406.48
3.11054158,45.76340858,406.475
3.11054060,45.76340982,406.492
3.11053967,45.76341121,406.491
3.11053944,45.76341253,406.51
3.11053910,45.76341396,406.525
3.11053865,45.76341550,406.564
3.11053790,45.76341678,406.552
3.11053679,45.76341798,406.556
3.11053570,45.76341916,406.547
3.11053464,45.76342030,406.54
3.11053383,45.76342171,406.548
3.11053311,45.76342296,406.544
3.11053223,45.76342427,406.541
3.11053138,45.76342569,406.556
3.11053068,45.76342698,406.544
3.11052995,45.76342838,406.544
3.11052907,45.76342976,406.565
3.11052823,45.76343106,406.548
3.11052706,45.76343240,406.525
3.11052622,45.76343367,406.541
3.11052530,45.76343476,406.539
3.11052433,45.76343591,406.54
3.11052329,45.76343702,406.541
3.11052218,45.76343816,406.52
3.11052090,45.76343933,406.52
3.11051983,45.76344062,406.513
3.11051865,45.76344173,406.497
3.11051757,45.76344285,406.504
3.11051648,45.76344411,406.495
3.11051525,45.76344522,406.495
3.11051434,45.76344633,406.492
3.11051345,45.76344750,406.491
3.11051232,45.76344866,406.484
3.11051112,45.76344973,406.482
3.11050965,45.76345065,406.459
3.11050814,45.76345160,406.431
3.11050667,45.76345253,406.428
3.11050541,45.76345358,406.431
3.11050412,45.76345474,406.442
3.11050309,45.76345603,406.429
3.11050208,45.76345755,406.39
3.11050114,45.76345885,406.407
3.11050022,45.76346023,406.425
3.11049896,45.76346138,406.403
3.11049743,45.76346254,406.398
3.11049616,45.76346346,406.421
3.11049484,45.76346434,406.404
3.11049322,45.76346547,406.385
3.11049189,45.76346653,406.38
3.11049056,45.76346763,406.351
3.11048950,45.76346890,406.365
3.11048861,45.76347014,406.371
3.11048753,45.76347150,406.383
3.11048639,45.76347266,406.369
3.11048514,45.76347359,406.337
3.11048369,45.76347464,406.345
3.11048230,45.76347550,406.335
3.11048084,45.76347642,406.32
3.11047955,45.76347749,406.345
3.11047819,45.76347849,406.338
3.11047697,45.76347955,406.322
3.11047554,45.76348061,406.257
3.11047435,45.76348170,406.269
3.11047321,45.76348276,406.26
3.11047176,45.76348379,406.236
3.11047065,45.76348456,406.227
3.11046917,45.76348557,406.197
3.11046785,45.76348673,406.194
3.11046665,45.76348751,406.205
3.11046507,45.76348857,406.211
3.11046390,45.76348963,406.204
3.11046271,45.76349104,406.225
3.11046161,45.76349218,406.212
3.11046036,45.76349306,406.202
3.11045895,45.76349408,406.199
3.11045731,45.76349488,406.171
3.11045592,45.76349578,406.16
3.11045429,45.76349675,406.174
3.11045267,45.76349762,406.144
3.11045139,45.76349867,406.128
3.11044987,45.76349955,406.154
3.11044959,45.76350122,406.211
3.11044826,45.76350219,406.192
3.11044692,45.76350333,406.213
3.11044565,45.76350428,406.214
3.11044398,45.76350497,406.127
3.11044281,45.76350621,406.156
3.11044142,45.76350710,406.128
3.11044008,45.76350799,406.125
3.11043875,45.76350890,406.12
3.11043657,45.76350957,406.125
3.11043512,45.76351049,406.121
3.11043388,45.76351155,406.118
3.11043250,45.76351237,406.104
3.11043093,45.76351346,406.128
3.11042970,45.76351446,406.079
3.11042866,45.76351556,406.067
3.11042730,45.76351672,406.083
3.11042609,45.76351766,406.074
3.11042485,45.76351887,406.075
3.11042344,45.76352021,406.135
3.11042209,45.76352135,406.124
3.11042075,45.76352232,406.12
3.11041961,45.76352376,406.149
3.11041866,45.76352515,406.171
3.11041751,45.76352619,406.155
3.11041633,45.76352743,406.172
3.11041512,45.76352865,406.175
3.11041405,45.76352937,406.084
3.11041287,45.76353043,406.075
3.11041185,45.76353124,406.012
3.11041046,45.76353263,406.065
3.11040923,45.76353388,406.065
3.11040814,45.76353511,406.058
3.11040696,45.76353618,406.04
3.11040584,45.76353728,406.034
3.11040480,45.76353874,406.084
3.11040347,45.76353986,406.09
3.11040236,45.76354103,406.093
3.11040136,45.76354219,406.077
3.11040029,45.76354348,406.101
3.11039935,45.76354468,406.088
3.11039834,45.76354582,406.087
3.11039731,45.76354696,406.091
3.11039630,45.76354814,406.098
3.11039533,45.76354920,406.077
3.11039426,45.76355032,406.085
3.11039338,45.76355153,406.084
3.11039250,45.76355275,406.08
3.11039166,45.76355392,406.091
3.11039070,45.76355524,406.115
3.11038998,45.76355649,406.111
3.11038924,45.76355773,406.117
3.11038854,45.76355899,406.112
3.11038794,45.76356028,406.12
3.11038768,45.76356146,406.079
3.11038717,45.76356275,406.083
3.11038667,45.76356391,406.074
3.11038631,45.76356500,406.077
3.11038579,45.76356609,406.087
3.11038549,45.76356715,406.054
3.11038508,45.76356806,406.04
3.11038465,45.76356902,406.053
3.11038427,45.76356991,406.041
3.11038395,45.76357077,406.05
3.11038344,45.76357161,406.072
3.11038316,45.76357248,406.065
3.11038294,45.76357334,406.057
3.11038263,45.76357406,406.063
3.11038233,45.76357484,406.045
3.11038186,45.76357551,406.088
3.11038146,45.76357626,406.092
3.11038113,45.76357709,406.089
3.11038093,45.76357781,406.088
3.11038066,45.76357864,406.087
3.11038038,45.76357938,406.046
3.11038008,45.76358014,406.047
3.11037966,45.76358095,406.054
3.11037914,45.76358162,406.049
3.11037862,45.76358228,406.035
3.11037793,45.76358287,406.05
3.11037741,45.76358350,406.045
3.11037689,45.76358416,406.041
3.11037655,45.76358485,406.046
3.11037627,45.76358549,406.038
3.11037604,45.76358624,406.017
3.11037565,45.76358687,406.012
3.11037512,45.76358763,406.02
3.11037454,45.76358830,406.011
3.11037398,45.76358906,406.009
3.11037345,45.76358978,405.993
3.11037277,45.76359045,406.045
3.11037205,45.76359117,406.046
3.11037131,45.76359175,406.038
3.11037069,45.76359240,406.048
3.11036980,45.76359289,406.027
3.11036918,45.76359345,406.022
3.11036866,45.76359403,406.024
3.11036814,45.76359462,406.031
3.11036771,45.76359521,406.022
3.11036721,45.76359583,406.016
3.11036678,45.76359640,406.018
3.11036613,45.76359692,406.02
3.11036532,45.76359744,406.011
3.11036463,45.76359809,406.0
3.11036371,45.76359873,406.005
3.11036280,45.76359947,405.986
3.11036200,45.76360024,406.009
3.11036107,45.76360105,405.997
3.11036019,45.76360191,406.004
3.11035937,45.76360286,406.003
3.11035870,45.76360407,406.036
3.11035810,45.76360511,406.034
3.11035740,45.76360620,406.031
3.11035649,45.76360731,406.046
3.11035558,45.76360861,406.038
3.11035477,45.76360986,406.034
3.11035403,45.76361122,406.033
3.11035307,45.76361252,406.033
3.11035225,45.76361390,406.04
3.11035139,45.76361532,406.048
3.11035037,45.76361669,406.046
3.11034918,45.76361791,406.047
3.11034787,45.76361906,406.039
3.11034657,45.76362021,406.039
3.11034541,45.76362136,406.04
3.11034416,45.76362254,406.035
3.11034302,45.76362375,406.043
3.11034193,45.76362494,406.038
3.11034108,45.76362621,406.033
3.11034013,45.76362751,406.04
3.11033925,45.76362881,406.049
3.11033831,45.76363007,406.046
3.11033741,45.76363131,406.051
3.11033644,45.76363262,406.046
3.11033550,45.76363391,406.075
3.11033447,45.76363511,406.062
3.11033329,45.76363634,406.069
3.11033219,45.76363756,406.07
3.11033100,45.76363866,406.072
3.11032987,45.76363988,406.066
3.11032871,45.76364105,406.063
3.11032755,45.76364220,406.058
3.11032645,45.76364335,406.059
3.11032539,45.76364449,406.059
3.11032439,45.76364567,406.057
3.11032328,45.76364677,406.051
3.11032236,45.76364793,406.053
3.11032148,45.76364906,406.062
3.11032046,45.76365021,406.067
3.11031944,45.76365128,406.059
3.11031837,45.76365231,406.067
3.11031737,45.76365332,406.077
3.11031629,45.76365430,406.073
3.11031519,45.76365526,406.075
3.11031401,45.76365617,406.069
3.11031285,45.76365702,406.071
3.11031155,45.76365775,406.063
3.11031033,45.76365854,406.067
3.11030900,45.76365932,406.062
3.11030777,45.76366010,406.088
3.11030638,45.76366090,406.083
3.11030494,45.76366161,406.087
3.11030347,45.76366232,406.08
3.11030183,45.76366296,406.091
3.11030018,45.76366356,406.086
3.11029853,45.76366422,406.075
3.11029674,45.76366479,406.091
3.11029494,45.76366532,406.091
3.11029316,45.76366588,406.094
3.11029124,45.76366650,406.077
3.11028930,45.76366704,406.058
3.11028754,45.76366755,406.065
3.11028570,45.76366801,406.059
3.11028380,45.76366847,406.059
3.11028187,45.76366890,406.046
3.11028008,45.76366936,406.053
3.11027824,45.76366988,406.048
3.11027642,45.76367037,406.056
3.11027470,45.76367089,406.071
3.11027297,45.76367141,406.081
3.11027132,45.76367189,406.084
3.11026952,45.76367238,406.068
3.11026778,45.76367276,406.075
3.11026613,45.76367312,406.067
3.11026442,45.76367344,406.066
3.11026330,45.76367357,406.152
3.11026174,45.76367385,406.164
3.11025999,45.76367413,406.166
3.11025818,45.76367443,406.155
3.11025570,45.76367495,406.04
3.11025380,45.76367508,406.036
3.11025204,45.76367527,406.038
3.11025025,45.76367538,406.035
3.11024842,45.76367546,406.04
3.11024636,45.76367559,406.052
3.11024444,45.76367572,406.044
3.11024259,45.76367566,406.058
3.11024074,45.76367560,406.069
3.11023869,45.76367563,406.057
3.11023672,45.76367578,406.034
3.11023482,45.76367573,406.044
3.11023277,45.76367584,406.006
3.11023086,45.76367585,406.022
3.11022894,45.76367594,406.02
3.11022702,45.76367596,406.034
3.11022510,45.76367600,406.046
3.11022308,45.76367602,406.022
3.11022128,45.76367603,406.061
3.11021928,45.76367613,406.046
3.11021726,45.76367600,406.038
3.11021543,45.76367615,406.047
3.11021346,45.76367615,406.057
3.11021145,45.76367613,406.052
3.11020938,45.76367622,406.049
3.11020761,45.76367608,406.075
3.11020582,45.76367616,406.115
3.11020384,45.76367613,406.108
3.11020180,45.76367624,406.088
3.11019986,45.76367621,406.117
3.11019785,45.76367623,406.087
3.11019588,45.76367606,406.091
3.11019386,45.76367607,406.099
3.11019194,45.76367608,406.085
3.11018991,45.76367601,406.091
3.11018794,45.76367582,406.104
3.11018583,45.76367575,406.086
3.11018389,45.76367565,406.109
3.11018177,45.76367539,406.1
3.11017985,45.76367529,406.119
3.11017776,45.76367522,406.102
3.11017569,45.76367518,406.104
3.11017363,45.76367512,406.099
3.11017163,45.76367507,406.118
3.11016958,45.76367495,406.101
3.11016760,45.76367479,406.105
3.11016559,45.76367470,406.124
3.11016363,45.76367467,406.128
3.11016157,45.76367472,406.14
3.11015965,45.76367472,406.125
3.11015768,45.76367475,406.142
3.11015577,45.76367467,406.139
3.11015391,45.76367456,406.14
3.11015195,45.76367439,406.133
3.11015024,45.76367421,406.132
3.11014835,45.76367394,406.121
3.11014642,45.76367389,406.132
3.11014451,45.76367377,406.132
3.11014266,45.76367364,406.126
3.11014076,45.76367341,406.125
3.11013896,45.76367324,406.135
3.11013717,45.76367304,406.134
3.11013538,45.76367277,406.125
3.11013355,45.76367251,406.125
3.11013165,45.76367236,406.144
3.11012987,45.76367214,406.145
3.11012808,45.76367181,406.148
3.11012624,45.76367148,406.138
3.11012445,45.76367113,406.145
3.11012274,45.76367077,406.134
3.11012101,45.76367051,406.151
3.11011922,45.76367026,406.155
3.11011752,45.76367004,406.151
3.11011570,45.76366979,406.16
3.11011402,45.76366955,406.167
3.11011242,45.76366925,406.168
3.11011080,45.76366875,406.179
3.11010923,45.76366822,406.173
3.11010767,45.76366784,406.173
3.11010623,45.76366738,406.179
3.11010485,45.76366685,406.186
3.11010336,45.76366622,406.196
3.11010196,45.76366565,406.196
3.11010059,45.76366506,406.2
3.11009922,45.76366441,406.21
3.11009791,45.76366374,406.212
3.11009652,45.76366300,406.215
3.11009526,45.76366221,406.216
3.11009410,45.76366138,406.21
3.11009297,45.76366043,406.221
3.11009182,45.76365954,406.23
3.11009056,45.76365864,406.229
3.11008933,45.76365761,406.245
3.11008828,45.76365649,406.257
3.11008719,45.76365529,406.253
3.11008614,45.76365414,406.262
3.11008522,45.76365307,406.267
3.11008433,45.76365180,406.265
3.11008349,45.76365059,406.263
3.11008269,45.76364936,406.273
3.11008190,45.76364805,406.267
3.11008134,45.76364678,406.267
3.11008075,45.76364542,406.266
3.11008013,45.76364407,406.255
3.11007947,45.76364284,406.262
3.11007874,45.76364154,406.267
3.11007798,45.76364030,406.274
3.11007727,45.76363903,406.282
3.11007657,45.76363775,406.279
3.11007596,45.76363650,406.271
3.11007536,45.76363515,406.271
3.11007466,45.76363382,406.266
3.11007405,45.76363259,406.278
3.11007330,45.76363121,406.279
3.11007253,45.76362993,406.285
3.11007163,45.76362884,406.282
3.11007055,45.76362755,406.291
3.11006954,45.76362626,406.307
3.11006871,45.76362513,406.309
3.11006766,45.76362386,406.32
3.11006670,45.76362260,406.329
        </coordinates> 
      </LineString> 
    </Placemark> 
  </Document> 
</kml> 
