<?xml version="1.0" encoding="UTF-8"?> 
<kml xmlns="http://www.opengis.net/kml/2.2" 
     xmlns:gx="http://www.google.com/kml/ext/2.2" 
     xmlns:kml="http://www.opengis.net/kml/2.2"
     xmlns:atom="http://www.w3.org/2005/Atom"> 
  <Document> 
    <name>gps_traj.kml</name> 
    <Placemark> 
      <name>Trajectoire</name> 
      <LineString> 
        <tessellate>1</tessellate> 
        <coordinates> 
3.11053805,45.76319212,406.526
3.11053804,45.76319211,406.527
3.11053803,45.76319211,406.526
3.11053803,45.76319211,406.525
3.11053803,45.76319212,406.525
3.11053803,45.76319211,406.525
3.11053804,45.76319211,406.526
3.11053805,45.76319211,406.524
3.11053806,45.76319211,406.525
3.11053807,45.76319211,406.525
3.11053806,45.76319214,406.524
3.11053807,45.76319232,406.525
3.11053808,45.76319262,406.527
3.11053808,45.76319307,406.527
3.11053807,45.76319358,406.524
3.11053811,45.76319413,406.526
3.11053814,45.76319473,406.526
3.11053819,45.76319540,406.523
3.11053825,45.76319608,406.528
3.11053841,45.76319684,406.532
3.11053866,45.76319766,406.53
3.11053895,45.76319851,406.532
3.11053909,45.76319941,406.533
3.11053908,45.76320036,406.527
3.11053904,45.76320133,406.527
3.11053930,45.76320222,406.523
3.11053965,45.76320307,406.531
3.11053996,45.76320406,406.532
3.11054018,45.76320509,406.539
3.11054055,45.76320611,406.548
3.11054071,45.76320689,406.547
3.11054065,45.76320763,406.547
3.11054049,45.76320865,406.545
3.11054060,45.76320958,406.546
3.11054078,45.76321035,406.547
3.11054094,45.76321133,406.544
3.11054110,45.76321229,406.546
3.11054136,45.76321323,406.552
3.11054148,45.76321425,406.549
3.11054160,45.76321528,406.551
3.11054174,45.76321632,406.54
3.11054201,45.76321714,406.543
3.11054226,45.76321802,406.552
3.11054249,45.76321895,406.555
3.11054269,45.76321978,406.551
3.11054284,45.76322067,406.554
3.11054301,45.76322158,406.565
3.11054311,45.76322239,406.568
3.11054345,45.76322320,406.573
3.11054393,45.76322408,406.575
3.11054453,45.76322506,406.583
3.11054502,45.76322619,406.585
3.11054513,45.76322690,406.588
3.11054507,45.76322752,406.586
3.11054502,45.76322843,406.587
3.11054511,45.76322922,406.585
3.11054523,45.76322998,406.578
3.11054552,45.76323091,406.58
3.11054588,45.76323173,406.587
3.11054633,45.76323255,406.584
3.11054663,45.76323339,406.581
3.11054645,45.76323428,406.565
3.11054638,45.76323527,406.579
3.11054634,45.76323616,406.569
3.11054648,45.76323705,406.568
3.11054665,45.76323793,406.573
3.11054719,45.76323880,406.577
3.11054775,45.76323970,406.584
3.11054810,45.76324060,406.591
3.11054829,45.76324146,406.593
3.11054842,45.76324223,406.589
3.11054861,45.76324302,406.574
3.11054923,45.76324375,406.573
3.11054979,45.76324464,406.598
3.11054988,45.76324551,406.609
3.11054996,45.76324614,406.609
3.11054988,45.76324682,406.609
3.11054957,45.76324748,406.596
3.11054922,45.76324822,406.593
3.11054916,45.76324901,406.592
3.11054958,45.76324979,406.599
3.11055008,45.76325059,406.595
3.11055070,45.76325137,406.604
3.11055110,45.76325217,406.616
3.11055129,45.76325299,406.612
3.11055118,45.76325386,406.598
3.11055086,45.76325473,406.588
3.11055042,45.76325558,406.572
3.11055010,45.76325652,406.563
3.11054996,45.76325739,406.557
3.11055007,45.76325831,406.552
3.11055029,45.76325928,406.559
3.11055052,45.76326022,406.564
3.11055077,45.76326107,406.572
3.11055096,45.76326195,406.571
3.11055090,45.76326286,406.58
3.11055090,45.76326377,406.576
3.11055112,45.76326463,406.581
3.11055136,45.76326553,406.586
3.11055167,45.76326642,406.594
3.11055196,45.76326727,406.598
3.11055232,45.76326816,406.601
3.11055265,45.76326907,406.602
3.11055282,45.76327003,406.613
3.11055284,45.76327098,406.618
3.11055289,45.76327190,406.605
3.11055300,45.76327281,406.601
3.11055298,45.76327374,406.605
3.11055300,45.76327464,406.608
3.11055317,45.76327556,406.609
3.11055347,45.76327648,406.607
3.11055383,45.76327733,406.621
3.11055432,45.76327822,406.622
3.11055490,45.76327910,406.627
3.11055548,45.76328001,406.639
3.11055593,45.76328097,406.643
3.11055614,45.76328188,406.646
3.11055599,45.76328275,406.638
3.11055588,45.76328369,406.63
3.11055572,45.76328451,406.619
3.11055569,45.76328544,406.626
3.11055588,45.76328636,406.623
3.11055620,45.76328754,406.63
3.11055650,45.76328877,406.621
3.11055671,45.76329018,406.616
3.11055700,45.76329172,406.625
3.11055726,45.76329325,406.623
3.11055736,45.76329480,406.619
3.11055741,45.76329637,406.617
3.11055759,45.76329778,406.618
3.11055774,45.76329910,406.603
3.11055801,45.76330039,406.603
3.11055811,45.76330180,406.587
3.11055833,45.76330315,406.592
3.11055868,45.76330442,406.594
3.11055906,45.76330567,406.6
3.11055943,45.76330689,406.611
3.11055978,45.76330821,406.611
3.11056013,45.76330951,406.609
3.11056047,45.76331087,406.611
3.11056072,45.76331216,406.615
3.11056099,45.76331351,406.607
3.11056130,45.76331479,406.616
3.11056161,45.76331606,406.617
3.11056187,45.76331729,406.627
3.11056218,45.76331845,406.637
3.11056253,45.76331937,406.643
3.11056279,45.76332020,406.64
3.11056292,45.76332098,406.64
3.11056292,45.76332184,406.643
3.11056298,45.76332285,406.642
3.11056306,45.76332388,406.645
3.11056308,45.76332504,406.647
3.11056321,45.76332615,406.653
3.11056353,45.76332733,406.659
3.11056380,45.76332850,406.66
3.11056414,45.76332979,406.67
3.11056457,45.76333102,406.679
3.11056458,45.76333212,406.669
3.11056465,45.76333337,406.666
3.11056475,45.76333459,406.671
3.11056466,45.76333576,406.672
3.11056444,45.76333697,406.668
3.11056405,45.76333809,406.664
3.11056367,45.76333910,406.665
3.11056324,45.76334032,406.653
3.11056282,45.76334138,406.646
3.11056255,45.76334245,406.654
3.11056217,45.76334353,406.642
3.11056165,45.76334456,406.628
3.11056136,45.76334550,406.625
3.11056145,45.76334648,406.62
3.11056143,45.76334760,406.636
3.11056127,45.76334868,406.633
3.11056085,45.76334971,406.627
3.11056053,45.76335075,406.626
3.11056016,45.76335186,406.617
3.11055980,45.76335286,406.598
3.11055950,45.76335400,406.592
3.11055908,45.76335523,406.574
3.11055883,45.76335651,406.57
3.11055860,45.76335760,406.56
3.11055830,45.76335895,406.558
3.11055805,45.76336022,406.556
3.11055785,45.76336135,406.561
3.11055751,45.76336258,406.544
3.11055715,45.76336380,406.544
3.11055695,45.76336486,406.552
3.11055661,45.76336607,406.543
3.11055618,45.76336725,406.548
3.11055576,45.76336838,406.54
3.11055542,45.76336954,406.54
3.11055501,45.76337082,406.544
3.11055447,45.76337203,406.544
3.11055422,45.76337326,406.533
3.11055397,45.76337468,406.544
3.11055396,45.76337593,406.555
3.11055384,45.76337729,406.554
3.11055352,45.76337875,406.557
3.11055331,45.76338011,406.575
3.11055304,45.76338144,406.579
3.11055246,45.76338265,406.556
3.11055178,45.76338411,406.56
3.11055135,45.76338539,406.556
3.11055093,45.76338678,406.548
3.11055049,45.76338813,406.564
3.11055017,45.76338941,406.549
3.11054993,45.76339070,406.55
3.11054992,45.76339199,406.564
3.11054998,45.76339308,406.562
3.11054978,45.76339432,406.566
3.11054950,45.76339548,406.558
3.11054904,45.76339669,406.549
3.11054877,45.76339790,406.551
3.11054852,45.76339897,406.552
3.11054819,45.76340013,406.553
3.11054799,45.76340148,406.557
3.11054759,45.76340287,406.552
3.11054718,45.76340389,406.549
3.11054636,45.76340509,406.528
3.11054530,45.76340633,406.505
3.11054435,45.76340742,406.495
3.11054360,45.76340864,406.49
3.11054301,45.76340991,406.49
3.11054258,45.76341113,406.506
3.11054246,45.76341251,406.535
3.11054254,45.76341384,406.542
3.11054281,45.76341534,406.543
3.11054276,45.76341681,406.558
3.11054251,45.76341813,406.58
3.11054211,45.76341922,406.571
3.11054142,45.76342017,406.55
3.11054068,45.76342123,406.556
3.11053998,45.76342232,406.55
3.11053937,45.76342347,406.548
3.11053891,45.76342466,406.537
3.11053850,45.76342580,406.535
3.11053781,45.76342690,406.538
3.11053702,45.76342797,406.536
3.11053620,45.76342892,406.534
3.11053530,45.76342979,406.538
3.11053434,45.76343064,406.531
3.11053314,45.76343143,406.517
3.11053206,45.76343225,406.526
3.11053101,45.76343308,406.526
3.11053005,45.76343395,406.519
3.11052919,45.76343492,406.524
3.11052828,45.76343583,406.53
3.11052720,45.76343681,406.528
3.11052617,45.76343766,406.517
3.11052504,45.76343866,406.516
3.11052375,45.76343949,406.508
3.11052252,45.76344037,406.502
3.11052144,45.76344131,406.512
3.11052035,45.76344230,406.512
3.11051903,45.76344331,406.502
3.11051793,45.76344434,406.502
3.11051698,45.76344529,406.51
3.11051587,45.76344624,406.518
3.11051482,45.76344732,406.51
3.11051351,45.76344830,406.487
3.11051214,45.76344924,406.476
3.11051071,45.76345014,406.464
3.11050936,45.76345111,406.453
3.11050800,45.76345183,406.432
3.11050666,45.76345273,406.449
3.11050546,45.76345367,406.433
3.11050437,45.76345470,406.433
3.11050323,45.76345589,406.434
3.11050249,45.76345706,406.445
3.11050145,45.76345828,406.432
3.11050018,45.76345935,406.415
3.11049900,45.76346053,406.423
3.11049759,45.76346145,406.393
3.11049628,45.76346246,406.4
3.11049493,45.76346351,406.394
3.11049349,45.76346471,406.416
3.11049213,45.76346564,406.392
3.11049095,45.76346670,406.391
3.11048973,45.76346775,406.378
3.11048863,45.76346883,406.383
3.11048747,45.76347002,406.388
3.11048631,45.76347100,406.369
3.11048528,45.76347200,406.36
3.11048393,45.76347302,406.366
3.11048271,45.76347396,406.33
3.11048134,45.76347476,406.315
3.11048023,45.76347566,406.296
3.11047884,45.76347649,406.275
3.11047771,45.76347741,406.267
3.11047680,45.76347849,406.266
3.11047555,45.76347956,406.283
3.11047463,45.76348069,406.285
3.11047355,45.76348163,406.301
3.11047218,45.76348266,406.291
3.11047105,45.76348338,406.27
3.11046978,45.76348427,406.226
3.11046838,45.76348513,406.25
3.11046744,45.76348603,406.217
3.11046606,45.76348715,406.214
3.11046492,45.76348806,406.212
3.11046400,45.76348924,406.206
3.11046299,45.76349027,406.174
3.11046199,45.76349130,406.186
3.11046088,45.76349226,406.194
3.11045964,45.76349329,406.223
3.11045883,45.76349454,406.16
3.11045756,45.76349550,406.164
3.11045642,45.76349639,406.134
3.11045520,45.76349740,406.119
3.11045375,45.76349829,406.127
3.11045238,45.76349906,406.191
3.11045119,45.76349998,406.205
3.11044985,45.76350100,406.212
3.11044887,45.76350222,406.208
3.11044789,45.76350313,406.199
3.11044689,45.76350392,406.145
3.11044588,45.76350492,406.137
3.11044485,45.76350602,406.138
3.11044391,45.76350697,406.125
3.11044265,45.76350798,406.126
3.11044116,45.76350919,406.155
3.11044000,45.76351015,406.157
3.11043879,45.76351110,406.169
3.11043772,45.76351213,406.165
3.11043671,45.76351319,406.149
3.11043568,45.76351408,406.152
3.11043466,45.76351515,406.134
3.11043366,45.76351610,406.111
3.11043239,45.76351698,406.143
3.11043151,45.76351787,406.116
3.11043058,45.76351874,406.106
3.11042966,45.76351969,406.101
3.11042876,45.76352067,406.11
3.11042787,45.76352155,406.102
3.11042690,45.76352253,406.109
3.11042565,45.76352348,406.178
3.11042476,45.76352450,406.173
3.11042370,45.76352549,406.162
3.11042238,45.76352646,406.168
3.11042126,45.76352739,406.144
3.11042007,45.76352828,406.129
3.11041887,45.76352944,406.132
3.11041774,45.76353044,406.124
3.11041652,45.76353149,406.111
3.11041540,45.76353258,406.132
3.11041431,45.76353375,406.131
3.11041332,45.76353485,406.137
3.11041223,45.76353593,406.142
3.11041136,45.76353706,406.141
3.11041062,45.76353806,406.138
3.11041000,45.76353904,406.102
3.11040923,45.76353996,406.086
3.11040842,45.76354078,406.081
3.11040752,45.76354168,406.096
3.11040667,45.76354267,406.096
3.11040606,45.76354367,406.092
3.11040519,45.76354461,406.093
3.11040437,45.76354554,406.098
3.11040372,45.76354660,406.075
3.11040292,45.76354759,406.083
3.11040209,45.76354858,406.102
3.11040119,45.76354966,406.108
3.11040039,45.76355068,406.099
3.11039952,45.76355171,406.104
3.11039855,45.76355280,406.103
3.11039786,45.76355397,406.103
3.11039710,45.76355516,406.085
3.11039614,45.76355626,406.097
3.11039523,45.76355741,406.095
3.11039429,45.76355848,406.086
3.11039319,45.76355954,406.096
3.11039227,45.76356065,406.096
3.11039148,45.76356181,406.095
3.11039064,45.76356298,406.091
3.11038977,45.76356423,406.094
3.11038914,45.76356547,406.089
3.11038830,45.76356664,406.095
3.11038739,45.76356781,406.084
3.11038648,45.76356887,406.098
3.11038567,45.76356998,406.091
3.11038483,45.76357117,406.087
3.11038412,45.76357235,406.082
3.11038342,45.76357350,406.094
3.11038255,45.76357462,406.089
3.11038154,45.76357573,406.087
3.11038058,45.76357678,406.077
3.11037976,45.76357791,406.072
3.11037899,45.76357902,406.075
3.11037819,45.76358019,406.059
3.11037723,45.76358134,406.051
3.11037633,45.76358246,406.076
3.11037558,45.76358366,406.074
3.11037485,45.76358490,406.078
3.11037411,45.76358614,406.066
3.11037337,45.76358727,406.067
3.11037263,45.76358843,406.037
3.11037192,45.76358956,406.048
3.11037143,45.76359076,406.056
3.11037073,45.76359187,406.062
3.11037004,45.76359315,406.051
3.11036931,45.76359438,406.028
3.11036869,45.76359557,406.033
3.11036824,45.76359691,406.024
3.11036767,45.76359810,406.016
3.11036696,45.76359928,406.009
3.11036612,45.76360048,406.015
3.11036549,45.76360161,406.016
3.11036454,45.76360260,406.03
3.11036373,45.76360381,406.039
3.11036308,45.76360486,406.001
3.11036239,45.76360593,405.999
3.11036152,45.76360699,406.011
3.11036078,45.76360812,406.012
3.11036004,45.76360927,406.011
3.11035929,45.76361035,406.01
3.11035862,45.76361145,406.029
3.11035800,45.76361261,406.03
3.11035747,45.76361388,406.023
3.11035694,45.76361509,406.026
3.11035653,45.76361642,406.045
3.11035609,45.76361771,406.04
3.11035549,45.76361892,406.053
3.11035486,45.76362008,406.048
3.11035410,45.76362118,406.048
3.11035320,45.76362222,406.047
3.11035223,45.76362316,406.044
3.11035129,45.76362409,406.042
3.11035038,45.76362516,406.04
3.11034948,45.76362617,406.034
3.11034864,45.76362711,406.038
3.11034791,45.76362818,406.032
3.11034723,45.76362927,406.036
3.11034663,45.76363038,406.033
3.11034616,45.76363157,406.039
3.11034558,45.76363276,406.036
3.11034501,45.76363392,406.043
3.11034426,45.76363498,406.039
3.11034340,45.76363599,406.043
3.11034244,45.76363691,406.044
3.11034144,45.76363779,406.041
3.11034034,45.76363858,406.044
3.11033914,45.76363940,406.043
3.11033798,45.76364021,406.038
3.11033674,45.76364096,406.034
3.11033549,45.76364180,406.037
3.11033434,45.76364263,406.036
3.11033325,45.76364344,406.027
3.11033198,45.76364430,406.024
3.11033072,45.76364517,406.033
3.11032952,45.76364609,406.023
3.11032826,45.76364711,406.024
3.11032696,45.76364810,406.024
3.11032564,45.76364903,406.021
3.11032428,45.76365003,406.025
3.11032295,45.76365104,406.029
3.11032161,45.76365212,406.039
3.11032022,45.76365309,406.047
3.11031892,45.76365405,406.047
3.11031753,45.76365497,406.041
3.11031611,45.76365576,406.035
3.11031461,45.76365663,406.031
3.11031324,45.76365748,406.036
3.11031183,45.76365830,406.031
3.11031047,45.76365916,406.024
3.11030923,45.76366012,406.024
3.11030800,45.76366104,406.031
3.11030670,45.76366186,406.027
3.11030551,45.76366264,406.024
3.11030428,45.76366344,406.031
3.11030303,45.76366428,406.028
3.11030186,45.76366504,406.026
3.11030060,45.76366578,406.028
3.11029930,45.76366653,406.025
3.11029806,45.76366730,406.033
3.11029673,45.76366798,406.039
3.11029529,45.76366852,406.036
3.11029379,45.76366907,406.044
3.11029236,45.76366958,406.041
3.11029094,45.76367015,406.035
3.11028943,45.76367070,406.038
3.11028792,45.76367132,406.042
3.11028627,45.76367184,406.048
3.11028469,45.76367229,406.038
3.11028303,45.76367275,406.039
3.11028138,45.76367321,406.048
3.11027963,45.76367350,406.042
3.11027801,45.76367397,406.036
3.11027630,45.76367438,406.038
3.11027466,45.76367485,406.034
3.11027303,45.76367519,406.04
3.11027134,45.76367555,406.037
3.11026963,45.76367581,406.039
3.11026797,45.76367618,406.035
3.11026635,45.76367659,406.031
3.11026481,45.76367698,406.03
3.11026332,45.76367738,406.06
3.11026163,45.76367780,406.048
3.11026010,45.76367812,406.06
3.11025852,45.76367833,406.056
3.11025679,45.76367858,406.057
3.11025514,45.76367877,406.041
3.11025352,45.76367890,406.044
3.11025199,45.76367912,406.062
3.11025037,45.76367931,406.055
3.11024862,45.76367939,406.06
3.11024679,45.76367944,406.065
3.11024505,45.76367944,406.056
3.11024323,45.76367950,406.049
3.11024143,45.76367957,406.049
3.11023965,45.76367964,406.063
3.11023781,45.76367976,406.068
3.11023598,45.76367985,406.062
3.11023430,45.76367992,406.075
3.11023252,45.76368001,406.09
3.11023059,45.76368008,406.045
3.11022886,45.76368004,406.067
3.11022706,45.76368006,406.068
3.11022543,45.76367991,406.089
3.11022368,45.76368003,406.082
3.11022170,45.76368002,406.087
3.11021986,45.76368011,406.074
3.11021806,45.76368008,406.084
3.11021630,45.76367993,406.102
3.11021468,45.76367990,406.11
3.11021280,45.76367991,406.13
3.11021064,45.76368030,406.099
3.11020885,45.76368048,406.08
3.11020706,45.76368050,406.096
3.11020534,45.76368052,406.115
3.11020365,45.76368058,406.104
3.11020210,45.76368089,406.071
3.11020018,45.76368095,406.088
3.11019846,45.76368079,406.086
3.11019668,45.76368063,406.082
3.11019486,45.76368052,406.084
3.11019305,45.76368006,406.078
3.11019120,45.76368002,406.089
3.11018933,45.76367986,406.097
3.11018737,45.76367986,406.11
3.11018555,45.76367982,406.102
3.11018368,45.76367985,406.103
3.11018191,45.76367966,406.105
3.11018001,45.76367954,406.103
3.11017813,45.76367926,406.13
3.11017629,45.76367896,406.113
3.11017448,45.76367921,406.11
3.11017256,45.76367900,406.125
3.11017070,45.76367886,406.129
3.11016899,45.76367868,406.128
3.11016737,45.76367852,406.137
3.11016549,45.76367837,406.147
3.11016405,45.76367829,406.148
3.11016224,45.76367807,406.158
3.11016068,45.76367783,406.163
3.11015910,45.76367748,406.149
3.11015762,45.76367680,406.14
3.11015617,45.76367635,406.13
3.11015475,45.76367580,406.134
3.11015329,45.76367548,406.123
3.11015166,45.76367510,406.134
3.11015002,45.76367465,406.145
3.11014847,45.76367412,406.151
3.11014704,45.76367357,406.154
3.11014559,45.76367290,406.149
3.11014415,45.76367233,406.15
3.11014277,45.76367157,406.134
3.11014135,45.76367095,406.13
3.11013987,45.76367030,406.123
3.11013837,45.76366960,406.127
3.11013694,45.76366897,406.111
3.11013536,45.76366833,406.125
3.11013384,45.76366770,406.135
3.11013236,45.76366696,406.134
3.11013084,45.76366636,406.135
3.11012950,45.76366567,406.127
3.11012799,45.76366504,406.134
3.11012652,45.76366438,406.135
3.11012507,45.76366377,406.134
3.11012357,45.76366310,406.147
3.11012208,45.76366244,406.152
3.11012060,45.76366178,406.154
3.11011915,45.76366107,406.146
3.11011769,45.76366032,406.148
3.11011614,45.76365949,406.147
3.11011469,45.76365863,406.143
3.11011306,45.76365777,406.157
3.11011144,45.76365699,406.157
3.11010968,45.76365616,406.171
3.11010783,45.76365532,406.191
3.11010595,45.76365459,406.193
3.11010408,45.76365387,406.197
3.11010226,45.76365311,406.211
3.11010048,45.76365231,406.216
3.11009870,45.76365144,406.224
3.11009708,45.76365066,406.23
3.11009540,45.76364979,406.236
3.11009378,45.76364890,406.245
3.11009236,45.76364795,406.234
3.11009099,45.76364694,406.245
3.11008957,45.76364600,406.238
3.11008830,45.76364511,406.238
3.11008701,45.76364416,406.241
3.11008570,45.76364318,406.242
3.11008436,45.76364219,406.248
3.11008317,45.76364118,406.248
3.11008191,45.76364012,406.257
3.11008063,45.76363908,406.26
3.11007948,45.76363804,406.261
3.11007818,45.76363691,406.264
3.11007695,45.76363576,406.27
3.11007584,45.76363450,406.266
3.11007458,45.76363323,406.266
3.11007329,45.76363200,406.273
3.11007208,45.76363081,406.272
3.11007082,45.76362950,406.276
3.11006960,45.76362825,406.276
3.11006819,45.76362701,406.287
3.11006685,45.76362581,406.292
3.11006551,45.76362460,406.298
3.11006397,45.76362335,406.317
3.11006246,45.76362209,406.319
3.11006099,45.76362078,406.329
3.11005983,45.76361947,406.327
3.11005853,45.76361808,406.333
3.11005717,45.76361665,406.338
3.11005581,45.76361529,406.338
3.11005446,45.76361395,406.343
3.11005297,45.76361260,406.346
3.11005145,45.76361122,406.35
3.11005015,45.76360983,406.361
3.11004901,45.76360835,406.355
3.11004791,45.76360694,406.346
3.11004681,45.76360550,406.34
3.11004562,45.76360396,406.339
3.11004445,45.76360252,406.338
3.11004298,45.76360120,406.34
3.11004155,45.76359967,406.349
3.11004018,45.76359821,406.353
3.11003893,45.76359687,406.359
3.11003739,45.76359547,406.353
3.11003596,45.76359404,406.358
3.11003467,45.76359270,406.357
3.11003315,45.76359112,406.378
3.11003172,45.76358974,406.381
3.11003050,45.76358818,406.381
3.11002945,45.76358655,406.389
3.11002814,45.76358522,406.386
3.11002664,45.76358384,406.394
3.11002499,45.76358242,406.407
3.11002355,45.76358109,406.411
3.11002215,45.76357962,406.412
3.11002091,45.76357809,406.42
3.11001964,45.76357673,406.426
3.11001840,45.76357533,406.425
3.11001709,45.76357391,406.436
3.11001596,45.76357269,406.429
3.11001487,45.76357126,406.436
3.11001376,45.76356996,406.441
3.11001275,45.76356865,406.442
3.11001166,45.76356739,406.437
3.11001054,45.76356613,406.438
3.11000936,45.76356484,406.44
3.11000823,45.76356352,406.443
3.11000710,45.76356214,406.445
3.11000598,45.76356069,406.444
3.11000472,45.76355926,406.451
3.11000351,45.76355795,406.454
3.11000237,45.76355641,406.458
3.11000144,45.76355487,406.46
3.11000037,45.76355353,406.442
3.10999919,45.76355221,406.445
3.10999789,45.76355083,406.446
3.10999673,45.76354940,406.445
3.10999549,45.76354800,406.452
3.10999413,45.76354673,406.461
3.10999280,45.76354556,406.458
3.10999166,45.76354436,406.454
3.10999066,45.76354311,406.445
3.10998983,45.76354187,406.454
3.10998909,45.76354071,406.442
3.10998820,45.76353935,406.444
3.10998731,45.76353815,406.447
3.10998633,45.76353698,406.455
3.10998520,45.76353568,406.454
3.10998416,45.76353454,406.457
3.10998311,45.76353334,406.447
3.10998197,45.76353205,406.451
3.10998089,45.76353086,406.452
3.10997982,45.76352987,406.456
3.10997893,45.76352873,406.454
3.10997807,45.76352754,406.455
3.10997738,45.76352647,406.459
3.10997652,45.76352539,406.459
3.10997569,45.76352425,406.459
3.10997502,45.76352321,406.45
3.10997405,45.76352206,406.471
3.10997304,45.76352098,406.46
3.10997196,45.76352006,406.463
3.10997101,45.76351899,406.464
3.10997010,45.76351784,406.469
3.10996922,45.76351686,406.467
3.10996835,45.76351590,406.464
3.10996760,45.76351482,406.464
3.10996683,45.76351362,406.462
3.10996606,45.76351251,406.455
3.10996520,45.76351136,406.472
3.10996433,45.76351026,406.477
3.10996337,45.76350927,406.472
3.10996227,45.76350832,406.486
3.10996125,45.76350732,406.494
3.10996042,45.76350622,406.489
3.10995978,45.76350515,406.49
3.10995914,45.76350410,406.49
3.10995859,45.76350298,406.492
3.10995811,45.76350179,406.491
3.10995769,45.76350067,406.503
3.10995731,45.76349959,406.504
3.10995684,45.76349845,406.504
3.10995628,45.76349742,406.506
3.10995582,45.76349641,406.509
3.10995554,45.76349531,406.499
3.10995531,45.76349417,406.494
3.10995504,45.76349310,406.501
3.10995482,45.76349189,406.5
3.10995462,45.76349076,406.509
3.10995448,45.76348971,406.514
3.10995438,45.76348851,406.518
3.10995417,45.76348742,406.524
3.10995388,45.76348624,406.52
3.10995401,45.76348470,406.534
3.10995452,45.76348352,406.526
3.10995506,45.76348233,406.514
3.10995545,45.76348090,406.509
3.10995555,45.76347961,406.511
3.10995570,45.76347817,406.516
3.10995578,45.76347672,406.531
3.10995570,45.76347528,406.543
3.10995566,45.76347377,406.557
3.10995590,45.76347247,406.559
3.10995664,45.76347126,406.551
3.10995753,45.76347004,406.541
3.10995839,45.76346895,406.533
3.10995919,45.76346788,406.519
3.10995989,45.76346662,406.51
3.10996028,45.76346540,406.515
3.10996030,45.76346411,406.529
3.10996015,45.76346265,406.537
3.10995999,45.76346120,406.553
3.10996013,45.76345971,406.57
3.10996052,45.76345835,406.563
3.10996089,45.76345713,406.553
3.10996147,45.76345587,406.555
3.10996228,45.76345471,406.564
3.10996315,45.76345368,406.552
3.10996404,45.76345272,406.554
3.10996487,45.76345189,406.554
3.10996557,45.76345104,406.556
3.10996607,45.76345016,406.55
3.10996647,45.76344930,406.565
3.10996682,45.76344839,406.574
3.10996722,45.76344746,406.574
3.10996762,45.76344656,406.567
3.10996812,45.76344566,406.566
3.10996846,45.76344471,406.578
3.10996885,45.76344373,406.578
3.10996920,45.76344274,406.582
3.10996968,45.76344181,406.577
3.10997021,45.76344078,406.57
3.10997064,45.76343988,406.57
3.10997121,45.76343880,406.574
3.10997177,45.76343780,406.581
3.10997246,45.76343687,406.577
3.10997331,45.76343600,406.571
3.10997394,45.76343513,406.562
3.10997446,45.76343437,406.571
3.10997511,45.76343353,406.562
3.10997545,45.76343263,406.585
3.10997595,45.76343177,406.593
3.10997635,45.76343089,406.587
3.10997669,45.76342992,406.594
3.10997724,45.76342911,406.61
3.10997771,45.76342824,406.608
3.10997814,45.76342740,406.614
3.10997854,45.76342655,406.618
3.10997898,45.76342568,406.621
3.10997981,45.76342485,406.621
3.10998041,45.76342414,406.625
3.10998111,45.76342346,406.621
3.10998192,45.76342276,406.613
3.10998288,45.76342216,406.608
3.10998380,45.76342164,406.604
3.10998497,45.76342128,406.579
3.10998604,45.76342092,406.577
3.10998705,45.76342045,406.577
3.10998794,45.76341992,406.587
3.10998901,45.76341931,406.567
3.10999006,45.76341867,406.579
3.10999118,45.76341809,406.589
3.10999233,45.76341761,406.597
3.10999365,45.76341694,406.599
3.10999487,45.76341619,406.61
3.10999640,45.76341553,406.627
3.10999800,45.76341480,406.619
3.10999957,45.76341422,406.632
3.11000120,45.76341348,406.604
3.11000326,45.76341310,406.603
3.11000509,45.76341242,406.609
3.11000702,45.76341196,406.624
3.11000885,45.76341166,406.604
3.11001065,45.76341137,406.597
3.11001254,45.76341114,406.59
3.11001415,45.76341095,406.59
3.11001573,45.76341076,406.616
3.11001734,45.76341071,406.606
3.11001826,45.76341057,406.61
3.11001927,45.76341026,406.579
3.11002013,45.76341009,406.579
3.11002091,45.76340984,406.595
3.11002175,45.76340965,406.583
3.11002250,45.76340938,406.598
3.11002344,45.76340922,406.588
3.11002419,45.76340924,406.575
3.11002518,45.76340918,406.595
3.11002599,45.76340904,406.606
3.11002683,45.76340904,406.576
3.11002821,45.76340851,406.569
3.11002911,45.76340822,406.599
3.11002985,45.76340799,406.614
3.11003076,45.76340772,406.623
3.11003214,45.76340765,406.601
3.11003315,45.76340742,406.594
3.11003449,45.76340720,406.579
3.11003561,45.76340699,406.558
3.11003689,45.76340676,406.561
3.11003827,45.76340639,406.572
3.11003983,45.76340607,406.553
3.11004144,45.76340562,406.555
3.11004283,45.76340510,406.565
3.11004412,45.76340462,406.573
3.11004564,45.76340423,406.54
3.11004688,45.76340367,406.552
3.11004814,45.76340310,406.541
3.11004943,45.76340252,406.522
3.11005071,45.76340175,406.517
3.11005170,45.76340106,406.537
3.11005251,45.76340042,406.525
3.11005320,45.76339986,406.524
3.11005358,45.76339935,406.542
3.11005387,45.76339893,406.549
3.11005435,45.76339862,406.545
3.11005496,45.76339840,406.531
3.11005567,45.76339812,406.524
3.11005633,45.76339771,406.531
3.11005693,45.76339730,406.53
3.11005737,45.76339687,406.52
3.11005776,45.76339647,406.521
3.11005815,45.76339604,406.538
3.11005862,45.76339560,406.546
3.11005931,45.76339516,406.547
3.11006034,45.76339463,406.528
3.11006151,45.76339406,406.513
3.11006265,45.76339325,406.514
3.11006372,45.76339245,406.501
3.11006509,45.76339149,406.506
3.11006643,45.76339037,406.516
3.11006774,45.76338908,406.551
3.11006920,45.76338798,406.554
3.11007081,45.76338681,406.556
3.11007227,45.76338571,406.543
3.11007369,45.76338447,406.559
3.11007509,45.76338333,406.55
3.11007656,45.76338214,406.564
3.11007803,45.76338103,406.564
3.11007971,45.76338004,406.561
3.11008136,45.76337899,406.572
3.11008286,45.76337813,406.566
3.11008443,45.76337719,406.581
3.11008613,45.76337653,406.568
3.11008756,45.76337596,406.572
3.11008935,45.76337533,406.573
3.11009097,45.76337469,406.59
3.11009251,45.76337412,406.579
3.11009422,45.76337361,406.588
3.11009567,45.76337315,406.593
3.11009709,45.76337274,406.595
3.11009844,45.76337224,406.604
3.11009994,45.76337188,406.591
3.11010155,45.76337152,406.59
3.11010322,45.76337112,406.598
3.11010468,45.76337076,406.602
3.11010623,45.76337028,406.602
3.11010777,45.76336986,406.598
3.11010939,45.76336930,406.614
3.11011106,45.76336894,406.621
3.11011274,45.76336869,406.613
3.11011472,45.76336856,406.56
3.11011646,45.76336835,406.546
3.11011825,45.76336800,406.533
3.11011991,45.76336750,406.518
3.11012194,45.76336706,406.475
3.11012378,45.76336632,406.512
3.11012558,45.76336583,406.52
3.11012756,45.76336528,406.53
3.11012958,45.76336474,406.529
3.11013136,45.76336445,406.491
3.11013289,45.76336367,406.528
3.11013453,45.76336308,406.522
3.11013640,45.76336241,406.558
3.11013799,45.76336167,406.568
3.11013963,45.76336096,406.578
3.11014143,45.76336028,406.59
3.11014304,45.76335970,406.593
3.11014459,45.76335903,406.59
3.11014623,45.76335818,406.606
3.11014790,45.76335751,406.587
3.11014945,45.76335686,406.554
3.11015106,45.76335599,406.563
3.11015265,45.76335532,406.567
3.11015443,45.76335474,406.558
3.11015654,45.76335415,406.563
3.11015834,45.76335357,406.588
3.11016033,45.76335302,406.574
3.11016233,45.76335233,406.58
3.11016421,45.76335174,406.575
3.11016609,45.76335100,406.577
3.11016794,45.76335016,406.596
3.11016956,45.76334927,406.607
3.11017115,45.76334836,406.604
3.11017279,45.76334730,406.619
3.11017446,45.76334642,406.629
3.11017631,45.76334570,406.598
3.11017787,45.76334485,406.606
3.11017951,45.76334412,406.608
3.11018155,45.76334345,406.606
3.11018331,45.76334290,406.591
3.11018509,45.76334196,406.615
3.11018694,45.76334123,406.607
3.11018883,45.76334063,406.594
3.11019055,45.76333980,406.611
3.11019210,45.76333900,406.61
3.11019370,45.76333822,406.595
3.11019516,45.76333729,406.6
3.11019681,45.76333639,406.601
3.11019846,45.76333548,406.603
3.11020010,45.76333476,406.595
3.11020188,45.76333396,406.595
3.11020375,45.76333319,406.589
3.11020522,45.76333242,406.588
3.11020668,45.76333152,406.588
3.11020806,45.76333060,406.594
3.11020945,45.76332969,406.598
3.11021084,45.76332871,406.593
3.11021217,45.76332771,406.602
3.11021342,45.76332679,406.593
3.11021477,45.76332577,406.605
3.11021611,45.76332486,406.607
3.11021731,45.76332406,406.597
3.11021880,45.76332325,406.599
3.11022039,45.76332247,406.592
3.11022182,45.76332170,406.599
3.11022333,45.76332100,406.595
3.11022489,45.76332009,406.592
3.11022649,45.76331911,406.604
3.11022792,45.76331812,406.607
3.11022951,45.76331713,406.604
3.11023109,45.76331610,406.595
3.11023275,45.76331503,406.62
3.11023414,45.76331391,406.619
3.11023551,45.76331278,406.627
3.11023688,45.76331151,406.654
3.11023826,45.76331030,406.653
3.11023976,45.76330898,406.664
3.11024141,45.76330787,406.692
3.11024313,45.76330710,406.686
3.11024507,45.76330637,406.673
3.11024708,45.76330565,406.669
3.11024895,45.76330488,406.659
3.11025064,45.76330402,406.657
3.11025205,45.76330283,406.675
3.11025355,45.76330170,406.687
3.11025498,45.76330059,406.702
3.11025656,45.76329945,406.707
3.11025804,45.76329820,406.72
3.11025953,45.76329709,406.718
3.11026124,45.76329607,406.721
3.11026305,45.76329506,406.738
3.11026468,45.76329399,406.744
3.11026616,45.76329292,406.744
3.11026761,45.76329176,406.737
3.11026926,45.76329070,406.747
3.11027092,45.76328983,406.749
3.11027257,45.76328909,406.738
3.11027409,45.76328833,406.739
3.11027554,45.76328740,406.743
3.11027699,45.76328645,406.743
3.11027824,45.76328540,406.74
3.11027937,45.76328426,406.753
3.11028072,45.76328303,406.752
3.11028201,45.76328206,406.738
3.11028349,45.76328103,406.755
3.11028520,45.76328008,406.754
3.11028663,45.76327923,406.735
3.11028802,45.76327830,406.738
3.11028976,45.76327744,406.74
3.11029147,45.76327669,406.738
3.11029315,45.76327615,406.731
3.11029466,45.76327562,406.725
3.11029615,45.76327498,406.714
3.11029765,45.76327425,406.727
3.11029898,45.76327344,406.723
3.11030023,45.76327261,406.724
3.11030137,45.76327150,406.743
3.11030255,45.76327051,406.748
3.11030375,45.76326960,406.753
3.11030514,45.76326891,406.762
3.11030667,45.76326840,406.764
3.11030829,45.76326806,406.742
3.11030993,45.76326758,406.75
3.11031136,45.76326689,406.739
3.11031261,45.76326590,406.725
3.11031387,45.76326495,406.729
3.11031548,45.76326403,406.728
3.11031708,45.76326323,406.737
3.11031875,45.76326253,406.732
3.11032056,45.76326179,406.739
3.11032238,45.76326113,406.733
3.11032395,45.76326038,406.739
3.11032558,45.76325960,406.733
3.11032726,45.76325857,406.74
3.11032851,45.76325761,406.753
3.11032985,45.76325674,406.762
3.11033158,45.76325596,406.755
3.11033321,45.76325528,406.746
3.11033483,45.76325449,406.743
3.11033647,45.76325371,406.754
3.11033794,45.76325279,406.739
3.11033942,45.76325206,406.746
3.11034089,45.76325132,406.738
3.11034219,45.76325042,406.731
3.11034354,45.76324946,406.737
3.11034522,45.76324880,406.749
3.11034678,45.76324823,406.734
3.11034835,45.76324774,406.735
3.11034997,45.76324744,406.738
3.11035163,45.76324712,406.723
3.11035350,45.76324679,406.72
3.11035518,45.76324639,406.711
3.11035687,45.76324581,406.719
3.11035856,45.76324519,406.717
3.11036036,45.76324472,406.724
3.11036213,45.76324429,406.718
3.11036420,45.76324399,406.697
3.11036612,45.76324357,406.69
3.11036795,45.76324300,406.704
3.11036991,45.76324251,406.684
3.11037185,45.76324194,406.696
3.11037382,45.76324150,406.685
3.11037567,45.76324101,406.687
3.11037760,45.76324046,406.692
3.11037933,45.76323990,406.691
3.11038117,45.76323943,406.707
3.11038323,45.76323907,406.688
3.11038510,45.76323852,406.695
3.11038694,45.76323797,406.684
3.11038888,45.76323741,406.692
3.11039067,45.76323679,406.691
3.11039245,45.76323624,406.69
3.11039434,45.76323576,406.682
3.11039621,45.76323536,406.703
3.11039801,45.76323492,406.7
3.11039966,45.76323450,406.698
3.11040105,45.76323376,406.716
3.11040254,45.76323301,406.714
3.11040403,45.76323231,406.731
3.11040579,45.76323192,406.719
3.11040757,45.76323145,406.721
3.11040925,45.76323100,406.71
3.11041109,45.76323047,406.716
3.11041266,45.76323012,406.717
3.11041438,45.76322965,406.725
3.11041599,45.76322904,406.727
3.11041757,45.76322857,406.731
3.11041932,45.76322818,406.725
3.11042094,45.76322779,406.728
3.11042257,45.76322771,406.724
3.11042420,45.76322770,406.702
3.11042587,45.76322742,406.704
3.11042738,45.76322694,406.702
3.11042890,45.76322630,406.703
3.11043038,45.76322557,406.731
3.11043195,45.76322488,406.733
3.11043343,45.76322432,406.74
3.11043514,45.76322409,406.718
3.11043668,45.76322378,406.719
3.11043835,45.76322358,406.721
3.11044017,45.76322328,406.714
3.11044178,45.76322300,406.709
3.11044341,45.76322276,406.696
3.11044504,45.76322246,406.676
3.11044664,45.76322221,406.685
3.11044815,45.76322210,406.665
3.11044977,45.76322198,406.647
3.11045144,45.76322176,406.629
3.11045291,45.76322143,406.638
3.11045435,45.76322105,406.628
3.11045584,45.76322055,406.604
3.11045725,45.76322004,406.609
3.11045876,45.76321959,406.613
3.11046029,45.76321918,406.614
3.11046196,45.76321894,406.605
3.11046351,45.76321849,406.594
3.11046503,45.76321831,406.582
3.11046668,45.76321798,406.571
3.11046827,45.76321761,406.571
3.11046991,45.76321725,406.569
3.11047150,45.76321686,406.566
3.11047296,45.76321661,406.573
3.11047446,45.76321616,406.568
3.11047595,45.76321581,406.568
3.11047728,45.76321545,406.565
3.11047875,45.76321506,406.569
3.11048023,45.76321485,406.564
3.11048158,45.76321457,406.551
3.11048303,45.76321436,406.56
3.11048443,45.76321418,406.553
3.11048583,45.76321397,406.547
3.11048726,45.76321375,406.542
3.11048868,45.76321348,406.54
3.11049011,45.76321323,406.54
3.11049158,45.76321307,406.538
3.11049304,45.76321299,406.549
3.11049448,45.76321288,406.546
3.11049586,45.76321272,406.542
3.11049742,45.76321261,406.549
3.11049893,45.76321261,406.548
3.11050034,45.76321265,406.542
3.11050189,45.76321263,406.538
3.11050332,45.76321265,406.551
3.11050482,45.76321270,406.546
3.11050631,45.76321278,406.555
3.11050780,45.76321290,406.559
3.11050920,45.76321300,406.557
3.11051064,45.76321321,406.546
3.11051215,45.76321329,406.553
3.11051369,45.76321348,406.561
3.11051518,45.76321378,406.56
3.11051668,45.76321417,406.566
3.11051809,45.76321454,406.565
3.11051931,45.76321489,406.567
3.11052057,45.76321523,406.57
3.11052178,45.76321562,406.572
3.11052283,45.76321612,406.562
3.11052395,45.76321666,406.557
3.11052491,45.76321714,406.563
3.11052605,45.76321775,406.57
3.11052726,45.76321836,406.574
3.11052824,45.76321905,406.561
3.11052925,45.76321966,406.562
3.11053049,45.76322035,406.564
3.11053176,45.76322086,406.571
3.11053293,45.76322154,406.575
3.11053416,45.76322234,406.585
3.11053536,45.76322306,406.59
3.11053646,45.76322388,406.592
3.11053736,45.76322486,406.593
3.11053825,45.76322586,406.591
3.11053913,45.76322676,406.597
3.11053995,45.76322774,406.599
3.11054078,45.76322876,406.597
3.11054175,45.76322973,406.6
3.11054273,45.76323080,406.609
3.11054340,45.76323200,406.61
3.11054400,45.76323326,406.6
3.11054445,45.76323465,406.594
3.11054485,45.76323594,406.576
3.11054557,45.76323723,406.575
3.11054655,45.76323853,406.584
3.11054746,45.76323976,406.58
3.11054846,45.76324104,406.58
3.11054948,45.76324230,406.591
3.11054997,45.76324361,406.591
3.11055045,45.76324489,406.575
3.11055119,45.76324610,406.586
3.11055190,45.76324720,406.589
3.11055265,45.76324839,406.59
3.11055357,45.76324951,406.584
3.11055441,45.76325053,406.585
3.11055524,45.76325164,406.583
3.11055594,45.76325270,406.592
3.11055654,45.76325376,406.581
3.11055709,45.76325488,406.576
3.11055764,45.76325601,406.582
3.11055818,45.76325710,406.579
3.11055869,45.76325825,406.585
3.11055914,45.76325932,406.581
3.11055969,45.76326036,406.586
3.11056017,45.76326122,406.586
3.11056051,45.76326198,406.582
3.11056080,45.76326258,406.589
3.11056095,45.76326299,406.585
3.11056103,45.76326322,406.58
3.11056104,45.76326328,406.578
3.11056101,45.76326323,406.576
3.11056096,45.76326307,406.577
3.11056097,45.76326301,406.575
3.11056104,45.76326311,406.577
3.11056102,45.76326317,406.576
        </coordinates> 
      </LineString> 
    </Placemark> 
  </Document> 
</kml> 
