<?xml version="1.0" encoding="UTF-8"?> 
<kml xmlns="http://www.opengis.net/kml/2.2" 
     xmlns:gx="http://www.google.com/kml/ext/2.2" 
     xmlns:kml="http://www.opengis.net/kml/2.2"
     xmlns:atom="http://www.w3.org/2005/Atom"> 
  <Document> 
    <name>gps_traj.kml</name> 
    <Placemark> 
      <name>Trajectoire</name> 
      <LineString> 
        <tessellate>1</tessellate> 
        <coordinates> 
3.11074525,45.76299755,406.982
3.11074525,45.76299754,406.982
3.11074524,45.76299754,406.981
3.11074514,45.76299751,406.979
3.11074489,45.76299742,406.978
3.11074446,45.76299730,406.977
3.11074378,45.76299715,406.986
3.11074290,45.76299687,406.979
3.11074196,45.76299655,406.982
3.11074086,45.76299631,406.996
3.11073969,45.76299591,406.991
3.11073843,45.76299556,407.002
3.11073724,45.76299516,407.0
3.11073593,45.76299478,406.999
3.11073479,45.76299427,407.001
3.11073339,45.76299378,406.999
3.11073189,45.76299318,406.987
3.11073027,45.76299262,406.991
3.11072842,45.76299198,406.992
3.11072633,45.76299138,406.99
3.11072416,45.76299075,406.997
3.11072187,45.76299003,406.992
3.11071948,45.76298926,406.991
3.11071713,45.76298845,406.997
3.11071469,45.76298759,406.992
3.11071222,45.76298676,406.993
3.11070987,45.76298595,407.005
3.11070745,45.76298515,407.006
3.11070504,45.76298431,406.994
3.11070273,45.76298353,407.01
3.11070030,45.76298269,407.017
3.11069801,45.76298193,407.021
3.11069565,45.76298110,407.027
3.11069344,45.76298024,407.03
3.11069122,45.76297934,407.019
3.11068902,45.76297861,407.024
3.11068669,45.76297780,407.029
3.11068443,45.76297701,407.031
3.11068210,45.76297614,407.038
3.11067985,45.76297524,407.037
3.11067769,45.76297434,407.034
3.11067547,45.76297344,407.041
3.11067321,45.76297264,407.039
3.11067093,45.76297178,407.049
3.11066860,45.76297093,407.053
3.11066623,45.76297022,407.076
3.11066376,45.76296975,407.086
3.11066123,45.76296929,407.099
3.11065889,45.76296864,407.095
3.11065672,45.76296769,407.086
3.11065465,45.76296658,407.077
3.11065261,45.76296551,407.074
3.11065054,45.76296454,407.068
3.11064831,45.76296378,407.069
3.11064594,45.76296316,407.072
3.11064359,45.76296256,407.075
3.11064127,45.76296197,407.073
3.11063903,45.76296129,407.079
3.11063680,45.76296051,407.079
3.11063455,45.76295966,407.073
3.11063232,45.76295890,407.077
3.11063012,45.76295814,407.076
3.11062780,45.76295740,407.079
3.11062555,45.76295661,407.075
3.11062322,45.76295594,407.082
3.11062097,45.76295517,407.089
3.11061862,45.76295448,407.095
3.11061636,45.76295368,407.089
3.11061406,45.76295296,407.091
3.11061178,45.76295221,407.099
3.11060956,45.76295150,407.103
3.11060733,45.76295070,407.101
3.11060510,45.76294996,407.1
3.11060280,45.76294916,407.103
3.11060052,45.76294845,407.099
3.11059829,45.76294765,407.099
3.11059598,45.76294689,407.094
3.11059367,45.76294613,407.097
3.11059132,45.76294546,407.101
3.11058904,45.76294470,407.1
3.11058669,45.76294401,407.106
3.11058441,45.76294327,407.106
3.11058202,45.76294262,407.111
3.11057974,45.76294197,407.106
3.11057734,45.76294133,407.114
3.11057507,45.76294059,407.116
3.11057280,45.76293989,407.107
3.11057054,45.76293911,407.112
3.11056831,45.76293843,407.109
3.11056595,45.76293771,407.111
3.11056361,45.76293702,407.108
3.11056133,45.76293630,407.099
3.11055898,45.76293563,407.106
3.11055668,45.76293497,407.112
3.11055439,45.76293438,407.119
3.11055218,45.76293364,407.105
3.11054992,45.76293286,407.113
3.11054771,45.76293212,407.107
3.11054545,45.76293134,407.11
3.11054317,45.76293056,407.103
3.11054088,45.76292987,407.094
3.11053861,45.76292917,407.097
3.11053638,45.76292852,407.102
3.11053407,45.76292781,407.099
3.11053171,45.76292718,407.102
3.11052959,45.76292656,407.111
3.11052742,45.76292591,407.109
3.11052540,45.76292521,407.108
3.11052338,45.76292457,407.104
3.11052137,45.76292392,407.1
3.11051944,45.76292324,407.096
3.11051734,45.76292253,407.095
3.11051523,45.76292182,407.092
3.11051309,45.76292114,407.092
3.11051097,45.76292046,407.099
3.11050882,45.76291982,407.098
3.11050661,45.76291910,407.105
3.11050448,45.76291844,407.097
3.11050243,45.76291777,407.097
3.11050051,45.76291713,407.101
3.11049863,45.76291652,407.097
3.11049680,45.76291595,407.104
3.11049496,45.76291543,407.102
3.11049318,45.76291491,407.102
3.11049139,45.76291439,407.11
3.11048962,45.76291388,407.112
3.11048785,45.76291334,407.121
3.11048605,45.76291277,407.118
3.11048430,45.76291225,407.115
3.11048253,45.76291173,407.116
3.11048070,45.76291121,407.124
3.11047890,45.76291069,407.132
3.11047706,45.76291013,407.13
3.11047524,45.76290954,407.131
3.11047349,45.76290894,407.13
3.11047171,45.76290834,407.132
3.11046989,45.76290779,407.13
3.11046803,45.76290721,407.123
3.11046618,45.76290661,407.122
3.11046432,45.76290604,407.128
3.11046247,45.76290549,407.132
3.11046063,45.76290489,407.133
3.11045881,45.76290426,407.135
3.11045696,45.76290370,407.138
3.11045510,45.76290315,407.142
3.11045322,45.76290263,407.142
3.11045137,45.76290209,407.142
3.11044952,45.76290158,407.147
3.11044780,45.76290103,407.144
3.11044613,45.76290041,407.148
3.11044446,45.76289983,407.151
3.11044285,45.76289926,407.15
3.11044117,45.76289868,407.148
3.11043949,45.76289816,407.147
3.11043783,45.76289765,407.149
3.11043605,45.76289713,407.144
3.11043439,45.76289654,407.142
3.11043274,45.76289599,407.142
3.11043109,45.76289540,407.136
3.11042946,45.76289483,407.132
3.11042774,45.76289434,407.135
3.11042611,45.76289390,407.137
3.11042433,45.76289347,407.139
3.11042272,45.76289294,407.144
3.11042111,45.76289239,407.136
3.11041952,45.76289183,407.135
3.11041803,45.76289129,407.142
3.11041660,45.76289072,407.147
3.11041511,45.76289008,407.137
3.11041366,45.76288948,407.155
3.11041221,45.76288893,407.16
3.11041066,45.76288831,407.155
3.11040927,45.76288762,407.16
3.11040796,45.76288695,407.165
3.11040666,45.76288623,407.165
3.11040542,45.76288545,407.165
3.11040413,45.76288468,407.169
3.11040294,45.76288387,407.177
3.11040170,45.76288306,407.183
3.11040031,45.76288217,407.182
3.11039910,45.76288146,407.195
3.11039793,45.76288063,407.19
3.11039694,45.76287961,407.187
3.11039634,45.76287853,407.178
3.11039588,45.76287736,407.155
3.11039539,45.76287613,407.142
3.11039477,45.76287487,407.125
3.11039393,45.76287356,407.13
3.11039289,45.76287230,407.139
3.11039159,45.76287111,407.133
3.11039046,45.76286983,407.134
3.11038968,45.76286835,407.136
3.11038877,45.76286678,407.149
3.11038773,45.76286533,407.147
3.11038664,45.76286382,407.134
3.11038552,45.76286217,407.137
3.11038451,45.76286050,407.12
3.11038403,45.76285888,407.113
3.11038355,45.76285711,407.123
3.11038292,45.76285539,407.123
3.11038214,45.76285370,407.144
3.11038148,45.76285192,407.157
3.11038082,45.76285033,407.15
3.11038004,45.76284851,407.144
3.11037944,45.76284672,407.16
3.11037898,45.76284498,407.151
3.11037824,45.76284319,407.158
3.11037722,45.76284151,407.156
3.11037626,45.76283990,407.17
3.11037522,45.76283816,407.168
3.11037421,45.76283652,407.184
3.11037335,45.76283508,407.173
3.11037276,45.76283326,407.188
3.11037215,45.76283163,407.188
3.11037148,45.76283020,407.148
3.11037069,45.76282852,407.156
3.11036993,45.76282697,407.156
3.11036900,45.76282537,407.17
3.11036783,45.76282378,407.18
3.11036645,45.76282219,407.185
3.11036547,45.76282064,407.178
3.11036475,45.76281884,407.2
3.11036448,45.76281710,407.184
3.11036435,45.76281559,407.179
3.11036417,45.76281376,407.2
3.11036374,45.76281206,407.193
3.11036313,45.76281057,407.214
3.11036197,45.76280897,407.215
3.11036075,45.76280741,407.221
3.11035958,45.76280593,407.235
3.11035855,45.76280440,407.231
3.11035764,45.76280269,407.238
3.11035700,45.76280108,407.228
3.11035643,45.76279940,407.229
3.11035599,45.76279777,407.219
3.11035560,45.76279607,407.217
3.11035489,45.76279435,407.213
3.11035418,45.76279274,407.225
3.11035342,45.76279111,407.225
3.11035264,45.76278929,407.233
3.11035204,45.76278752,407.247
3.11035127,45.76278590,407.233
3.11035046,45.76278409,407.24
3.11034982,45.76278232,407.247
3.11034926,45.76278046,407.257
3.11034872,45.76277874,407.244
3.11034811,45.76277677,407.252
3.11034744,45.76277506,407.25
3.11034654,45.76277324,407.255
3.11034556,45.76277156,407.253
3.11034453,45.76276998,407.253
3.11034344,45.76276808,407.25
3.11034268,45.76276649,407.257
3.11034198,45.76276481,407.234
3.11034142,45.76276302,407.239
3.11034064,45.76276129,407.228
3.11033975,45.76275966,407.224
3.11033877,45.76275807,407.22
3.11033756,45.76275653,407.229
3.11033609,45.76275508,407.218
3.11033483,45.76275360,407.219
3.11033383,45.76275216,407.221
3.11033300,45.76275043,407.211
3.11033238,45.76274875,407.219
3.11033176,45.76274715,407.214
3.11033105,45.76274546,407.215
3.11033006,45.76274398,407.219
3.11032863,45.76274246,407.218
3.11032728,45.76274109,407.235
3.11032585,45.76273950,407.237
3.11032484,45.76273782,407.241
3.11032393,45.76273618,407.236
3.11032334,45.76273437,407.235
3.11032261,45.76273277,407.222
3.11032201,45.76273114,407.265
3.11032086,45.76272943,407.253
3.11031974,45.76272791,407.264
3.11031862,45.76272643,407.263
3.11031746,45.76272476,407.26
3.11031656,45.76272318,407.268
3.11031559,45.76272174,407.249
3.11031468,45.76272007,407.257
3.11031381,45.76271838,407.239
3.11031332,45.76271676,407.252
3.11031247,45.76271508,407.237
3.11031136,45.76271347,407.221
3.11031004,45.76271197,407.237
3.11030863,45.76271039,407.243
3.11030757,45.76270876,407.251
3.11030666,45.76270714,407.254
3.11030607,45.76270553,407.258
3.11030548,45.76270385,407.254
3.11030504,45.76270220,407.226
3.11030454,45.76270049,407.218
3.11030397,45.76269860,407.238
3.11030301,45.76269720,407.228
3.11030167,45.76269583,407.266
3.11030014,45.76269443,407.242
3.11029906,45.76269285,407.256
3.11029835,45.76269111,407.251
3.11029771,45.76268952,407.249
3.11029695,45.76268796,407.257
3.11029620,45.76268616,407.255
3.11029520,45.76268463,407.232
3.11029399,45.76268306,407.246
3.11029313,45.76268131,407.283
3.11029243,45.76267965,407.27
3.11029212,45.76267807,407.257
3.11029190,45.76267642,407.252
3.11029139,45.76267503,407.243
3.11029080,45.76267400,407.243
3.11029020,45.76267292,407.243
3.11028957,45.76267195,407.244
3.11028908,45.76267140,407.255
3.11028862,45.76267110,407.233
3.11028844,45.76267087,407.237
3.11028857,45.76267074,407.233
3.11028879,45.76267070,407.231
3.11028887,45.76267083,407.23
3.11028887,45.76267072,407.23
        </coordinates> 
      </LineString> 
    </Placemark> 
  </Document> 
</kml> 
