<?xml version="1.0" encoding="UTF-8"?> 
<kml xmlns="http://www.opengis.net/kml/2.2" 
     xmlns:gx="http://www.google.com/kml/ext/2.2" 
     xmlns:kml="http://www.opengis.net/kml/2.2"
     xmlns:atom="http://www.w3.org/2005/Atom"> 
  <Document> 
    <name>gps_traj.kml</name> 
    <Placemark> 
      <name>Trajectoire</name> 
      <LineString> 
        <tessellate>1</tessellate> 
        <coordinates> 
3.11016901,45.76272731,407.265
3.11016901,45.76272731,407.266
3.11016901,45.76272731,407.266
3.11016902,45.76272731,407.267
3.11016902,45.76272731,407.267
3.11016901,45.76272731,407.266
3.11016902,45.76272731,407.265
3.11016903,45.76272731,407.264
3.11016904,45.76272732,407.267
3.11016905,45.76272732,407.269
3.11016904,45.76272731,407.269
3.11016904,45.76272733,407.268
3.11016905,45.76272733,407.27
3.11016905,45.76272733,407.27
3.11016904,45.76272733,407.271
3.11016900,45.76272733,407.269
3.11016890,45.76272731,407.269
3.11016878,45.76272729,407.269
3.11016865,45.76272726,407.272
3.11016844,45.76272721,407.279
3.11016813,45.76272714,407.288
3.11016770,45.76272708,407.289
3.11016712,45.76272701,407.277
3.11016653,45.76272694,407.287
3.11016591,45.76272688,407.294
3.11016520,45.76272679,407.28
3.11016449,45.76272666,407.271
3.11016381,45.76272656,407.283
3.11016316,45.76272651,407.284
3.11016244,45.76272645,407.274
3.11016176,45.76272636,407.285
3.11016097,45.76272630,407.275
3.11016025,45.76272632,407.272
3.11015958,45.76272642,407.267
3.11015886,45.76272669,407.26
3.11015783,45.76272682,407.25
3.11015688,45.76272670,407.243
3.11015594,45.76272616,407.235
3.11015541,45.76272563,407.255
3.11015477,45.76272495,407.291
3.11015404,45.76272445,407.29
3.11015317,45.76272415,407.288
3.11015223,45.76272420,407.295
3.11015112,45.76272442,407.271
3.11015005,45.76272475,407.277
3.11014905,45.76272480,407.261
3.11014819,45.76272469,407.268
3.11014733,45.76272439,407.285
3.11014662,45.76272402,407.275
3.11014599,45.76272361,407.289
3.11014551,45.76272318,407.327
3.11014473,45.76272272,407.328
3.11014388,45.76272249,407.319
3.11014294,45.76272249,407.317
3.11014180,45.76272276,407.288
3.11014070,45.76272326,407.271
3.11013962,45.76272361,407.274
3.11013859,45.76272379,407.257
3.11013761,45.76272364,407.255
3.11013682,45.76272329,407.283
3.11013607,45.76272266,407.305
3.11013523,45.76272215,407.303
3.11013426,45.76272187,407.303
3.11013342,45.76272187,407.293
3.11013256,45.76272224,407.301
3.11013171,45.76272273,407.29
3.11013086,45.76272321,407.264
3.11012983,45.76272340,407.256
3.11012880,45.76272314,407.27
3.11012792,45.76272261,407.267
3.11012710,45.76272184,407.278
3.11012639,45.76272112,407.322
3.11012557,45.76272059,407.317
3.11012466,45.76272032,407.323
3.11012359,45.76272036,407.311
3.11012243,45.76272057,407.294
3.11012157,45.76272065,407.314
3.11012069,45.76272043,407.324
3.11011971,45.76272006,407.313
3.11011868,45.76271986,407.311
3.11011765,45.76271989,407.311
3.11011659,45.76272001,407.302
3.11011532,45.76272021,407.286
3.11011404,45.76272044,407.278
3.11011299,45.76272044,407.279
3.11011191,45.76272017,407.271
3.11011087,45.76271966,407.288
3.11010991,45.76271925,407.303
3.11010895,45.76271906,407.307
3.11010776,45.76271893,407.287
3.11010652,45.76271903,407.293
3.11010528,45.76271906,407.286
3.11010426,45.76271912,407.285
3.11010333,45.76271914,407.281
3.11010260,45.76271911,407.296
3.11010178,45.76271916,407.293
3.11010067,45.76271931,407.306
3.11009958,45.76271941,407.288
3.11009847,45.76271939,407.281
3.11009733,45.76271886,407.272
3.11009632,45.76271829,407.288
3.11009535,45.76271765,407.298
3.11009431,45.76271722,407.308
3.11009328,45.76271707,407.31
3.11009215,45.76271711,407.303
3.11009092,45.76271742,407.284
3.11008969,45.76271767,407.277
3.11008887,45.76271763,407.292
3.11008801,45.76271715,407.3
3.11008727,45.76271647,407.329
3.11008629,45.76271578,407.324
3.11008516,45.76271551,407.317
3.11008402,45.76271550,407.323
3.11008263,45.76271576,407.286
3.11008114,45.76271633,407.249
3.11007994,45.76271677,407.254
3.11007861,45.76271697,407.238
3.11007748,45.76271689,407.245
3.11007629,45.76271655,407.244
3.11007534,45.76271591,407.264
3.11007428,45.76271538,407.281
3.11007332,45.76271501,407.293
3.11007235,45.76271477,407.289
3.11007118,45.76271478,407.303
3.11006970,45.76271474,407.293
3.11006845,45.76271492,407.287
3.11006722,45.76271492,407.288
3.11006600,45.76271473,407.288
3.11006492,45.76271437,407.291
3.11006376,45.76271398,407.299
3.11006253,45.76271371,407.31
3.11006131,45.76271358,407.319
3.11006013,45.76271350,407.315
3.11005893,45.76271359,407.291
3.11005770,45.76271364,407.297
3.11005621,45.76271363,407.286
3.11005516,45.76271344,407.298
3.11005384,45.76271310,407.297
3.11005258,45.76271261,407.297
3.11005168,45.76271245,407.304
3.11005072,45.76271243,407.305
3.11005005,45.76271252,407.299
3.11004963,45.76271265,407.288
3.11004953,45.76271276,407.29
3.11004950,45.76271273,407.289
3.11004963,45.76271267,407.286
3.11004974,45.76271261,407.295
3.11004972,45.76271256,407.294
3.11004967,45.76271259,407.298
3.11004966,45.76271265,407.29
3.11004969,45.76271267,407.289
3.11004967,45.76271263,407.29
3.11004972,45.76271261,407.298
3.11004970,45.76271260,407.286
3.11004969,45.76271265,407.292
3.11004966,45.76271266,407.285
3.11004966,45.76271266,407.286
3.11004967,45.76271263,407.288
3.11004970,45.76271263,407.29
3.11004974,45.76271268,407.284
3.11004970,45.76271269,407.279
3.11004974,45.76271269,407.286
3.11004975,45.76271269,407.284
3.11004972,45.76271265,407.281
3.11004971,45.76271267,407.285
3.11004972,45.76271269,407.284
3.11004973,45.76271268,407.282
3.11004973,45.76271267,407.285
3.11004969,45.76271266,407.279
3.11004971,45.76271266,407.279
3.11004969,45.76271267,407.28
3.11004970,45.76271268,407.282
        </coordinates> 
      </LineString> 
    </Placemark> 
  </Document> 
</kml> 
