<?xml version="1.0" encoding="UTF-8"?> 
<kml xmlns="http://www.opengis.net/kml/2.2" 
     xmlns:gx="http://www.google.com/kml/ext/2.2" 
     xmlns:kml="http://www.opengis.net/kml/2.2"
     xmlns:atom="http://www.w3.org/2005/Atom"> 
  <Document> 
    <name>gps_traj.kml</name> 
    <Placemark> 
      <name>Trajectoire</name> 
      <LineString> 
        <tessellate>1</tessellate> 
        <coordinates> 
3.43828677,46.33931429,276.892
3.43828677,46.33931430,276.893
3.43828677,46.33931431,276.892
3.43828675,46.33931432,276.892
3.43828677,46.33931432,276.891
3.43828679,46.33931432,276.891
3.43828680,46.33931432,276.89
3.43828681,46.33931431,276.89
3.43828681,46.33931432,276.89
3.43828681,46.33931433,276.891
3.43828680,46.33931433,276.889
3.43828680,46.33931434,276.887
3.43828681,46.33931435,276.888
3.43828680,46.33931436,276.891
3.43828680,46.33931435,276.889
3.43828681,46.33931436,276.891
3.43828680,46.33931436,276.89
3.43828680,46.33931436,276.887
3.43828681,46.33931435,276.887
3.43828680,46.33931435,276.889
3.43828678,46.33931436,276.887
3.43828678,46.33931435,276.887
3.43828676,46.33931434,276.885
3.43828676,46.33931434,276.882
3.43828677,46.33931435,276.881
3.43828677,46.33931434,276.88
3.43828678,46.33931434,276.877
3.43828679,46.33931434,276.877
3.43828678,46.33931434,276.875
3.43828679,46.33931435,276.874
3.43828678,46.33931434,276.873
3.43828678,46.33931435,276.875
3.43828680,46.33931433,276.874
3.43828681,46.33931434,276.873
3.43828684,46.33931433,276.872
3.43828685,46.33931433,276.873
3.43828685,46.33931435,276.872
3.43828686,46.33931435,276.872
3.43828688,46.33931435,276.873
3.43828689,46.33931435,276.869
3.43828689,46.33931436,276.868
3.43828691,46.33931436,276.868
3.43828691,46.33931437,276.865
3.43828692,46.33931438,276.864
3.43828692,46.33931438,276.863
3.43828692,46.33931437,276.86
3.43828692,46.33931437,276.858
3.43828693,46.33931436,276.857
3.43828692,46.33931437,276.855
3.43828694,46.33931436,276.853
3.43828693,46.33931436,276.851
3.43828694,46.33931436,276.85
3.43828694,46.33931436,276.847
3.43828694,46.33931435,276.846
3.43828693,46.33931436,276.846
3.43828694,46.33931436,276.845
3.43828689,46.33931433,276.841
3.43828659,46.33931425,276.841
3.43828610,46.33931411,276.837
3.43828544,46.33931393,276.828
3.43828466,46.33931371,276.819
3.43828381,46.33931354,276.84
3.43828316,46.33931335,276.82
3.43828244,46.33931322,276.826
3.43828198,46.33931316,276.839
3.43828167,46.33931314,276.836
3.43828128,46.33931306,276.84
3.43828079,46.33931303,276.835
3.43828012,46.33931291,276.839
3.43827926,46.33931268,276.834
3.43827829,46.33931240,276.842
3.43827702,46.33931197,276.848
3.43827550,46.33931158,276.838
3.43827373,46.33931133,276.895
3.43827175,46.33931090,276.906
3.43826988,46.33931026,276.877
3.43826770,46.33930956,276.856
3.43826549,46.33930899,276.886
3.43826337,46.33930805,276.863
3.43826138,46.33930742,276.893
3.43825980,46.33930668,276.872
3.43825772,46.33930608,276.866
3.43825635,46.33930536,276.875
3.43825527,46.33930477,276.877
3.43825392,46.33930397,276.822
3.43825249,46.33930363,276.84
3.43825103,46.33930317,276.853
3.43824950,46.33930250,276.83
3.43824748,46.33930201,276.835
3.43824596,46.33930089,276.83
3.43824425,46.33929976,276.842
3.43824246,46.33929897,276.829
3.43824038,46.33929799,276.88
3.43823846,46.33929714,276.936
3.43823631,46.33929598,276.917
3.43823433,46.33929472,276.919
3.43823219,46.33929368,276.927
3.43823063,46.33929217,276.906
3.43822853,46.33929100,276.896
3.43822671,46.33928968,276.867
3.43822459,46.33928865,276.85
3.43822264,46.33928779,276.848
3.43822113,46.33928669,276.72
3.43821939,46.33928585,276.709
3.43821719,46.33928461,276.698
3.43821514,46.33928393,276.726
3.43821305,46.33928303,276.725
3.43821053,46.33928211,276.777
3.43820815,46.33928135,276.805
3.43820599,46.33928050,276.824
3.43820368,46.33927956,276.9
3.43820147,46.33927886,276.894
3.43819913,46.33927807,276.927
3.43819716,46.33927695,276.909
3.43819524,46.33927594,276.928
3.43819270,46.33927509,276.97
3.43819080,46.33927420,276.92
3.43818892,46.33927329,276.916
3.43818702,46.33927217,276.963
3.43818497,46.33927137,276.92
3.43818269,46.33927046,276.938
3.43818065,46.33926969,276.941
3.43817847,46.33926907,276.968
3.43817655,46.33926818,276.896
3.43817446,46.33926731,276.897
3.43817242,46.33926632,276.875
3.43817052,46.33926553,276.861
3.43816832,46.33926451,276.872
3.43816603,46.33926372,276.873
3.43816395,46.33926325,276.849
3.43816134,46.33926251,276.875
3.43815928,46.33926196,276.86
3.43815660,46.33926117,276.898
3.43815401,46.33926057,276.947
3.43815196,46.33925997,276.896
3.43814970,46.33925920,276.899
3.43814769,46.33925855,276.968
3.43814529,46.33925792,276.95
3.43814304,46.33925741,276.975
3.43814083,46.33925678,276.988
3.43813859,46.33925615,276.96
3.43813664,46.33925587,276.93
3.43813427,46.33925524,276.898
3.43813209,46.33925479,276.919
3.43813017,46.33925410,276.895
3.43812807,46.33925361,276.905
3.43812592,46.33925305,276.913
3.43812387,46.33925259,276.975
3.43812179,46.33925202,276.953
3.43811956,46.33925130,276.918
3.43811785,46.33925042,276.968
3.43811599,46.33924950,276.972
3.43811416,46.33924876,276.95
3.43811226,46.33924801,276.917
3.43811055,46.33924722,276.977
3.43810875,46.33924655,276.94
3.43810672,46.33924603,276.981
3.43810487,46.33924530,277.036
3.43810308,46.33924471,277.046
3.43810121,46.33924383,277.001
3.43809938,46.33924309,276.955
3.43809741,46.33924248,276.994
3.43809557,46.33924177,277.039
3.43809370,46.33924142,277.023
3.43809179,46.33924082,276.978
3.43808993,46.33924030,276.971
3.43808797,46.33923965,276.964
3.43808633,46.33923892,276.94
3.43808431,46.33923820,276.877
3.43808252,46.33923761,276.831
3.43808027,46.33923701,276.812
3.43807822,46.33923672,276.818
3.43807635,46.33923655,276.814
3.43807400,46.33923614,276.833
3.43807201,46.33923558,276.833
3.43807051,46.33923492,276.804
3.43806854,46.33923379,276.833
3.43806706,46.33923281,276.842
3.43806532,46.33923208,276.819
3.43806347,46.33923145,276.829
3.43806152,46.33923082,276.852
3.43805952,46.33923071,276.826
3.43805783,46.33923001,276.8
3.43805600,46.33922924,276.797
3.43805442,46.33922853,276.75
3.43805251,46.33922758,276.808
3.43805068,46.33922697,276.812
3.43804895,46.33922644,276.815
3.43804702,46.33922612,276.833
3.43804510,46.33922571,276.828
3.43804327,46.33922529,276.799
3.43804160,46.33922469,276.806
3.43803997,46.33922405,276.779
3.43803823,46.33922368,276.74
3.43803631,46.33922324,276.744
3.43803418,46.33922286,276.76
3.43803236,46.33922246,276.742
3.43803061,46.33922186,276.714
3.43802877,46.33922090,276.753
3.43802746,46.33922008,276.729
3.43802572,46.33921923,276.727
3.43802386,46.33921852,276.738
3.43802214,46.33921810,276.736
3.43802022,46.33921782,276.778
3.43801828,46.33921745,276.774
3.43801640,46.33921716,276.774
3.43801459,46.33921665,276.805
3.43801300,46.33921613,276.781
3.43801139,46.33921539,276.772
3.43800965,46.33921460,276.749
3.43800812,46.33921386,276.766
3.43800633,46.33921326,276.748
3.43800459,46.33921265,276.758
3.43800271,46.33921199,276.769
3.43800095,46.33921127,276.758
3.43799914,46.33921060,276.753
3.43799698,46.33921000,276.771
3.43799521,46.33920960,276.789
3.43799295,46.33920917,276.771
3.43799128,46.33920864,276.799
3.43798958,46.33920812,276.785
3.43798804,46.33920726,276.771
3.43798678,46.33920644,276.76
3.43798532,46.33920557,276.754
3.43798370,46.33920492,276.735
3.43798210,46.33920441,276.737
3.43798035,46.33920393,276.755
3.43797848,46.33920347,276.738
3.43797667,46.33920277,276.745
3.43797507,46.33920218,276.749
3.43797347,46.33920159,276.753
3.43797181,46.33920088,276.77
3.43796998,46.33920019,276.765
3.43796832,46.33919949,276.802
3.43796650,46.33919873,276.81
3.43796477,46.33919821,276.803
3.43796291,46.33919763,276.815
3.43796108,46.33919703,276.825
3.43795922,46.33919646,276.836
3.43795722,46.33919579,276.857
3.43795536,46.33919514,276.864
3.43795329,46.33919451,276.839
3.43795138,46.33919388,276.814
3.43794961,46.33919324,276.873
3.43794766,46.33919316,276.833
3.43794597,46.33919288,276.849
3.43794429,46.33919266,276.847
3.43794273,46.33919261,276.858
3.43794111,46.33919231,276.866
3.43793940,46.33919220,276.851
3.43793777,46.33919189,276.873
3.43793635,46.33919156,276.92
3.43793476,46.33919142,276.891
3.43793310,46.33919124,276.875
3.43793170,46.33919084,276.936
3.43793020,46.33919055,276.924
3.43792893,46.33919011,276.943
3.43792767,46.33918984,276.94
3.43792622,46.33918956,276.959
3.43792479,46.33918948,276.958
3.43792338,46.33918937,276.962
3.43792183,46.33918953,276.979
3.43792030,46.33918963,277.007
3.43791880,46.33918975,277.014
3.43791753,46.33918952,277.007
3.43791628,46.33918911,277.022
3.43791517,46.33918881,277.017
3.43791385,46.33918847,276.998
3.43791253,46.33918833,277.011
3.43791111,46.33918810,277.029
3.43790961,46.33918799,277.006
3.43790826,46.33918780,277.028
3.43790694,46.33918744,277.036
3.43790567,46.33918713,277.007
3.43790444,46.33918674,277.006
3.43790292,46.33918641,276.996
3.43790160,46.33918600,276.966
3.43790039,46.33918542,276.965
3.43789905,46.33918475,276.962
3.43789768,46.33918399,276.98
3.43789626,46.33918332,276.99
3.43789471,46.33918263,276.998
3.43789333,46.33918191,276.979
3.43789196,46.33918108,276.987
3.43789066,46.33918021,276.993
3.43788928,46.33917939,276.978
3.43788808,46.33917847,276.974
3.43788669,46.33917746,277.004
3.43788559,46.33917653,276.993
3.43788419,46.33917572,276.956
3.43788263,46.33917489,276.972
3.43788125,46.33917413,276.966
3.43787989,46.33917333,276.969
3.43787836,46.33917254,276.95
3.43787685,46.33917166,276.943
3.43787554,46.33917068,276.92
3.43787426,46.33916968,276.915
3.43787298,46.33916886,276.917
3.43787130,46.33916820,276.923
3.43786973,46.33916752,276.93
3.43786835,46.33916702,276.932
3.43786685,46.33916628,276.97
3.43786544,46.33916569,276.964
3.43786391,46.33916498,276.965
3.43786220,46.33916440,276.979
3.43786068,46.33916374,277.009
3.43785884,46.33916331,277.007
3.43785706,46.33916289,277.012
3.43785556,46.33916222,277.037
3.43785403,46.33916151,277.028
3.43785257,46.33916062,277.026
3.43785133,46.33915980,277.009
3.43784984,46.33915905,277.014
3.43784830,46.33915841,277.008
3.43784665,46.33915777,277.004
3.43784506,46.33915711,277.025
3.43784355,46.33915649,277.039
3.43784197,46.33915577,277.04
3.43784037,46.33915497,277.024
3.43783904,46.33915419,277.016
3.43783723,46.33915364,276.995
3.43783560,46.33915292,277.035
3.43783386,46.33915236,277.03
3.43783191,46.33915192,277.037
3.43783030,46.33915136,277.008
3.43782893,46.33915040,277.029
3.43782688,46.33914974,276.98
3.43782554,46.33914895,276.969
3.43782370,46.33914844,276.976
3.43782174,46.33914804,276.981
3.43781993,46.33914775,276.992
3.43781836,46.33914732,277.009
3.43781632,46.33914700,276.99
3.43781469,46.33914636,276.983
3.43781305,46.33914569,276.93
3.43781150,46.33914522,276.919
3.43780995,46.33914481,276.884
3.43780828,46.33914458,276.875
3.43780651,46.33914428,276.86
3.43780477,46.33914404,276.839
3.43780313,46.33914360,276.846
3.43780139,46.33914310,276.805
3.43779987,46.33914249,276.79
3.43779844,46.33914204,276.824
3.43779682,46.33914169,276.821
3.43779502,46.33914151,276.824
3.43779348,46.33914119,276.819
3.43779191,46.33914085,276.848
3.43779070,46.33914021,276.86
3.43778929,46.33913972,276.889
3.43778764,46.33913914,276.863
3.43778587,46.33913874,276.872
3.43778414,46.33913828,276.903
3.43778246,46.33913784,276.892
3.43778014,46.33913748,276.933
3.43777820,46.33913701,276.933
3.43777588,46.33913660,276.928
3.43777405,46.33913581,276.888
3.43777195,46.33913499,276.853
3.43776996,46.33913423,276.866
3.43776770,46.33913351,276.901
3.43776549,46.33913288,276.889
3.43776296,46.33913246,276.938
3.43776090,46.33913172,276.902
3.43775856,46.33913086,276.873
3.43775626,46.33913021,276.882
3.43775385,46.33912963,276.883
3.43775140,46.33912919,276.907
3.43774899,46.33912863,276.936
3.43774635,46.33912825,276.941
3.43774398,46.33912736,276.91
3.43774209,46.33912625,276.912
3.43773985,46.33912543,276.902
3.43773759,46.33912468,276.954
3.43773534,46.33912432,276.966
3.43773267,46.33912373,276.981
3.43773053,46.33912319,277.007
3.43772780,46.33912268,276.98
3.43772542,46.33912195,277.08
3.43772305,46.33912151,277.142
3.43772046,46.33912070,277.126
3.43771841,46.33911980,277.11
3.43771632,46.33911890,277.137
3.43771418,46.33911810,277.116
3.43771162,46.33911741,277.092
3.43770975,46.33911650,277.083
3.43770730,46.33911590,277.072
3.43770506,46.33911510,277.069
3.43770275,46.33911427,277.049
3.43770046,46.33911359,277.02
3.43769805,46.33911311,277.041
3.43769589,46.33911205,277.029
3.43769372,46.33911089,277.026
3.43769149,46.33910993,276.993
3.43768920,46.33910923,276.994
3.43768691,46.33910850,276.999
3.43768466,46.33910780,277.01
3.43768227,46.33910731,277.024
3.43767990,46.33910649,277.012
3.43767769,46.33910552,277.0
3.43767607,46.33910424,276.986
3.43767427,46.33910305,276.976
3.43767204,46.33910177,277.022
3.43766967,46.33910079,277.027
3.43766761,46.33909997,277.013
3.43766527,46.33909945,276.952
3.43766316,46.33909819,277.029
3.43766111,46.33909786,277.036
3.43765907,46.33909704,277.009
3.43765670,46.33909625,277.014
3.43765488,46.33909545,277.002
3.43765272,46.33909466,277.001
3.43765033,46.33909396,276.951
3.43764834,46.33909290,276.959
3.43764592,46.33909215,276.978
3.43764351,46.33909121,276.979
3.43764125,46.33909047,276.999
3.43763908,46.33908945,277.003
3.43763692,46.33908848,276.985
3.43763468,46.33908761,276.894
3.43763265,46.33908655,276.913
3.43763050,46.33908600,276.914
3.43762847,46.33908501,276.931
3.43762648,46.33908450,276.924
3.43762412,46.33908401,276.902
3.43762181,46.33908338,276.928
3.43761974,46.33908241,276.978
3.43761749,46.33908149,276.971
3.43761530,46.33908086,276.905
3.43761339,46.33907972,276.901
3.43761140,46.33907871,276.93
3.43760925,46.33907783,276.929
3.43760707,46.33907713,276.954
3.43760477,46.33907628,276.916
3.43760257,46.33907555,276.934
3.43760047,46.33907474,276.938
3.43759850,46.33907365,276.959
3.43759644,46.33907241,276.964
3.43759433,46.33907158,276.961
3.43759242,46.33907055,276.961
3.43759041,46.33906953,276.969
3.43758820,46.33906844,276.956
3.43758605,46.33906757,276.956
3.43758401,46.33906641,276.983
3.43758189,46.33906546,276.988
3.43757955,46.33906449,276.936
3.43757735,46.33906344,276.911
3.43757548,46.33906246,276.922
3.43757361,46.33906119,276.915
3.43757136,46.33906031,276.921
3.43756918,46.33905942,276.948
3.43756713,46.33905860,276.936
3.43756485,46.33905788,276.921
3.43756299,46.33905685,276.933
3.43756109,46.33905573,276.922
3.43755938,46.33905462,276.928
3.43755754,46.33905344,276.903
3.43755548,46.33905248,276.906
3.43755336,46.33905154,276.847
3.43755102,46.33905068,276.876
3.43754885,46.33904966,276.911
3.43754647,46.33904895,276.914
3.43754392,46.33904818,276.887
3.43754170,46.33904727,276.896
3.43753950,46.33904615,276.897
3.43753781,46.33904505,276.917
3.43753594,46.33904384,276.897
3.43753435,46.33904254,276.882
3.43753227,46.33904168,276.848
3.43753009,46.33904054,276.905
3.43752781,46.33904004,276.845
3.43752583,46.33903883,276.883
3.43752417,46.33903775,276.885
3.43752262,46.33903641,276.85
3.43752104,46.33903481,276.864
3.43751921,46.33903375,276.832
3.43751694,46.33903293,276.84
3.43751471,46.33903214,276.839
3.43751242,46.33903145,276.9
3.43750985,46.33903092,276.868
3.43750795,46.33902986,276.931
3.43750575,46.33902885,276.909
3.43750380,46.33902776,276.946
3.43750187,46.33902644,276.91
3.43749972,46.33902553,276.883
3.43749763,46.33902465,276.91
3.43749549,46.33902353,276.939
3.43749315,46.33902289,276.864
3.43749144,46.33902156,276.911
3.43748939,46.33902040,276.877
3.43748760,46.33901920,276.855
3.43748566,46.33901792,276.867
3.43748368,46.33901667,276.873
3.43748175,46.33901551,276.872
3.43747956,46.33901452,276.867
3.43747734,46.33901353,276.875
3.43747532,46.33901253,276.869
3.43747323,46.33901158,276.858
3.43747129,46.33901060,276.88
3.43746926,46.33900960,276.909
3.43746734,46.33900857,276.915
3.43746535,46.33900774,276.913
3.43746351,46.33900677,276.903
3.43746197,46.33900574,276.888
3.43746034,46.33900483,276.899
3.43745907,46.33900418,276.915
3.43745788,46.33900354,276.925
3.43745685,46.33900318,276.905
3.43745590,46.33900287,276.901
3.43745499,46.33900247,276.923
3.43745409,46.33900213,276.939
3.43745314,46.33900171,276.956
3.43745233,46.33900128,276.952
3.43745143,46.33900092,276.957
3.43745051,46.33900061,276.963
3.43744959,46.33900030,276.968
3.43744867,46.33900008,276.968
3.43744751,46.33899985,276.979
3.43744644,46.33899956,276.975
3.43744530,46.33899922,276.976
3.43744418,46.33899879,276.947
3.43744306,46.33899833,276.922
3.43744204,46.33899780,276.935
3.43744104,46.33899726,276.933
3.43744008,46.33899671,276.945
3.43743898,46.33899626,276.926
3.43743792,46.33899577,276.934
3.43743686,46.33899532,276.946
3.43743570,46.33899487,276.955
3.43743453,46.33899443,276.941
3.43743342,46.33899383,276.942
3.43743235,46.33899329,276.972
3.43743131,46.33899285,276.968
3.43743952,46.33899460,275.743
3.43743847,46.33899422,275.7
3.43743734,46.33899382,275.732
3.43743637,46.33899347,275.716
3.43743527,46.33899292,275.744
3.43743423,46.33899233,275.741
3.43743289,46.33899160,275.7
3.43743146,46.33899074,275.72
3.43742969,46.33898960,275.728
3.43742761,46.33898892,275.699
3.43742523,46.33898798,275.685
3.43742304,46.33898674,275.699
3.43742094,46.33898550,275.649
3.43741866,46.33898363,275.637
3.43741672,46.33898189,275.597
3.43741506,46.33898021,275.657
3.43741340,46.33897896,275.762
3.43741205,46.33897800,275.966
3.43741056,46.33897751,276.286
3.43740916,46.33897726,276.569
3.43740786,46.33897702,276.811
3.43740676,46.33897685,277.044
3.43740568,46.33897692,277.182
3.43740456,46.33897682,277.227
3.43740370,46.33897672,277.305
3.43740284,46.33897646,277.304
3.43740190,46.33897618,277.333
3.43740102,46.33897598,277.386
3.43740008,46.33897566,277.463
3.43739895,46.33897554,277.552
3.43739791,46.33897558,277.622
3.43739689,46.33897562,277.685
3.43739593,46.33897561,277.765
3.43739516,46.33897568,277.797
3.43739422,46.33897568,277.843
3.43739320,46.33897570,277.898
3.43739207,46.33897561,277.994
3.43739085,46.33897531,278.172
3.43738943,46.33897510,278.352
3.43738804,46.33897492,278.525
3.43738679,46.33897475,278.668
3.43738587,46.33897451,278.797
3.43738525,46.33897436,278.871
3.43738468,46.33897427,278.916
3.43738384,46.33897436,278.949
3.43738305,46.33897436,278.952
3.43738212,46.33897426,278.969
3.43738127,46.33897400,278.969
3.43738047,46.33897382,278.928
3.43737973,46.33897351,278.937
3.43737905,46.33897305,278.933
3.43737867,46.33897257,278.926
3.43737848,46.33897202,278.898
3.43737877,46.33897162,278.906
3.43737928,46.33897125,278.936
3.43737961,46.33897100,278.973
3.43737960,46.33897079,278.98
3.43737944,46.33897042,278.981
3.43737909,46.33897001,278.95
3.43737854,46.33896945,278.917
3.43737820,46.33896886,278.896
3.43737784,46.33896822,278.889
3.43737731,46.33896759,278.851
3.43737661,46.33896707,278.848
3.43737584,46.33896654,278.864
3.43737495,46.33896605,278.859
3.43737411,46.33896556,278.816
3.43737327,46.33896519,278.813
3.43737243,46.33896486,278.764
3.43737167,46.33896446,278.717
3.43737103,46.33896413,278.642
3.43737028,46.33896367,278.613
3.43736959,46.33896314,278.598
3.43736866,46.33896273,278.562
3.43736764,46.33896241,278.504
3.43736686,46.33896209,278.476
3.43736586,46.33896173,278.424
3.43736498,46.33896126,278.378
3.43736399,46.33896079,278.308
3.43736306,46.33896032,278.238
3.43736202,46.33895954,278.17
3.43736112,46.33895893,278.131
3.43736041,46.33895821,278.14
3.43735981,46.33895726,278.185
3.43735936,46.33895634,278.278
3.43735881,46.33895552,278.406
3.43735809,46.33895475,278.445
3.43735746,46.33895393,278.49
3.43735673,46.33895319,278.524
3.43735597,46.33895254,278.531
3.43735512,46.33895206,278.526
3.43735430,46.33895147,278.54
3.43735333,46.33895096,278.534
3.43735244,46.33895069,278.521
3.43735170,46.33895045,278.526
3.43735094,46.33895004,278.522
3.43735025,46.33894962,278.493
3.43734930,46.33894918,278.489
3.43734814,46.33894872,278.472
3.43734704,46.33894809,278.43
3.43734527,46.33894749,278.389
3.43734368,46.33894686,278.379
3.43734191,46.33894603,278.332
3.43733984,46.33894525,278.292
3.43733792,46.33894423,278.267
3.43733585,46.33894320,278.275
3.43733369,46.33894210,278.218
3.43733168,46.33894112,278.254
3.43732958,46.33894042,278.139
3.43732753,46.33893962,278.123
3.43732554,46.33893879,278.099
3.43732362,46.33893785,278.118
3.43732161,46.33893686,278.093
3.43731987,46.33893569,278.025
3.43731835,46.33893441,278.027
3.43731654,46.33893305,278.014
3.43731455,46.33893188,277.974
3.43731235,46.33893109,277.917
3.43730998,46.33893025,277.889
3.43730791,46.33892932,277.865
3.43730582,46.33892839,277.862
3.43730376,46.33892739,277.858
3.43730171,46.33892661,277.855
3.43729938,46.33892562,277.848
3.43729733,46.33892469,277.839
3.43729547,46.33892366,277.864
3.43729324,46.33892270,277.863
3.43729132,46.33892154,277.838
3.43728921,46.33892057,277.847
3.43728737,46.33891938,277.83
3.43728512,46.33891824,277.84
3.43728320,46.33891729,277.818
3.43728106,46.33891648,277.793
3.43727910,46.33891536,277.816
3.43727718,46.33891436,277.866
3.43727486,46.33891361,277.817
3.43727332,46.33891243,277.801
3.43727119,46.33891158,277.803
3.43726931,46.33891068,277.789
3.43726728,46.33890978,277.799
3.43726533,46.33890906,277.748
3.43726335,46.33890826,277.716
3.43726163,46.33890712,277.742
3.43725955,46.33890614,277.717
3.43725761,46.33890499,277.724
3.43725556,46.33890391,277.756
3.43725360,46.33890291,277.723
3.43725147,46.33890188,277.736
3.43724936,46.33890113,277.779
3.43724709,46.33890034,277.805
3.43724461,46.33889950,277.802
3.43724250,46.33889842,277.8
3.43724051,46.33889731,277.83
3.43723826,46.33889641,277.8
3.43723628,46.33889524,277.814
3.43723413,46.33889431,277.801
3.43723208,46.33889344,277.79
3.43723002,46.33889283,277.797
3.43722765,46.33889216,277.822
3.43722571,46.33889139,277.806
3.43722380,46.33889037,277.795
3.43722215,46.33888929,277.794
3.43722007,46.33888856,277.733
3.43721784,46.33888756,277.713
3.43721622,46.33888666,277.714
3.43721393,46.33888587,277.697
3.43721182,46.33888482,277.734
3.43720968,46.33888435,277.612
3.43720761,46.33888337,277.655
3.43720555,46.33888262,277.636
3.43720335,46.33888142,277.7
3.43720133,46.33888043,277.725
3.43719926,46.33887926,277.718
3.43719766,46.33887808,277.72
3.43719529,46.33887710,277.676
3.43719326,46.33887607,277.688
3.43719090,46.33887543,277.68
3.43718842,46.33887484,277.681
3.43718612,46.33887417,277.656
3.43718374,46.33887327,277.646
3.43718175,46.33887241,277.64
3.43717967,46.33887151,277.613
3.43717778,46.33887068,277.645
3.43717544,46.33886991,277.639
3.43717321,46.33886918,277.687
3.43717087,46.33886849,277.604
3.43716854,46.33886787,277.641
3.43716620,46.33886731,277.643
3.43716384,46.33886684,277.653
3.43716139,46.33886639,277.657
3.43715893,46.33886591,277.644
3.43715680,46.33886509,277.667
3.43715448,46.33886464,277.659
3.43715234,46.33886402,277.701
3.43715005,46.33886369,277.676
3.43714725,46.33886306,277.583
3.43714510,46.33886255,277.556
3.43714316,46.33886197,277.51
3.43714100,46.33886124,277.506
3.43713926,46.33886055,277.435
3.43713746,46.33885981,277.452
3.43713585,46.33885899,277.379
3.43713388,46.33885817,277.378
3.43713211,46.33885738,277.369
3.43713069,46.33885645,277.361
3.43712944,46.33885521,277.437
3.43712757,46.33885439,277.47
3.43712581,46.33885351,277.434
3.43712409,46.33885297,277.464
3.43712175,46.33885179,277.44
3.43711973,46.33885097,277.437
3.43711813,46.33884976,277.393
3.43711603,46.33884879,277.497
3.43711353,46.33884800,277.408
3.43711069,46.33884707,277.381
3.43710840,46.33884604,277.417
3.43710654,46.33884541,277.387
3.43710420,46.33884402,277.372
3.43710241,46.33884374,277.286
3.43710042,46.33884303,277.22
3.43709780,46.33884191,277.178
3.43709545,46.33884124,277.085
3.43709312,46.33884096,277.005
3.43709114,46.33884056,276.972
3.43708854,46.33884031,276.937
3.43708634,46.33883975,276.92
3.43708435,46.33883932,276.836
3.43708188,46.33883843,276.827
3.43707993,46.33883809,276.78
3.43707787,46.33883735,276.812
3.43707568,46.33883694,276.782
3.43707340,46.33883629,276.824
3.43707120,46.33883568,276.789
3.43706892,46.33883526,276.792
3.43706700,46.33883471,276.723
3.43706520,46.33883403,276.679
3.43706320,46.33883280,276.708
3.43706069,46.33883285,276.698
3.43705856,46.33883248,276.729
3.43705561,46.33883255,276.682
3.43705377,46.33883176,276.762
3.43705178,46.33883075,276.91
3.43704991,46.33883066,276.893
3.43704790,46.33883015,276.944
3.43704601,46.33882946,277.008
3.43704431,46.33882872,277.088
3.43704208,46.33882783,277.128
3.43703951,46.33882757,277.13
3.43703743,46.33882677,277.14
3.43703612,46.33882603,277.175
3.43703404,46.33882555,277.152
3.43703173,46.33882479,277.19
3.43702996,46.33882403,277.175
3.43702783,46.33882330,277.208
3.43702601,46.33882240,277.201
3.43702415,46.33882160,277.139
3.43702165,46.33882064,277.154
3.43701918,46.33881978,277.228
3.43701701,46.33881895,277.219
3.43701481,46.33881809,277.241
3.43701226,46.33881725,277.293
3.43700999,46.33881646,277.295
3.43700746,46.33881591,277.341
3.43700476,46.33881521,277.402
3.43700241,46.33881454,277.401
3.43700020,46.33881392,277.376
3.43699766,46.33881339,277.373
3.43699542,46.33881261,277.379
3.43699295,46.33881220,277.431
3.43699110,46.33881194,277.452
3.43698935,46.33881171,277.441
3.43698832,46.33881171,277.458
3.43698743,46.33881134,277.412
3.43698652,46.33881109,277.439
3.43698626,46.33881096,277.425
3.43698625,46.33881086,277.42
3.43698645,46.33881087,277.406
3.43698673,46.33881081,277.417
3.43698678,46.33881071,277.434
3.43698683,46.33881060,277.449
3.43698717,46.33881055,277.444
3.43698732,46.33881044,277.455
3.43698734,46.33881039,277.477
3.43698760,46.33881037,277.47
3.43698777,46.33881036,277.483
3.43698780,46.33881034,277.487
3.43698776,46.33881035,277.485
3.43698784,46.33881035,277.488
3.43698802,46.33881037,277.491
3.43698811,46.33881035,277.503
3.43698830,46.33881037,277.497
3.43698845,46.33881034,277.505
3.43698854,46.33881034,277.518
3.43698868,46.33881035,277.518
3.43698878,46.33881033,277.536
3.43698895,46.33881033,277.531
3.43698922,46.33881027,277.548
3.43698961,46.33881011,277.595
3.43699018,46.33880987,277.629
3.43699088,46.33880955,277.687
3.43699160,46.33880926,277.746
3.43699220,46.33880900,277.791
3.43699269,46.33880879,277.829
3.43699301,46.33880864,277.865
3.43699327,46.33880854,277.877
3.43699348,46.33880842,277.896
3.43699357,46.33880829,277.931
3.43699348,46.33880818,277.977
3.43699323,46.33880807,278.037
3.43699280,46.33880795,278.113
3.43699237,46.33880784,278.184
3.43699198,46.33880771,278.255
3.43699161,46.33880759,278.319
3.43699129,46.33880744,278.382
        </coordinates> 
      </LineString> 
    </Placemark> 
  </Document> 
</kml> 
