<?xml version="1.0" encoding="UTF-8"?> 
<kml xmlns="http://www.opengis.net/kml/2.2" 
     xmlns:gx="http://www.google.com/kml/ext/2.2" 
     xmlns:kml="http://www.opengis.net/kml/2.2"
     xmlns:atom="http://www.w3.org/2005/Atom"> 
  <Document> 
    <name>gps_traj.kml</name> 
    <Placemark> 
      <name>Trajectoire</name> 
      <LineString> 
        <tessellate>1</tessellate> 
        <coordinates> 
3.10939055,45.76321872,407.188
3.10939055,45.76321871,407.189
3.10939055,45.76321870,407.188
3.10939055,45.76321871,407.19
3.10939055,45.76321871,407.19
3.10939056,45.76321871,407.19
3.10939056,45.76321870,407.189
3.10939061,45.76321859,407.19
3.10939072,45.76321834,407.188
3.10939090,45.76321796,407.189
3.10939122,45.76321738,407.192
3.10939161,45.76321677,407.197
3.10939203,45.76321604,407.196
3.10939245,45.76321525,407.199
3.10939293,45.76321439,407.206
3.10939346,45.76321351,407.201
3.10939397,45.76321260,407.207
3.10939454,45.76321171,407.202
3.10939507,45.76321079,407.209
3.10939563,45.76320989,407.204
3.10939615,45.76320896,407.206
3.10939668,45.76320804,407.208
3.10939721,45.76320715,407.209
3.10939770,45.76320628,407.217
3.10939831,45.76320544,407.211
3.10939886,45.76320464,407.216
3.10939938,45.76320383,407.212
3.10939992,45.76320305,407.223
3.10940048,45.76320226,407.223
3.10940104,45.76320144,407.227
3.10940152,45.76320066,407.228
3.10940199,45.76319994,407.225
3.10940256,45.76319925,407.226
3.10940316,45.76319849,407.23
3.10940365,45.76319771,407.231
3.10940414,45.76319700,407.232
3.10940465,45.76319630,407.229
3.10940526,45.76319550,407.23
3.10940596,45.76319457,407.229
3.10940676,45.76319352,407.23
3.10940769,45.76319231,407.234
3.10940870,45.76319094,407.235
3.10940977,45.76318948,407.239
3.10941086,45.76318797,407.244
3.10941215,45.76318640,407.24
3.10941342,45.76318483,407.238
3.10941474,45.76318321,407.237
3.10941610,45.76318153,407.232
3.10941742,45.76317980,407.232
3.10941864,45.76317805,407.233
3.10941984,45.76317629,407.239
3.10942105,45.76317450,407.24
3.10942218,45.76317267,407.246
3.10942324,45.76317091,407.25
3.10942429,45.76316912,407.26
3.10942535,45.76316734,407.265
3.10942635,45.76316559,407.267
3.10942729,45.76316387,407.273
3.10942815,45.76316216,407.272
3.10942907,45.76316049,407.274
3.10942998,45.76315884,407.278
3.10943091,45.76315719,407.275
3.10943183,45.76315551,407.273
3.10943266,45.76315383,407.271
3.10943348,45.76315216,407.275
3.10943426,45.76315051,407.274
3.10943514,45.76314883,407.28
3.10943610,45.76314722,407.275
3.10943700,45.76314561,407.284
3.10943803,45.76314398,407.289
3.10943897,45.76314227,407.275
3.10943984,45.76314063,407.277
3.10944068,45.76313889,407.278
3.10944149,45.76313713,407.284
3.10944222,45.76313536,407.294
3.10944295,45.76313365,407.312
3.10944351,45.76313183,407.306
3.10944404,45.76313002,407.309
3.10944462,45.76312820,407.326
3.10944518,45.76312643,407.323
3.10944563,45.76312461,407.311
3.10944598,45.76312282,407.319
3.10944627,45.76312107,407.325
3.10944649,45.76311927,407.326
3.10944681,45.76311756,407.349
3.10944695,45.76311564,407.332
3.10944741,45.76311386,407.334
3.10944760,45.76311202,407.334
3.10944772,45.76311024,407.325
3.10944809,45.76310857,407.339
3.10944808,45.76310646,407.321
3.10944831,45.76310475,407.336
3.10944859,45.76310288,407.331
3.10944891,45.76310109,407.314
3.10944919,45.76309923,407.314
3.10944922,45.76309749,407.315
3.10944928,45.76309572,407.34
3.10944903,45.76309384,407.346
3.10944899,45.76309198,407.353
3.10944881,45.76309019,407.353
3.10944865,45.76308822,407.351
3.10944834,45.76308638,407.365
3.10944818,45.76308450,407.351
3.10944770,45.76308270,407.364
3.10944726,45.76308096,407.382
3.10944695,45.76307918,407.384
3.10944680,45.76307739,407.379
3.10944640,45.76307571,407.393
3.10944599,45.76307394,407.391
3.10944548,45.76307226,407.414
3.10944544,45.76307053,407.404
3.10944509,45.76306880,407.396
3.10944487,45.76306712,407.399
3.10944434,45.76306547,407.413
3.10944455,45.76306368,407.357
3.10944441,45.76306197,407.349
3.10944431,45.76306024,407.353
3.10944418,45.76305862,407.353
3.10944390,45.76305707,407.373
3.10944390,45.76305534,407.366
3.10944377,45.76305371,407.378
3.10944358,45.76305203,407.388
3.10944347,45.76305039,407.396
3.10944348,45.76304865,407.404
3.10944293,45.76304693,407.453
3.10944279,45.76304522,407.467
3.10944287,45.76304343,407.479
3.10944287,45.76304172,407.455
3.10944289,45.76303998,407.466
3.10944288,45.76303824,407.459
3.10944274,45.76303664,407.397
3.10944273,45.76303493,407.395
3.10944269,45.76303324,407.401
3.10944270,45.76303152,407.413
3.10944252,45.76302979,407.426
3.10944247,45.76302809,407.436
3.10944250,45.76302638,407.435
3.10944248,45.76302471,407.423
3.10944258,45.76302302,407.43
3.10944261,45.76302130,407.41
3.10944268,45.76301958,407.404
3.10944273,45.76301790,407.408
3.10944275,45.76301617,407.404
3.10944275,45.76301444,407.406
3.10944284,45.76301271,407.464
3.10944305,45.76301094,407.459
3.10944313,45.76300929,407.468
3.10944333,45.76300754,407.469
3.10944346,45.76300576,407.473
3.10944355,45.76300409,407.478
3.10944364,45.76300235,407.467
3.10944378,45.76300061,407.475
3.10944397,45.76299891,407.481
3.10944404,45.76299717,407.497
3.10944425,45.76299534,407.495
3.10944444,45.76299363,407.508
3.10944464,45.76299185,407.502
3.10944479,45.76299010,407.518
3.10944511,45.76298835,407.522
3.10944520,45.76298656,407.574
3.10944546,45.76298485,407.554
3.10944566,45.76298305,407.561
3.10944593,45.76298133,407.556
3.10944616,45.76297953,407.556
3.10944635,45.76297779,407.56
3.10944667,45.76297597,407.573
3.10944700,45.76297424,407.582
3.10944713,45.76297247,407.573
3.10944734,45.76297068,407.576
3.10944760,45.76296897,407.563
3.10944788,45.76296722,407.569
3.10944814,45.76296548,407.553
3.10944839,45.76296376,407.553
3.10944872,45.76296209,407.549
3.10944897,45.76296038,407.563
3.10944949,45.76295872,407.56
3.10944995,45.76295714,407.549
3.10945049,45.76295550,407.558
3.10945104,45.76295387,407.555
3.10945159,45.76295226,407.531
3.10945218,45.76295062,407.519
3.10945285,45.76294899,407.516
3.10945353,45.76294735,407.514
3.10945433,45.76294574,407.519
3.10945510,45.76294407,407.523
3.10945593,45.76294244,407.519
3.10945660,45.76294074,407.523
3.10945730,45.76293905,407.518
3.10945804,45.76293736,407.514
3.10945884,45.76293572,407.505
3.10945959,45.76293406,407.506
3.10946044,45.76293242,407.499
3.10946118,45.76293078,407.494
3.10946186,45.76292913,407.494
3.10946255,45.76292748,407.51
3.10946330,45.76292590,407.509
3.10946413,45.76292432,407.498
3.10946502,45.76292278,407.498
3.10946598,45.76292128,407.496
3.10946690,45.76291968,407.491
3.10946786,45.76291810,407.483
3.10946882,45.76291657,407.491
3.10946986,45.76291500,407.493
3.10947097,45.76291347,407.496
3.10947214,45.76291199,407.493
3.10947328,45.76291039,407.497
3.10947429,45.76290881,407.497
3.10947531,45.76290720,407.5
3.10947641,45.76290563,407.497
3.10947752,45.76290409,407.503
3.10947862,45.76290255,407.502
3.10947979,45.76290095,407.496
3.10948096,45.76289940,407.501
3.10948217,45.76289780,407.5
3.10948333,45.76289624,407.48
3.10948446,45.76289462,407.479
3.10948545,45.76289298,407.476
3.10948653,45.76289132,407.472
3.10948760,45.76288971,407.476
3.10948866,45.76288810,407.477
3.10948967,45.76288644,407.483
3.10949058,45.76288482,407.486
3.10949161,45.76288324,407.488
3.10949263,45.76288163,407.486
3.10949383,45.76288014,407.45
3.10949488,45.76287852,407.446
3.10949588,45.76287692,407.458
3.10949676,45.76287533,407.451
3.10949779,45.76287370,407.45
3.10949881,45.76287212,407.452
3.10949981,45.76287053,407.463
3.10950088,45.76286892,407.458
3.10950186,45.76286733,407.46
3.10950289,45.76286572,407.465
3.10950382,45.76286408,407.455
3.10950482,45.76286247,407.456
3.10950593,45.76286090,407.443
3.10950692,45.76285928,407.454
3.10950792,45.76285768,407.448
3.10950889,45.76285608,407.457
3.10950985,45.76285446,407.448
3.10951083,45.76285287,407.443
3.10951186,45.76285131,407.438
3.10951289,45.76284971,407.433
3.10951387,45.76284808,407.443
3.10951489,45.76284647,407.449
3.10951585,45.76284486,407.442
3.10951690,45.76284326,407.437
3.10951794,45.76284165,407.436
3.10951891,45.76284005,407.427
3.10951994,45.76283848,407.431
3.10952094,45.76283685,407.428
3.10952193,45.76283523,407.407
3.10952289,45.76283363,407.408
3.10952389,45.76283202,407.394
3.10952493,45.76283040,407.429
3.10952590,45.76282878,407.411
3.10952687,45.76282717,407.406
3.10952787,45.76282554,407.427
3.10952878,45.76282393,407.422
3.10952981,45.76282234,407.41
3.10953078,45.76282074,407.419
3.10953181,45.76281910,407.431
3.10953278,45.76281747,407.419
3.10953378,45.76281585,407.429
3.10953479,45.76281422,407.428
3.10953578,45.76281262,407.423
3.10953679,45.76281105,407.418
3.10953779,45.76280941,407.42
3.10953880,45.76280776,407.419
3.10953978,45.76280613,407.429
3.10954083,45.76280456,407.411
3.10954182,45.76280295,407.421
3.10954279,45.76280136,407.407
3.10954382,45.76279976,407.395
3.10954484,45.76279811,407.402
3.10954580,45.76279651,407.393
3.10954674,45.76279488,407.393
3.10954768,45.76279326,407.395
3.10954870,45.76279168,407.393
3.10954971,45.76279003,407.385
3.10955064,45.76278846,407.371
3.10955167,45.76278684,407.385
3.10955265,45.76278524,407.38
3.10955364,45.76278364,407.38
3.10955459,45.76278200,407.385
3.10955560,45.76278041,407.372
3.10955659,45.76277881,407.376
3.10955757,45.76277724,407.377
3.10955855,45.76277560,407.389
3.10955949,45.76277399,407.384
3.10956047,45.76277235,407.396
3.10956138,45.76277075,407.383
3.10956228,45.76276913,407.383
3.10956331,45.76276753,407.372
3.10956435,45.76276594,407.376
3.10956535,45.76276436,407.351
3.10956632,45.76276271,407.373
3.10956734,45.76276116,407.344
3.10956829,45.76275956,407.357
3.10956922,45.76275794,407.375
3.10957013,45.76275637,407.368
3.10957116,45.76275476,407.381
3.10957206,45.76275315,407.371
3.10957307,45.76275161,407.351
3.10957407,45.76275001,407.342
3.10957506,45.76274839,407.346
3.10957607,45.76274679,407.343
3.10957707,45.76274509,407.337
3.10957818,45.76274348,407.332
3.10957929,45.76274188,407.337
3.10958026,45.76274019,407.354
3.10958120,45.76273860,407.331
3.10958220,45.76273694,407.351
3.10958316,45.76273536,407.326
3.10958418,45.76273378,407.332
3.10958517,45.76273218,407.32
3.10958622,45.76273058,407.309
3.10958727,45.76272899,407.323
3.10958829,45.76272742,407.315
3.10958923,45.76272578,407.326
3.10959014,45.76272418,407.312
3.10959101,45.76272253,407.337
3.10959204,45.76272092,407.33
3.10959276,45.76271928,407.318
3.10959370,45.76271769,407.316
3.10959463,45.76271613,407.315
3.10959562,45.76271454,407.303
3.10959652,45.76271295,407.291
3.10959746,45.76271141,407.3
3.10959839,45.76270984,407.317
3.10959940,45.76270833,407.291
3.10960033,45.76270684,407.3
3.10960133,45.76270535,407.291
3.10960222,45.76270383,407.303
3.10960320,45.76270239,407.31
3.10960434,45.76270101,407.296
3.10960544,45.76269963,407.292
3.10960661,45.76269822,407.31
3.10960796,45.76269690,407.298
3.10960934,45.76269560,407.293
3.10961059,45.76269422,407.309
3.10961208,45.76269293,407.289
3.10961364,45.76269165,407.277
3.10961526,45.76269036,407.298
3.10961683,45.76268901,407.288
3.10961846,45.76268766,407.3
3.10962008,45.76268631,407.295
3.10962168,45.76268497,407.294
3.10962320,45.76268371,407.3
3.10962496,45.76268249,407.283
3.10962667,45.76268128,407.264
3.10962846,45.76268002,407.248
3.10962998,45.76267872,407.276
3.10963182,45.76267757,407.261
3.10963338,45.76267637,407.268
3.10963512,45.76267534,407.241
3.10963694,45.76267427,407.232
3.10963849,45.76267306,407.217
3.10964007,45.76267204,407.259
3.10964165,45.76267113,407.256
3.10964355,45.76267027,407.226
3.10964528,45.76266952,407.245
3.10964700,45.76266872,407.233
3.10964897,45.76266760,407.21
3.10965038,45.76266655,407.177
3.10965210,45.76266562,407.204
3.10965363,45.76266441,407.171
3.10965553,45.76266335,407.172
3.10965715,45.76266233,407.214
3.10966095,45.76266259,407.333
3.10966285,45.76266192,407.318
3.10966536,45.76266164,407.324
3.10966750,45.76266110,407.315
3.10966993,45.76266104,407.3
3.10967196,45.76266012,407.246
3.10967374,45.76265949,407.191
3.10967604,45.76265944,407.193
3.10967837,45.76265882,407.21
3.10968140,45.76265953,407.147
3.10968238,45.76265925,407.184
3.10968478,45.76265902,407.176
3.10968713,45.76265877,407.134
3.10968942,45.76265859,407.115
3.10969176,45.76265855,407.127
3.10969378,45.76265822,407.144
3.10969492,45.76265910,407.207
3.10969705,45.76266062,406.978
3.10969884,45.76266173,406.863
3.10970089,45.76266207,406.872
3.10970407,45.76266363,406.623
3.10970713,45.76266464,406.493
3.10970780,45.76266457,406.438
3.10971128,45.76266463,406.455
3.10971747,45.76265936,406.733
3.10971998,45.76265936,406.865
3.10972213,45.76265938,407.252
3.10972531,45.76265936,407.366
3.10972380,45.76266236,407.117
3.10972458,45.76266342,407.05
3.10972545,45.76266454,407.024
3.10972521,45.76266580,406.899
3.10972703,45.76266595,406.838
3.10972853,45.76266630,406.79
3.10972991,45.76266666,406.564
3.10973089,45.76266800,406.373
3.10973222,45.76266913,406.269
3.10973459,45.76266964,406.219
3.10973698,45.76266981,406.073
3.10973922,45.76267001,406.075
3.10974067,45.76267032,405.974
3.10974161,45.76267104,405.867
3.10974243,45.76267143,405.759
3.10974341,45.76267189,405.685
3.10974413,45.76267215,405.575
3.10974550,45.76267250,405.423
3.10974695,45.76267299,405.437
3.10974750,45.76267362,405.449
3.10975146,45.76267196,405.857
3.10975340,45.76267190,405.852
3.10975594,45.76267192,405.944
3.10975796,45.76267266,406.008
3.10976026,45.76267158,406.203
3.10976266,45.76267184,406.158
3.10976441,45.76267275,406.149
3.10976626,45.76267352,406.14
3.10976905,45.76267425,406.08
3.10977117,45.76267452,405.913
3.10977281,45.76267560,406.053
3.10977558,45.76267490,406.147
3.10977733,45.76267412,406.285
3.10977839,45.76267357,406.39
3.10977985,45.76267232,406.46
3.10978017,45.76267233,406.382
3.10978341,45.76266962,406.391
3.10978501,45.76266817,406.274
3.10978573,45.76266707,406.285
3.10978620,45.76266579,406.286
3.10978792,45.76266376,406.275
3.10978996,45.76266201,406.173
3.10979090,45.76266100,406.261
3.10978987,45.76266270,406.371
3.10978850,45.76266606,406.468
3.10978573,45.76267155,406.424
3.10978775,45.76267039,406.557
3.10978749,45.76267087,406.974
3.10978556,45.76267475,407.47
3.10978874,45.76267252,408.011
3.10979210,45.76267028,408.559
3.10979284,45.76267252,409.156
3.10979502,45.76267474,409.395
3.10979515,45.76267941,409.534
3.10979395,45.76268379,409.619
3.10979221,45.76268937,409.684
3.10979302,45.76269268,409.639
3.10979450,45.76269361,409.678
3.10980102,45.76269179,409.473
3.10980499,45.76269098,409.406
3.10980880,45.76268942,409.375
3.10981216,45.76268988,409.221
3.10981731,45.76268739,409.003
3.10982178,45.76268575,408.828
3.10982508,45.76268345,408.66
3.10982740,45.76268160,408.582
3.10982959,45.76268152,408.366
3.10983023,45.76268186,408.096
3.10982917,45.76268209,407.935
3.10982787,45.76268230,407.822
3.10982687,45.76268252,407.702
3.10982570,45.76268282,407.587
3.10982498,45.76268303,407.524
3.10982469,45.76268355,407.522
3.10982456,45.76268393,407.55
3.10982420,45.76268427,407.565
3.10982401,45.76268445,407.578
        </coordinates> 
      </LineString> 
    </Placemark> 
  </Document> 
</kml> 
