<?xml version="1.0" encoding="UTF-8"?> 
<kml xmlns="http://www.opengis.net/kml/2.2" 
     xmlns:gx="http://www.google.com/kml/ext/2.2" 
     xmlns:kml="http://www.opengis.net/kml/2.2"
     xmlns:atom="http://www.w3.org/2005/Atom"> 
  <Document> 
    <name>gps_traj.kml</name> 
    <Placemark> 
      <name>Trajectoire</name> 
      <LineString> 
        <tessellate>1</tessellate> 
        <coordinates> 
3.43315889,46.34099827,284.593
3.43315888,46.34099827,284.593
3.43315889,46.34099827,284.592
3.43315889,46.34099827,284.593
3.43315889,46.34099827,284.593
3.43315888,46.34099827,284.594
3.43315888,46.34099827,284.595
3.43315889,46.34099827,284.595
3.43315890,46.34099826,284.595
3.43315890,46.34099827,284.596
3.43315890,46.34099827,284.596
3.43315890,46.34099827,284.596
3.43315890,46.34099827,284.597
3.43315890,46.34099827,284.596
3.43315890,46.34099828,284.596
3.43315890,46.34099827,284.596
3.43315890,46.34099826,284.597
3.43315889,46.34099826,284.596
3.43315889,46.34099826,284.596
3.43315886,46.34099825,284.595
3.43315863,46.34099827,284.595
3.43315814,46.34099830,284.594
3.43315739,46.34099834,284.598
3.43315648,46.34099839,284.6
3.43315545,46.34099846,284.6
3.43315432,46.34099852,284.598
3.43315316,46.34099861,284.598
3.43315197,46.34099868,284.599
3.43315076,46.34099875,284.597
3.43314953,46.34099880,284.596
3.43314829,46.34099886,284.593
3.43314705,46.34099890,284.59
3.43314585,46.34099892,284.592
3.43314469,46.34099895,284.59
3.43314356,46.34099901,284.587
3.43314247,46.34099905,284.587
3.43314141,46.34099904,284.585
3.43314039,46.34099903,284.58
3.43313938,46.34099905,284.58
3.43313838,46.34099910,284.581
3.43313738,46.34099915,284.578
3.43313643,46.34099920,284.578
3.43313551,46.34099918,284.578
3.43313456,46.34099911,284.577
3.43313362,46.34099902,284.576
3.43313267,46.34099898,284.575
3.43313175,46.34099898,284.58
3.43313079,46.34099894,284.578
3.43312979,46.34099885,284.575
3.43312880,46.34099875,284.576
3.43312782,46.34099862,284.578
3.43312682,46.34099852,284.579
3.43312579,46.34099843,284.573
3.43312475,46.34099838,284.572
3.43312369,46.34099832,284.577
3.43312261,46.34099825,284.575
3.43312150,46.34099816,284.569
3.43312041,46.34099801,284.566
3.43311931,46.34099784,284.562
3.43311811,46.34099765,284.557
3.43311667,46.34099746,284.556
3.43311501,46.34099729,284.557
3.43311308,46.34099713,284.554
3.43311098,46.34099692,284.554
3.43310880,46.34099670,284.556
3.43310682,46.34099649,284.559
3.43310484,46.34099631,284.556
3.43310279,46.34099608,284.555
3.43310063,46.34099579,284.557
3.43309843,46.34099552,284.559
3.43309620,46.34099529,284.558
3.43309391,46.34099513,284.558
3.43309160,46.34099493,284.562
3.43308931,46.34099462,284.559
3.43308704,46.34099429,284.555
3.43308475,46.34099391,284.553
3.43308245,46.34099357,284.555
3.43308006,46.34099330,284.553
3.43307773,46.34099305,284.552
3.43307536,46.34099281,284.555
3.43307299,46.34099250,284.557
3.43307062,46.34099214,284.553
3.43306830,46.34099177,284.556
3.43306599,46.34099143,284.553
3.43306366,46.34099109,284.551
3.43306120,46.34099075,284.556
3.43305880,46.34099043,284.559
3.43305639,46.34099011,284.56
3.43305395,46.34098979,284.555
3.43305151,46.34098951,284.557
3.43304905,46.34098917,284.56
3.43304660,46.34098890,284.557
3.43304413,46.34098858,284.561
3.43304165,46.34098829,284.56
3.43303916,46.34098804,284.562
3.43303669,46.34098783,284.563
3.43303429,46.34098765,284.563
3.43303187,46.34098737,284.561
3.43302944,46.34098702,284.559
3.43302706,46.34098669,284.555
3.43302463,46.34098642,284.557
3.43302219,46.34098622,284.558
3.43301978,46.34098603,284.559
3.43301734,46.34098581,284.557
3.43301488,46.34098551,284.558
3.43301243,46.34098516,284.555
3.43300999,46.34098481,284.551
3.43300751,46.34098457,284.552
3.43300504,46.34098442,284.552
3.43300254,46.34098426,284.557
3.43300008,46.34098403,284.558
3.43299764,46.34098378,284.556
3.43299516,46.34098350,284.556
3.43299260,46.34098328,284.555
3.43299010,46.34098314,284.555
3.43298762,46.34098309,284.554
3.43298512,46.34098303,284.556
3.43298259,46.34098292,284.56
3.43298011,46.34098279,284.561
3.43297764,46.34098271,284.56
3.43297515,46.34098269,284.559
3.43297265,46.34098269,284.564
3.43297019,46.34098271,284.568
3.43296775,46.34098271,284.567
3.43296532,46.34098265,284.565
3.43296285,46.34098258,284.564
3.43296040,46.34098253,284.562
3.43295794,46.34098253,284.563
3.43295545,46.34098257,284.568
3.43295293,46.34098256,284.572
3.43295049,46.34098251,284.569
3.43294808,46.34098246,284.568
3.43294564,46.34098242,284.564
3.43294316,46.34098240,284.566
3.43294069,46.34098241,284.566
3.43293817,46.34098238,284.567
3.43293567,46.34098231,284.567
3.43293312,46.34098228,284.57
3.43293061,46.34098229,284.569
3.43292810,46.34098230,284.565
3.43292558,46.34098226,284.564
3.43292303,46.34098215,284.561
3.43292050,46.34098204,284.558
3.43291797,46.34098199,284.557
3.43291543,46.34098202,284.558
3.43291287,46.34098206,284.561
3.43291033,46.34098205,284.562
3.43290778,46.34098200,284.562
3.43290520,46.34098193,284.559
3.43290266,46.34098187,284.56
3.43290014,46.34098182,284.559
3.43289761,46.34098179,284.558
3.43289508,46.34098176,284.56
3.43289256,46.34098169,284.558
3.43289005,46.34098164,284.557
3.43288754,46.34098160,284.555
3.43288497,46.34098158,284.554
3.43288241,46.34098156,284.553
3.43287990,46.34098151,284.554
3.43287740,46.34098145,284.553
3.43287490,46.34098140,284.55
3.43287241,46.34098136,284.55
3.43286992,46.34098133,284.549
3.43286740,46.34098130,284.55
3.43286488,46.34098125,284.553
3.43286236,46.34098118,284.554
3.43285985,46.34098113,284.553
3.43285736,46.34098109,284.549
3.43285484,46.34098104,284.549
3.43285229,46.34098101,284.551
3.43284977,46.34098096,284.555
3.43284723,46.34098090,284.555
3.43284474,46.34098085,284.555
3.43284224,46.34098081,284.553
3.43283974,46.34098077,284.554
3.43283718,46.34098074,284.556
3.43283463,46.34098068,284.558
3.43283211,46.34098063,284.558
3.43282957,46.34098053,284.557
3.43282702,46.34098049,284.556
3.43282447,46.34098047,284.556
3.43282192,46.34098044,284.555
3.43281939,46.34098038,284.553
3.43281685,46.34098033,284.552
3.43281435,46.34098034,284.552
3.43281184,46.34098034,284.553
3.43280930,46.34098031,284.555
3.43280675,46.34098029,284.554
3.43280422,46.34098027,284.555
3.43280171,46.34098024,284.554
3.43279920,46.34098019,284.552
3.43279664,46.34098013,284.551
3.43279409,46.34098007,284.552
3.43279153,46.34098004,284.551
3.43278900,46.34098003,284.55
3.43278646,46.34098003,284.551
3.43278393,46.34098000,284.551
3.43278138,46.34097995,284.549
3.43277881,46.34097991,284.549
3.43277624,46.34097989,284.55
3.43277371,46.34097987,284.551
3.43277118,46.34097983,284.55
3.43276864,46.34097982,284.546
3.43276614,46.34097985,284.55
3.43276365,46.34097990,284.552
3.43276107,46.34097990,284.552
3.43275861,46.34097986,284.554
3.43275646,46.34097981,284.552
3.43275454,46.34097976,284.549
3.43275286,46.34097974,284.548
3.43275145,46.34097976,284.549
3.43275035,46.34097978,284.551
3.43274954,46.34097977,284.552
3.43274906,46.34097974,284.549
3.43274891,46.34097970,284.549
3.43274901,46.34097968,284.548
3.43274921,46.34097970,284.547
3.43274911,46.34097972,284.548
3.43274898,46.34097972,284.548
3.43274901,46.34097971,284.545
3.43274912,46.34097971,284.545
3.43274908,46.34097969,284.547
3.43274905,46.34097970,284.544
3.43274908,46.34097971,284.546
3.43274912,46.34097969,284.546
3.43274907,46.34097970,284.546
3.43274901,46.34097970,284.545
3.43274868,46.34097968,284.546
3.43274821,46.34097968,284.545
3.43274744,46.34097969,284.546
3.43274642,46.34097967,284.547
3.43274509,46.34097967,284.545
3.43274349,46.34097966,284.545
3.43274159,46.34097965,284.544
3.43273940,46.34097960,284.545
3.43273694,46.34097958,284.542
3.43273438,46.34097955,284.537
3.43273166,46.34097951,284.541
3.43272880,46.34097950,284.54
3.43272601,46.34097948,284.543
3.43272321,46.34097944,284.542
3.43272039,46.34097939,284.539
3.43271754,46.34097931,284.536
3.43271472,46.34097926,284.539
3.43271192,46.34097922,284.54
3.43270921,46.34097919,284.539
3.43270649,46.34097918,284.538
3.43270377,46.34097915,284.537
3.43270108,46.34097908,284.539
3.43269842,46.34097903,284.538
3.43269578,46.34097897,284.538
3.43269314,46.34097892,284.538
3.43269054,46.34097891,284.536
3.43268795,46.34097890,284.537
3.43268542,46.34097884,284.533
3.43268283,46.34097874,284.534
3.43268022,46.34097864,284.536
3.43267760,46.34097858,284.538
3.43267496,46.34097857,284.539
3.43267232,46.34097859,284.543
3.43266968,46.34097861,284.543
3.43266703,46.34097864,284.541
3.43266434,46.34097871,284.541
3.43266168,46.34097885,284.538
3.43265903,46.34097903,284.541
3.43265644,46.34097921,284.543
3.43265381,46.34097942,284.542
3.43265124,46.34097968,284.539
3.43264867,46.34098000,284.543
3.43264615,46.34098029,284.546
3.43264363,46.34098058,284.55
3.43264125,46.34098084,284.553
3.43263907,46.34098108,284.549
3.43263694,46.34098131,284.546
3.43263476,46.34098155,284.546
3.43263247,46.34098182,284.547
3.43263017,46.34098205,284.549
3.43262792,46.34098223,284.552
3.43262562,46.34098238,284.553
3.43262328,46.34098249,284.554
3.43262092,46.34098257,284.554
3.43261857,46.34098265,284.554
3.43261617,46.34098275,284.552
3.43261373,46.34098280,284.55
3.43261127,46.34098282,284.552
3.43260883,46.34098283,284.548
3.43260634,46.34098287,284.547
3.43260384,46.34098291,284.551
3.43260134,46.34098296,284.556
3.43259888,46.34098296,284.556
3.43259642,46.34098293,284.553
3.43259394,46.34098289,284.551
3.43259149,46.34098287,284.551
3.43258906,46.34098289,284.55
3.43258658,46.34098290,284.55
3.43258410,46.34098289,284.551
3.43258164,46.34098294,284.553
3.43257918,46.34098298,284.554
3.43257673,46.34098299,284.554
3.43257427,46.34098295,284.554
3.43257182,46.34098291,284.555
3.43256938,46.34098289,284.555
3.43256694,46.34098288,284.552
3.43256448,46.34098285,284.552
3.43256200,46.34098280,284.552
3.43255956,46.34098275,284.548
3.43255710,46.34098270,284.552
3.43255461,46.34098267,284.553
3.43255214,46.34098267,284.553
3.43254967,46.34098266,284.554
3.43254718,46.34098261,284.553
3.43254469,46.34098252,284.553
3.43254225,46.34098241,284.551
3.43253978,46.34098233,284.548
3.43253729,46.34098227,284.549
3.43253484,46.34098222,284.549
3.43253235,46.34098219,284.548
3.43252989,46.34098214,284.548
3.43252743,46.34098205,284.549
3.43252495,46.34098197,284.549
3.43252249,46.34098191,284.546
3.43252003,46.34098187,284.545
3.43251756,46.34098184,284.543
3.43251508,46.34098179,284.547
3.43251264,46.34098166,284.545
3.43251017,46.34098150,284.541
3.43250771,46.34098136,284.541
3.43250523,46.34098125,284.539
3.43250275,46.34098119,284.541
3.43250027,46.34098112,284.542
3.43249781,46.34098105,284.542
3.43249534,46.34098094,284.542
3.43249288,46.34098081,284.542
3.43249042,46.34098067,284.537
3.43248795,46.34098054,284.537
3.43248550,46.34098042,284.54
3.43248303,46.34098031,284.54
3.43248059,46.34098020,284.537
3.43247812,46.34098007,284.539
3.43247567,46.34097992,284.534
3.43247320,46.34097975,284.534
3.43247073,46.34097960,284.534
3.43246818,46.34097945,284.535
3.43246564,46.34097934,284.534
3.43246306,46.34097925,284.534
3.43246047,46.34097916,284.537
3.43245783,46.34097908,284.541
3.43245521,46.34097903,284.544
3.43245256,46.34097905,284.546
3.43244994,46.34097915,284.546
3.43244731,46.34097929,284.544
3.43244467,46.34097947,284.543
3.43244205,46.34097968,284.542
3.43243944,46.34097993,284.542
3.43243687,46.34098023,284.544
3.43243433,46.34098057,284.546
3.43243181,46.34098089,284.549
3.43242928,46.34098117,284.551
3.43242682,46.34098144,284.551
3.43242435,46.34098178,284.553
3.43242190,46.34098213,284.554
3.43241946,46.34098244,284.552
3.43241701,46.34098273,284.553
3.43241456,46.34098305,284.553
3.43241215,46.34098339,284.556
3.43240977,46.34098374,284.558
3.43240739,46.34098409,284.561
3.43240504,46.34098441,284.562
3.43240270,46.34098470,284.564
3.43240035,46.34098491,284.565
3.43239794,46.34098510,284.563
3.43239553,46.34098527,284.563
3.43239316,46.34098547,284.561
3.43239081,46.34098568,284.56
3.43238840,46.34098585,284.563
3.43238595,46.34098602,284.559
3.43238350,46.34098617,284.56
3.43238109,46.34098636,284.558
3.43237865,46.34098655,284.56
3.43237621,46.34098672,284.559
3.43237379,46.34098681,284.558
3.43237135,46.34098690,284.554
3.43236894,46.34098699,284.55
3.43236649,46.34098712,284.554
3.43236405,46.34098728,284.554
3.43236163,46.34098743,284.553
3.43235922,46.34098755,284.554
3.43235677,46.34098769,284.553
3.43235435,46.34098781,284.554
3.43235193,46.34098791,284.553
3.43234951,46.34098799,284.557
3.43234706,46.34098804,284.555
3.43234465,46.34098808,284.554
3.43234224,46.34098816,284.553
3.43233980,46.34098826,284.554
3.43233738,46.34098837,284.559
3.43233495,46.34098845,284.557
3.43233253,46.34098848,284.555
3.43233009,46.34098852,284.555
3.43232763,46.34098859,284.556
3.43232515,46.34098866,284.559
3.43232274,46.34098870,284.558
3.43232028,46.34098873,284.557
3.43231782,46.34098873,284.558
3.43231539,46.34098871,284.559
3.43231296,46.34098873,284.56
3.43231053,46.34098878,284.56
3.43230809,46.34098881,284.561
3.43230566,46.34098883,284.564
3.43230323,46.34098879,284.563
3.43230082,46.34098875,284.56
3.43229839,46.34098873,284.557
3.43229592,46.34098871,284.56
3.43229349,46.34098869,284.56
3.43229104,46.34098868,284.566
3.43228862,46.34098864,284.565
3.43228616,46.34098858,284.561
3.43228370,46.34098852,284.556
3.43228117,46.34098845,284.555
3.43227866,46.34098841,284.557
3.43227619,46.34098834,284.556
3.43227371,46.34098823,284.555
3.43227117,46.34098813,284.557
3.43226862,46.34098806,284.556
3.43226611,46.34098800,284.554
3.43226359,46.34098791,284.554
3.43226108,46.34098779,284.555
3.43225859,46.34098769,284.557
3.43225609,46.34098759,284.557
3.43225360,46.34098751,284.548
3.43225106,46.34098738,284.549
3.43224856,46.34098721,284.551
3.43224608,46.34098705,284.549
3.43224359,46.34098693,284.545
3.43224106,46.34098682,284.542
3.43223857,46.34098664,284.543
3.43223610,46.34098642,284.543
3.43223357,46.34098622,284.545
3.43223103,46.34098608,284.542
3.43222846,46.34098595,284.54
3.43222587,46.34098581,284.543
3.43222328,46.34098568,284.542
3.43222066,46.34098558,284.545
3.43221809,46.34098547,284.546
3.43221549,46.34098535,284.545
3.43221289,46.34098527,284.541
3.43221031,46.34098522,284.544
3.43220790,46.34098525,284.549
3.43220571,46.34098532,284.55
3.43220376,46.34098534,284.553
3.43220211,46.34098528,284.552
3.43220072,46.34098518,284.547
3.43219961,46.34098509,284.544
3.43219882,46.34098509,284.542
3.43219833,46.34098513,284.543
3.43219818,46.34098518,284.546
3.43219827,46.34098520,284.548
3.43219848,46.34098518,284.547
3.43219839,46.34098513,284.548
3.43219829,46.34098508,284.549
3.43219833,46.34098512,284.545
3.43219841,46.34098514,284.543
3.43219839,46.34098515,284.547
3.43219835,46.34098516,284.547
3.43219836,46.34098514,284.548
3.43219839,46.34098512,284.55
3.43219838,46.34098512,284.548
3.43219837,46.34098515,284.55
3.43219837,46.34098514,284.55
3.43219837,46.34098513,284.552
3.43219837,46.34098513,284.545
3.43219837,46.34098512,284.547
3.43219838,46.34098513,284.546
3.43219835,46.34098513,284.548
3.43219838,46.34098513,284.548
3.43219838,46.34098513,284.547
3.43219837,46.34098512,284.548
3.43219840,46.34098513,284.55
3.43219837,46.34098513,284.55
3.43219838,46.34098513,284.55
3.43219838,46.34098512,284.551
3.43219839,46.34098512,284.552
3.43219839,46.34098511,284.552
3.43219839,46.34098510,284.554
3.43219839,46.34098510,284.554
3.43219839,46.34098511,284.553
3.43219838,46.34098510,284.553
3.43219837,46.34098510,284.551
3.43219836,46.34098511,284.551
3.43219834,46.34098511,284.55
3.43219835,46.34098512,284.549
3.43219835,46.34098511,284.549
3.43219836,46.34098511,284.55
3.43219836,46.34098511,284.55
3.43219836,46.34098511,284.548
3.43219836,46.34098511,284.547
3.43219837,46.34098512,284.546
3.43219837,46.34098512,284.545
        </coordinates> 
      </LineString> 
    </Placemark> 
  </Document> 
</kml> 
