<?xml version="1.0" encoding="UTF-8"?> 
<kml xmlns="http://www.opengis.net/kml/2.2" 
     xmlns:gx="http://www.google.com/kml/ext/2.2" 
     xmlns:kml="http://www.opengis.net/kml/2.2"
     xmlns:atom="http://www.w3.org/2005/Atom"> 
  <Document> 
    <name>gps_traj.kml</name> 
    <Placemark> 
      <name>Trajectoire</name> 
      <LineString> 
        <tessellate>1</tessellate> 
        <coordinates> 
3.43663606,46.33862325,276.979
3.43663605,46.33862326,276.978
3.43663607,46.33862327,276.975
3.43663606,46.33862328,276.975
3.43663606,46.33862327,276.975
3.43663607,46.33862326,276.978
3.43663607,46.33862326,276.976
3.43663608,46.33862325,276.976
3.43663607,46.33862325,276.977
3.43663606,46.33862325,276.978
3.43663605,46.33862326,276.978
3.43663607,46.33862326,276.98
3.43663605,46.33862326,276.981
3.43663604,46.33862327,276.981
3.43663604,46.33862327,276.98
3.43663605,46.33862326,276.982
3.43663606,46.33862327,276.981
3.43663606,46.33862327,276.98
3.43663606,46.33862327,276.979
3.43663605,46.33862328,276.977
3.43663605,46.33862328,276.976
3.43663604,46.33862328,276.976
3.43663603,46.33862327,276.972
3.43663604,46.33862327,276.973
3.43663604,46.33862328,276.974
3.43663604,46.33862328,276.972
3.43663603,46.33862327,276.973
3.43663603,46.33862326,276.97
3.43663584,46.33862311,276.973
3.43663545,46.33862285,276.982
3.43663486,46.33862247,276.993
3.43663410,46.33862201,276.988
3.43663347,46.33862160,276.976
3.43663286,46.33862111,276.98
3.43663258,46.33862060,276.998
3.43663225,46.33862032,277.014
3.43663203,46.33862019,277.009
3.43663177,46.33862003,276.997
3.43663139,46.33861981,276.988
3.43663095,46.33861960,276.977
3.43663036,46.33861928,276.974
3.43662956,46.33861895,276.969
3.43662881,46.33861837,276.977
3.43662798,46.33861791,276.967
3.43662695,46.33861742,276.971
3.43662605,46.33861690,277.007
3.43662544,46.33861636,277.025
3.43662475,46.33861567,277.013
3.43662426,46.33861499,277.002
3.43662383,46.33861418,276.963
3.43662294,46.33861350,276.954
3.43662220,46.33861295,276.962
3.43662117,46.33861252,276.954
3.43662047,46.33861183,276.974
3.43661959,46.33861123,276.967
3.43661896,46.33861067,276.981
3.43661833,46.33860993,276.972
3.43661758,46.33860946,276.97
3.43661675,46.33860873,277.003
3.43661588,46.33860815,276.995
3.43661466,46.33860789,276.937
3.43661447,46.33860706,276.978
3.43661383,46.33860648,276.973
3.43661331,46.33860563,276.997
3.43661255,46.33860510,276.972
3.43661191,46.33860414,276.982
3.43661135,46.33860344,276.997
3.43661063,46.33860287,277.005
3.43661031,46.33860222,277.022
3.43660934,46.33860187,276.991
3.43660849,46.33860109,277.0
3.43660803,46.33860045,277.008
3.43660731,46.33860000,276.995
3.43660649,46.33859938,276.977
3.43660612,46.33859854,277.02
3.43660540,46.33859784,277.018
3.43660484,46.33859731,277.028
3.43660429,46.33859662,277.043
3.43660370,46.33859591,277.057
3.43660322,46.33859505,277.057
3.43660269,46.33859431,277.062
3.43660227,46.33859363,277.052
3.43660177,46.33859301,277.082
3.43660085,46.33859227,277.102
3.43660007,46.33859175,277.094
3.43659950,46.33859102,277.088
3.43659868,46.33859038,277.088
3.43659811,46.33858977,277.077
3.43659765,46.33858915,277.064
3.43659691,46.33858858,277.078
3.43659632,46.33858799,277.086
3.43659545,46.33858730,277.079
3.43659477,46.33858672,277.066
3.43659400,46.33858618,277.031
3.43659328,46.33858555,277.064
3.43659250,46.33858493,277.041
3.43659176,46.33858449,277.035
3.43659111,46.33858381,277.045
3.43659064,46.33858300,277.019
3.43659009,46.33858249,277.022
3.43658964,46.33858183,277.021
3.43658916,46.33858120,277.014
3.43658844,46.33858047,277.037
3.43658769,46.33857994,277.042
3.43658710,46.33857929,277.029
3.43658640,46.33857876,277.052
3.43658583,46.33857810,277.028
3.43658540,46.33857733,277.026
3.43658497,46.33857678,277.025
3.43658430,46.33857616,277.027
3.43658372,46.33857538,277.023
3.43658309,46.33857483,277.026
3.43658239,46.33857415,277.027
3.43658167,46.33857358,277.014
3.43658103,46.33857303,277.0
3.43658043,46.33857246,276.998
3.43657989,46.33857160,277.04
3.43657963,46.33857088,277.01
3.43657915,46.33857009,277.004
3.43657887,46.33856945,276.969
3.43657834,46.33856873,276.983
3.43657760,46.33856823,277.011
3.43657687,46.33856761,277.013
3.43657628,46.33856703,277.0
3.43657570,46.33856640,276.98
3.43657536,46.33856570,276.971
3.43657492,46.33856502,276.944
3.43657475,46.33856428,276.88
3.43657386,46.33856368,276.88
3.43657296,46.33856325,276.873
3.43657214,46.33856282,276.892
3.43657133,46.33856221,276.913
3.43657069,46.33856160,276.909
3.43657002,46.33856093,276.904
3.43656952,46.33856027,276.923
3.43656900,46.33855959,276.891
3.43656860,46.33855881,276.903
3.43656814,46.33855793,276.887
3.43656732,46.33855750,276.883
3.43656644,46.33855705,276.859
3.43656576,46.33855650,276.869
3.43656511,46.33855580,276.834
3.43656471,46.33855514,276.875
3.43656432,46.33855448,276.904
3.43656342,46.33855399,276.892
3.43656258,46.33855345,276.862
3.43656200,46.33855286,276.858
3.43656146,46.33855221,276.874
3.43656080,46.33855161,276.864
3.43658471,46.33853397,277.437
3.43658418,46.33853328,277.431
3.43658370,46.33853269,277.42
3.43658321,46.33853206,277.456
3.43658288,46.33853125,277.43
3.43658229,46.33853058,277.436
3.43658061,46.33853043,277.396
3.43657784,46.33853063,277.38
3.43657409,46.33853126,277.406
3.43656911,46.33853238,277.377
3.43656452,46.33853330,277.384
3.43656116,46.33853398,277.368
3.43655822,46.33853455,277.337
3.43655617,46.33853491,277.291
3.43655384,46.33853545,277.211
3.43655198,46.33853563,277.223
3.43655017,46.33853577,277.204
3.43654874,46.33853548,277.18
3.43654792,46.33853507,277.218
3.43654718,46.33853460,277.26
3.43654637,46.33853392,277.242
3.43654583,46.33853315,277.265
3.43654518,46.33853232,277.266
3.43654452,46.33853153,277.233
3.43654374,46.33853077,277.236
3.43654280,46.33852989,277.217
3.43654209,46.33852916,277.214
3.43654193,46.33852812,277.234
3.43654168,46.33852715,277.269
3.43654146,46.33852605,277.311
3.43654102,46.33852528,277.324
3.43654048,46.33852445,277.383
3.43653942,46.33852394,277.452
3.43653852,46.33852357,277.54
3.43653728,46.33852308,277.637
3.43653644,46.33852269,277.745
3.43653589,46.33852189,277.825
3.43653531,46.33852145,277.902
3.43653451,46.33852079,277.981
3.43653381,46.33852021,278.04
3.43653297,46.33851935,278.095
3.43653226,46.33851877,278.132
3.43653122,46.33851802,278.203
3.43653088,46.33851707,278.356
3.43653012,46.33851621,278.428
3.43652943,46.33851539,278.498
3.43652846,46.33851462,278.539
3.43652741,46.33851379,278.641
3.43652614,46.33851318,278.694
3.43652495,46.33851245,278.726
3.43652436,46.33851167,278.721
3.43652377,46.33851094,278.704
3.43652325,46.33851001,278.759
3.43652269,46.33850911,278.834
3.43652225,46.33850825,278.934
3.43652145,46.33850748,279.003
3.43652047,46.33850672,279.071
3.43651937,46.33850569,279.077
3.43651804,46.33850484,279.072
3.43651673,46.33850371,279.068
3.43651539,46.33850260,279.041
3.43651415,46.33850160,279.015
3.43651315,46.33850064,279.027
3.43651208,46.33849969,279.059
3.43651110,46.33849895,279.036
3.43651019,46.33849793,279.046
3.43650947,46.33849688,279.095
3.43650870,46.33849603,279.083
3.43650792,46.33849505,279.053
3.43650736,46.33849402,279.068
3.43650656,46.33849307,279.043
3.43650579,46.33849223,279.035
3.43650465,46.33849143,279.05
3.43650374,46.33849089,279.04
3.43650275,46.33849012,279.058
3.43651441,46.33848013,277.668
3.43651381,46.33847935,277.676
3.43651287,46.33847869,277.637
3.43651219,46.33847806,277.615
3.43651134,46.33847737,277.666
3.43651033,46.33847676,277.668
3.43650956,46.33847621,277.708
3.43650857,46.33847561,277.713
3.43650759,46.33847496,277.787
3.43650638,46.33847436,277.848
3.43650552,46.33847362,277.819
3.43650428,46.33847329,277.753
3.43650264,46.33847307,277.608
3.43650084,46.33847316,277.38
3.43649846,46.33847344,277.065
3.43649618,46.33847380,276.742
3.43649424,46.33847373,276.477
3.43649270,46.33847384,276.25
3.43649125,46.33847362,276.068
3.43649007,46.33847332,275.983
3.43648881,46.33847319,275.87
3.43648748,46.33847283,275.755
3.43648661,46.33847241,275.685
3.43648605,46.33847186,275.588
3.43648548,46.33847116,275.501
3.43648504,46.33847062,275.478
3.43648413,46.33847006,275.408
3.43648317,46.33846957,275.463
3.43648239,46.33846898,275.411
3.43648157,46.33846849,275.37
3.43648102,46.33846780,275.37
3.43648054,46.33846716,275.304
3.43648014,46.33846617,275.31
3.43647993,46.33846548,275.246
3.43647955,46.33846474,275.206
3.43650012,46.33845447,281.171
3.43649929,46.33845389,281.143
3.43649850,46.33845337,281.118
3.43649769,46.33845272,281.137
3.43649692,46.33845193,281.144
3.43647172,46.33846561,275.877
3.43647097,46.33846494,275.839
3.43647052,46.33846420,275.84
3.43646994,46.33846344,275.848
3.43646911,46.33846271,275.826
3.43646837,46.33846195,275.82
3.43646772,46.33846138,275.842
3.43646675,46.33846038,275.848
3.43646606,46.33845970,275.793
3.43646533,46.33845895,275.794
3.43646487,46.33845823,275.782
3.43646401,46.33845765,275.788
3.43646312,46.33845721,275.842
3.43646202,46.33845688,275.954
3.43646127,46.33845684,276.118
3.43646021,46.33845664,276.302
3.43645903,46.33845638,276.452
3.43645808,46.33845593,276.585
3.43645689,46.33845544,276.699
3.43645591,46.33845459,276.843
3.43645461,46.33845390,276.892
3.43645352,46.33845290,276.999
3.43645263,46.33845208,277.08
3.43645183,46.33845147,277.107
3.43645108,46.33845048,277.15
3.43645012,46.33844964,277.166
3.43644911,46.33844876,277.213
3.43644830,46.33844796,277.214
3.43644754,46.33844707,277.24
3.43644682,46.33844597,277.235
3.43644614,46.33844483,277.229
3.43644583,46.33844394,277.261
3.43644541,46.33844294,277.312
3.43644499,46.33844216,277.363
3.43644457,46.33844131,277.448
3.43644366,46.33844086,277.436
3.43645189,46.33844299,277.244
3.43645083,46.33844247,277.253
3.43644987,46.33844179,277.272
3.43644885,46.33844130,277.241
3.43644818,46.33844042,277.29
3.43644786,46.33843952,277.252
3.43644714,46.33843876,277.233
3.43644631,46.33843770,277.247
3.43644555,46.33843677,277.296
3.43644442,46.33843598,277.292
3.43644334,46.33843576,277.268
3.43644217,46.33843559,277.222
3.43644148,46.33843507,277.222
3.43644062,46.33843474,277.194
3.43643985,46.33843411,277.177
3.43643905,46.33843340,277.18
3.43643834,46.33843269,277.198
3.43643755,46.33843180,277.269
3.43643664,46.33843110,277.249
3.43643563,46.33843062,277.244
3.43643478,46.33842995,277.282
3.43643386,46.33842942,277.294
3.43643294,46.33842886,277.295
3.43643222,46.33842836,277.308
3.43643122,46.33842758,277.353
3.43643034,46.33842697,277.376
3.43642952,46.33842638,277.351
3.43642840,46.33842562,277.326
3.43642760,46.33842491,277.32
3.43642677,46.33842416,277.296
3.43642604,46.33842358,277.242
3.43642537,46.33842288,277.218
3.43642473,46.33842215,277.193
3.43642399,46.33842154,277.143
3.43642323,46.33842099,277.125
3.43642234,46.33842033,277.136
3.43642160,46.33841974,277.116
3.43642074,46.33841908,277.127
3.43641979,46.33841842,277.137
3.43641904,46.33841788,277.099
3.43641825,46.33841732,277.093
3.43641730,46.33841658,277.118
3.43641646,46.33841597,277.119
3.43641573,46.33841526,277.115
3.43641500,46.33841463,277.145
3.43641391,46.33841413,277.122
3.43641281,46.33841362,277.066
3.43641172,46.33841305,277.092
3.43641086,46.33841247,277.036
3.43640986,46.33841194,276.979
3.43640913,46.33841129,276.947
3.43640823,46.33841055,276.955
3.43640749,46.33840991,276.974
3.43640689,46.33840916,277.011
3.43640620,46.33840851,277.025
3.43640534,46.33840788,277.055
3.43640447,46.33840734,277.065
3.43640357,46.33840682,277.062
3.43640266,46.33840625,277.091
3.43640183,46.33840575,277.15
3.43640102,46.33840521,277.055
3.43640058,46.33840446,277.031
3.43639993,46.33840366,277.047
3.43639941,46.33840298,277.03
3.43639870,46.33840219,277.023
3.43639794,46.33840147,277.035
3.43639716,46.33840081,277.02
3.43639634,46.33840008,277.047
3.43639558,46.33839942,277.005
3.43639472,46.33839878,277.005
3.43639403,46.33839807,277.001
3.43639325,46.33839728,276.991
3.43639241,46.33839656,276.975
3.43639172,46.33839582,276.976
3.43639099,46.33839509,276.971
3.43639015,46.33839433,277.02
3.43638947,46.33839356,277.006
3.43638880,46.33839292,276.998
3.43638792,46.33839220,276.997
3.43638696,46.33839156,276.999
3.43638583,46.33839093,276.981
3.43638498,46.33839031,277.011
3.43638420,46.33838966,277.013
3.43638348,46.33838886,277.015
3.43638246,46.33838819,277.035
3.43638163,46.33838749,277.011
3.43638070,46.33838689,277.017
3.43637996,46.33838619,277.036
3.43637900,46.33838553,277.053
3.43637807,46.33838484,277.037
3.43637716,46.33838408,277.031
3.43637647,46.33838353,277.013
3.43637560,46.33838279,277.02
3.43637462,46.33838203,277.014
3.43637377,46.33838136,276.998
3.43637290,46.33838069,277.015
3.43637203,46.33838005,277.0
3.43637101,46.33837958,277.022
3.43637004,46.33837894,277.032
3.43636901,46.33837837,277.048
3.43636804,46.33837771,277.056
3.43636702,46.33837715,277.06
3.43636611,46.33837651,277.074
3.43636525,46.33837586,277.074
3.43636425,46.33837531,277.081
3.43636313,46.33837485,277.082
3.43636197,46.33837448,277.064
3.43636089,46.33837384,277.093
3.43635977,46.33837326,277.091
3.43635881,46.33837251,277.082
3.43635807,46.33837182,277.076
3.43635719,46.33837118,277.067
3.43635602,46.33837067,277.087
3.43635495,46.33837028,277.086
3.43635378,46.33836978,277.083
3.43635277,46.33836924,277.081
3.43635180,46.33836873,277.067
3.43635095,46.33836811,277.067
3.43634983,46.33836752,277.07
3.43634883,46.33836703,277.076
3.43634781,46.33836662,277.075
3.43634690,46.33836618,277.08
3.43634593,46.33836570,277.072
3.43634496,46.33836521,277.081
3.43634392,46.33836473,277.084
3.43634304,46.33836433,277.069
3.43634201,46.33836375,277.088
3.43634107,46.33836333,277.069
3.43634006,46.33836275,277.071
3.43633901,46.33836230,277.079
3.43633794,46.33836182,277.07
3.43633686,46.33836134,277.096
3.43633578,46.33836093,277.091
3.43633486,46.33836042,277.092
3.43633393,46.33836000,277.089
3.43633290,46.33835953,277.089
3.43633184,46.33835902,277.098
3.43633071,46.33835868,277.11
3.43632972,46.33835831,277.103
3.43632858,46.33835787,277.128
3.43632759,46.33835743,277.121
3.43632652,46.33835691,277.143
3.43632546,46.33835643,277.138
3.43632440,46.33835595,277.138
3.43632332,46.33835536,277.124
3.43632225,46.33835481,277.147
3.43632128,46.33835423,277.143
3.43632040,46.33835372,277.141
3.43631929,46.33835316,277.15
3.43631821,46.33835269,277.146
3.43631716,46.33835223,277.15
3.43631616,46.33835169,277.153
3.43631522,46.33835106,277.151
3.43631428,46.33835046,277.163
3.43631322,46.33834996,277.164
3.43631221,46.33834948,277.176
3.43631119,46.33834902,277.174
3.43631020,46.33834867,277.17
3.43630930,46.33834824,277.148
3.43630839,46.33834779,277.135
3.43630755,46.33834724,277.111
3.43630665,46.33834671,277.095
3.43630568,46.33834614,277.085
3.43630465,46.33834555,277.083
3.43630366,46.33834498,277.063
3.43630254,46.33834438,277.05
3.43630176,46.33834365,277.014
3.43630083,46.33834292,277.023
3.43629996,46.33834230,277.02
3.43629885,46.33834183,277.004
3.43629778,46.33834134,277.008
3.43629666,46.33834083,277.0
3.43629559,46.33834024,277.029
3.43629468,46.33833960,277.017
3.43629388,46.33833895,277.011
3.43629293,46.33833827,276.999
3.43629202,46.33833763,277.027
3.43629095,46.33833704,277.022
3.43628991,46.33833648,277.038
3.43628907,46.33833594,277.029
3.43628800,46.33833535,277.041
3.43628696,46.33833478,277.028
3.43628589,46.33833417,277.01
3.43628485,46.33833366,277.003
3.43628383,46.33833313,276.997
3.43628289,46.33833243,276.991
3.43628197,46.33833189,277.003
3.43628105,46.33833116,276.97
3.43628016,46.33833049,276.991
3.43627931,46.33832997,276.991
3.43627824,46.33832954,276.984
3.43627709,46.33832917,276.988
3.43627610,46.33832858,276.993
3.43627514,46.33832809,277.001
3.43627435,46.33832739,276.997
3.43627349,46.33832659,276.97
3.43627260,46.33832597,276.987
3.43627151,46.33832554,276.983
3.43627048,46.33832516,276.969
3.43626940,46.33832484,276.986
3.43626823,46.33832451,276.984
3.43626715,46.33832411,276.937
3.43626639,46.33832338,276.964
3.43626556,46.33832275,276.964
3.43626467,46.33832219,276.967
3.43626371,46.33832164,276.978
3.43626256,46.33832122,276.977
3.43626150,46.33832076,277.013
3.43626037,46.33832019,276.993
3.43625942,46.33831972,276.985
3.43625843,46.33831916,276.98
3.43625747,46.33831860,276.974
3.43625663,46.33831811,277.005
3.43625571,46.33831755,277.005
3.43625473,46.33831707,276.993
3.43625380,46.33831645,276.984
3.43625291,46.33831584,276.959
3.43625194,46.33831524,276.938
3.43625075,46.33831473,276.937
3.43624981,46.33831422,276.92
3.43624868,46.33831374,276.922
3.43624764,46.33831324,276.942
3.43624651,46.33831266,276.973
3.43624542,46.33831223,276.988
3.43624436,46.33831167,276.982
3.43624339,46.33831109,277.001
3.43624239,46.33831050,276.979
3.43624149,46.33830992,276.99
3.43624053,46.33830932,276.998
3.43623942,46.33830874,276.979
3.43623848,46.33830824,276.988
3.43623755,46.33830763,276.989
3.43623671,46.33830700,277.013
3.43623588,46.33830649,277.008
3.43623507,46.33830613,276.981
3.43623457,46.33830593,276.986
3.43623422,46.33830585,276.992
3.43623404,46.33830577,276.995
3.43623398,46.33830574,277.002
3.43623404,46.33830573,277.014
3.43623411,46.33830570,277.017
3.43623409,46.33830569,277.025
3.43623396,46.33830565,277.027
3.43623390,46.33830567,277.029
3.43623387,46.33830566,277.037
3.43623387,46.33830563,277.04
3.43623387,46.33830564,277.043
3.43623389,46.33830563,277.047
3.43623388,46.33830566,277.05
3.43623392,46.33830565,277.049
3.43623393,46.33830564,277.048
3.43623394,46.33830562,277.047
3.43623396,46.33830563,277.048
3.43623396,46.33830565,277.043
3.43623397,46.33830566,277.04
3.43623399,46.33830565,277.036
3.43623399,46.33830565,277.038
3.43623401,46.33830566,277.037
3.43623403,46.33830568,277.032
3.43623402,46.33830570,277.031
3.43623399,46.33830570,277.034
3.43623400,46.33830573,277.032
3.43623401,46.33830575,277.031
3.43623400,46.33830576,277.033
3.43623398,46.33830578,277.037
3.43623398,46.33830578,277.038
3.43623396,46.33830577,277.039
        </coordinates> 
      </LineString> 
    </Placemark> 
  </Document> 
</kml> 
