<?xml version="1.0" encoding="UTF-8"?> 
<kml xmlns="http://www.opengis.net/kml/2.2" 
     xmlns:gx="http://www.google.com/kml/ext/2.2" 
     xmlns:kml="http://www.opengis.net/kml/2.2"
     xmlns:atom="http://www.w3.org/2005/Atom"> 
  <Document> 
    <name>gps_traj.kml</name> 
    <Placemark> 
      <name>Trajectoire</name> 
      <LineString> 
        <tessellate>1</tessellate> 
        <coordinates> 
3.10998560,45.76275709,407.212
3.10998561,45.76275710,407.211
3.10998561,45.76275710,407.211
3.10998561,45.76275710,407.21
3.10998561,45.76275710,407.211
3.10998561,45.76275709,407.208
3.10998561,45.76275709,407.211
3.10998561,45.76275710,407.211
3.10998561,45.76275710,407.211
3.10998561,45.76275711,407.212
3.10998561,45.76275711,407.213
3.10998559,45.76275711,407.213
3.10998558,45.76275710,407.211
3.10998551,45.76275706,407.205
3.10998534,45.76275700,407.203
3.10998507,45.76275691,407.196
3.10998472,45.76275677,407.197
3.10998426,45.76275658,407.213
3.10998368,45.76275639,407.216
3.10998308,45.76275616,407.217
3.10998237,45.76275588,407.211
3.10998135,45.76275551,407.197
3.10998012,45.76275505,407.195
3.10997867,45.76275458,407.195
3.10997718,45.76275408,407.202
3.10997552,45.76275347,407.199
3.10997371,45.76275280,407.207
3.10997197,45.76275218,407.2
3.10997014,45.76275146,407.217
3.10996834,45.76275069,407.213
3.10996642,45.76274995,407.215
3.10996452,45.76274926,407.222
3.10996259,45.76274855,407.23
3.10996061,45.76274775,407.232
3.10995862,45.76274700,407.23
3.10995672,45.76274627,407.223
3.10995468,45.76274561,407.243
3.10995253,45.76274479,407.24
3.10995047,45.76274402,407.232
3.10994822,45.76274317,407.248
3.10994598,45.76274228,407.248
3.10994388,45.76274138,407.259
3.10994160,45.76274042,407.255
3.10993938,45.76273947,407.246
3.10993726,45.76273864,407.242
3.10993502,45.76273773,407.24
3.10993262,45.76273677,407.214
3.10993040,45.76273593,407.22
3.10992816,45.76273503,407.22
3.10992600,45.76273413,407.245
3.10992402,45.76273329,407.232
3.10992177,45.76273234,407.227
3.10991961,45.76273147,407.219
3.10991754,45.76273065,407.216
3.10991530,45.76272968,407.241
3.10991325,45.76272872,407.239
3.10991138,45.76272785,407.252
3.10990940,45.76272713,407.248
3.10990725,45.76272642,407.259
3.10990551,45.76272572,407.295
3.10990388,45.76272493,407.362
3.10990293,45.76272422,407.465
3.10990169,45.76272325,407.531
3.10990041,45.76272250,407.597
3.10989832,45.76272187,407.57
3.10989674,45.76272152,407.65
3.10989199,45.76271984,407.414
3.10989032,45.76271880,407.359
3.10988784,45.76271816,407.38
3.10988597,45.76271737,407.387
3.10988477,45.76271687,407.401
3.10988206,45.76271702,407.595
3.10988045,45.76271668,407.634
3.10987921,45.76271603,407.727
3.10987921,45.76271594,407.856
3.10987790,45.76271615,407.976
3.10987740,45.76271615,408.116
3.10987588,45.76271593,408.135
3.10987447,45.76271576,408.086
3.10987281,45.76271614,408.078
3.10987057,45.76271620,407.819
3.10986600,45.76271607,407.625
3.10986425,45.76271569,407.523
3.10986272,45.76271538,407.516
3.10986094,45.76271493,407.444
3.10985948,45.76271464,407.416
3.10985733,45.76271501,407.55
3.10985668,45.76271488,407.504
3.10985624,45.76271458,407.525
3.10985647,45.76271459,407.43
3.10985531,45.76271411,407.369
3.10985642,45.76271540,407.564
3.10985856,45.76271732,407.984
3.10986022,45.76271706,408.024
3.10986060,45.76271706,407.988
3.10986056,45.76271778,408.097
3.10986031,45.76271709,408.099
3.10985961,45.76271595,408.121
3.10985875,45.76271477,408.013
3.10985595,45.76271465,407.899
3.10985242,45.76271816,406.633
3.10984939,45.76271733,405.62
3.10984575,45.76271844,405.192
3.10984630,45.76271596,405.503
3.10984577,45.76271393,405.56
3.10984321,45.76271450,405.92
3.10984207,45.76271533,406.106
3.10984049,45.76271397,406.177
3.10983783,45.76271413,406.132
3.10983348,45.76271737,406.19
3.10983121,45.76271601,405.972
3.10983221,45.76271278,405.958
3.10983373,45.76271122,406.262
3.10983076,45.76271084,406.056
3.10983676,45.76270597,406.433
3.10983940,45.76270483,406.799
3.10984025,45.76270439,407.22
3.10984129,45.76270458,407.632
3.10984176,45.76270534,408.002
3.10984186,45.76270610,408.428
3.10983859,45.76270785,408.65
3.10983628,45.76270916,408.945
3.10983480,45.76271008,409.281
3.10983181,45.76271104,409.532
3.10983006,45.76271114,409.83
3.10982616,45.76271158,410.104
3.10982356,45.76271066,410.216
3.10982161,45.76271015,410.299
3.10981922,45.76270997,410.436
3.10981856,45.76270982,410.511
3.10981822,45.76270955,410.663
3.10981586,45.76270905,410.738
3.10981372,45.76270905,411.053
3.10981252,45.76270695,411.2
3.10981051,45.76270551,411.32
3.10980932,45.76270414,411.517
3.10980837,45.76270272,411.647
3.10980928,45.76269980,411.853
3.10980867,45.76269802,411.975
3.10980834,45.76269653,412.293
3.10980728,45.76269490,412.612
3.10980651,45.76269283,412.921
3.10980533,45.76269046,413.154
3.10980336,45.76269002,413.181
3.10980159,45.76268920,413.086
3.10980168,45.76268739,412.985
3.10980065,45.76268610,413.226
3.10980184,45.76268356,413.367
3.10979895,45.76268249,413.846
3.10979303,45.76268413,413.707
3.10978995,45.76268393,413.583
3.10978651,45.76268359,413.437
3.10978372,45.76268335,413.272
3.10978220,45.76268247,413.051
3.10978045,45.76268177,412.822
3.10977940,45.76268079,412.627
3.10977893,45.76267902,412.543
3.10977707,45.76267842,412.317
3.10977592,45.76267767,412.282
3.10977541,45.76267596,412.154
3.10977490,45.76267467,412.138
3.10977427,45.76267333,412.061
3.10977406,45.76267175,412.01
3.10977352,45.76267001,411.96
3.10977296,45.76266839,411.96
3.10977264,45.76266672,411.897
3.10977241,45.76266517,411.813
3.10977179,45.76266356,411.765
3.10977156,45.76266181,411.727
3.10977119,45.76266022,411.666
3.10977092,45.76265820,411.583
3.10977052,45.76265644,411.532
3.10976972,45.76265453,411.417
3.10976876,45.76265281,411.379
3.10976853,45.76265076,411.273
3.10976779,45.76264884,411.214
3.10976702,45.76264698,411.162
3.10976654,45.76264514,411.11
3.10976625,45.76264328,411.058
3.10976589,45.76264148,411.018
3.10976571,45.76263968,410.963
3.10976418,45.76263733,410.858
3.10976125,45.76263431,410.712
3.10975729,45.76263077,410.495
3.10975175,45.76262661,410.253
3.10974622,45.76262241,410.018
3.10974196,45.76261861,409.828
3.10973818,45.76261515,409.675
3.10973565,45.76261222,409.522
3.10973384,45.76260949,409.433
3.10973203,45.76260677,409.318
3.10971823,45.76259777,408.546
3.10971943,45.76259619,408.532
3.10972033,45.76259459,408.536
3.10972150,45.76259302,408.535
3.10972240,45.76259136,408.556
3.10971411,45.76258747,408.373
3.10971515,45.76258586,408.383
3.10971609,45.76258428,408.389
3.10971724,45.76258272,408.379
3.10971838,45.76258111,408.369
3.10971907,45.76257949,408.347
3.10971984,45.76257797,408.329
3.10972046,45.76257658,408.29
3.10972079,45.76257518,408.242
3.10972134,45.76257377,408.201
3.10970652,45.76258013,407.259
3.10970747,45.76257854,407.267
3.10970872,45.76257696,407.264
3.10970975,45.76257535,407.268
3.10971089,45.76257385,407.248
3.10971237,45.76257226,407.318
3.10971383,45.76257064,407.472
3.10971594,45.76256913,407.673
3.10971808,45.76256754,407.971
3.10972029,45.76256600,408.259
3.10972229,45.76256452,408.513
3.10972400,45.76256303,408.738
3.10972572,45.76256163,408.922
3.10972709,45.76256030,409.073
3.10972853,45.76255895,409.258
3.10972989,45.76255761,409.377
3.10973113,45.76255633,409.467
3.10973223,45.76255500,409.505
3.10973319,45.76255362,409.515
3.10973403,45.76255233,409.543
3.10973495,45.76255103,409.562
3.10973594,45.76254959,409.556
3.10973706,45.76254819,409.564
3.10973771,45.76254668,409.578
3.10973849,45.76254519,409.586
3.10978898,45.76256360,413.022
3.10978940,45.76256174,413.005
3.10979042,45.76256012,413.005
3.10979151,45.76255855,412.999
3.10979231,45.76255689,412.991
3.10979331,45.76255540,413.024
3.10979398,45.76255373,413.011
3.10979509,45.76255206,413.003
3.10979591,45.76255030,412.991
3.10979614,45.76254832,412.975
3.10979746,45.76254672,412.961
3.10979845,45.76254492,412.932
3.10979873,45.76254312,412.941
3.10980046,45.76254158,412.939
3.10980127,45.76253984,412.936
3.10980258,45.76253816,412.91
3.10980387,45.76253658,412.92
3.10980502,45.76253490,412.916
3.10980571,45.76253322,412.917
3.10980696,45.76253152,412.898
3.10980783,45.76252988,412.894
3.10980872,45.76252813,412.883
3.10980911,45.76252643,412.885
3.10981005,45.76252483,412.883
3.10981066,45.76252314,412.876
3.10981122,45.76252142,412.878
3.10981170,45.76251979,412.883
3.10981207,45.76251797,412.867
3.10981277,45.76251628,412.883
3.10981307,45.76251454,412.897
3.10981315,45.76251279,412.898
3.10981395,45.76251108,412.884
3.10981416,45.76250934,412.903
3.10981419,45.76250747,412.913
3.10981451,45.76250570,412.899
3.10981462,45.76250378,412.875
3.10981488,45.76250201,412.886
3.10981532,45.76250013,412.847
3.10981545,45.76249826,412.818
3.10981539,45.76249640,412.81
3.10981551,45.76249439,412.752
3.10981601,45.76249252,412.718
3.10981614,45.76249059,412.667
3.10981603,45.76248835,412.602
3.10981634,45.76248632,412.519
3.10981633,45.76248435,412.464
3.10981679,45.76248213,412.385
3.10981638,45.76247999,412.337
3.10981640,45.76247800,412.281
3.10981715,45.76247601,412.224
3.10978487,45.76245195,409.319
3.10978528,45.76245017,409.323
3.10978651,45.76244861,409.318
3.10978715,45.76244697,409.31
3.10978789,45.76244525,409.317
3.10978900,45.76244378,409.313
3.10978950,45.76244209,409.301
3.10979042,45.76244061,409.29
3.10979125,45.76243908,409.253
3.10979189,45.76243752,409.233
3.10981425,45.76245277,411.369
3.10981518,45.76245121,411.373
3.10981646,45.76244965,411.372
3.10981714,45.76244796,411.361
3.10981797,45.76244629,411.362
3.10981894,45.76244463,411.348
3.10982010,45.76244324,411.369
3.10982083,45.76244160,411.368
3.10982154,45.76244003,411.371
3.10982282,45.76243854,411.368
3.10985390,45.76242419,407.984
3.10985498,45.76242258,407.99
3.10985548,45.76242090,407.991
3.10985675,45.76241937,407.982
3.10985732,45.76241769,407.982
3.10985588,45.76241580,408.05
3.10985152,45.76241347,408.16
3.10984450,45.76241070,408.337
3.10983512,45.76240762,408.564
3.10982569,45.76240467,408.799
3.10982627,45.76240313,408.809
3.10977484,45.76239616,410.158
3.10977579,45.76239458,410.164
3.10977684,45.76239309,410.177
3.10977765,45.76239149,410.176
3.10977881,45.76238991,410.163
3.10977940,45.76238844,410.185
3.10977981,45.76238692,410.199
3.10977995,45.76238537,410.219
3.10977988,45.76238384,410.261
3.10978018,45.76238244,410.284
3.10978096,45.76238108,410.296
3.10978187,45.76237970,410.305
3.10978338,45.76237852,410.316
3.10978488,45.76237720,410.326
3.10978619,45.76237589,410.327
3.10978777,45.76237457,410.334
3.10978971,45.76237339,410.36
3.10979143,45.76237217,410.377
3.10979334,45.76237118,410.385
3.10979520,45.76237008,410.402
3.10979705,45.76236898,410.4
3.10979902,45.76236789,410.397
3.10980087,45.76236672,410.378
3.10980299,45.76236558,410.346
3.10980480,45.76236436,410.313
3.10980659,45.76236309,410.275
3.10980841,45.76236193,410.214
3.10981007,45.76236067,410.151
3.10981145,45.76235929,410.113
3.10981256,45.76235779,410.125
3.10981379,45.76235622,410.111
3.10981505,45.76235472,410.079
3.10981652,45.76235335,410.036
3.10981803,45.76235197,409.944
3.10981960,45.76235062,409.895
3.10982126,45.76234928,409.849
3.10982297,45.76234793,409.793
3.10982458,45.76234659,409.759
3.10982633,45.76234524,409.723
3.10982823,45.76234390,409.67
3.10983049,45.76234249,409.6
3.10983292,45.76234108,409.534
3.10983557,45.76233972,409.45
3.10983804,45.76233843,409.369
3.10983893,45.76233716,409.376
3.10983997,45.76233606,409.373
3.10984115,45.76233514,409.357
3.10984251,45.76233436,409.319
        </coordinates> 
      </LineString> 
    </Placemark> 
  </Document> 
</kml> 
