<?xml version="1.0" encoding="UTF-8"?> 
<kml xmlns="http://www.opengis.net/kml/2.2" 
     xmlns:gx="http://www.google.com/kml/ext/2.2" 
     xmlns:kml="http://www.opengis.net/kml/2.2"
     xmlns:atom="http://www.w3.org/2005/Atom"> 
  <Document> 
    <name>gps_traj.kml</name> 
    <Placemark> 
      <name>Trajectoire</name> 
      <LineString> 
        <tessellate>1</tessellate> 
        <coordinates> 
3.11055598,45.76309784,406.655
3.11055601,45.76309782,406.656
3.11055603,45.76309784,406.655
3.11055602,45.76309784,406.656
3.11055601,45.76309784,406.657
3.11055601,45.76309784,406.657
3.11055603,45.76309784,406.655
3.11055602,45.76309784,406.656
3.11055602,45.76309785,406.658
3.11055602,45.76309784,406.659
3.11055605,45.76309784,406.659
3.11055605,45.76309784,406.659
3.11055604,45.76309783,406.663
3.11055601,45.76309784,406.666
3.11055602,45.76309792,406.668
3.11055609,45.76309816,406.667
3.11055620,45.76309851,406.663
3.11055635,45.76309899,406.657
3.11055657,45.76309963,406.657
3.11055685,45.76310040,406.655
3.11055708,45.76310136,406.652
3.11055733,45.76310247,406.645
3.11055767,45.76310368,406.631
3.11055805,45.76310500,406.62
3.11055839,45.76310644,406.6
3.11055885,45.76310791,406.588
3.11055933,45.76310943,406.575
3.11055989,45.76311096,406.568
3.11056050,45.76311241,406.569
3.11056126,45.76311387,406.569
3.11056202,45.76311552,406.567
3.11056275,45.76311718,406.558
3.11056343,45.76311848,406.558
3.11056413,45.76312002,406.546
3.11056484,45.76312149,406.546
3.11056560,45.76312285,406.548
3.11056620,45.76312423,406.533
3.11056687,45.76312567,406.53
3.11056733,45.76312695,406.538
3.11056776,45.76312834,406.533
3.11056814,45.76312972,406.536
3.11056871,45.76313096,406.53
3.11056921,45.76313234,406.515
3.11056944,45.76313380,406.499
3.11056978,45.76313519,406.5
3.11057029,45.76313649,406.496
3.11057086,45.76313780,406.493
3.11057152,45.76313904,406.502
3.11057243,45.76314024,406.503
3.11057332,45.76314156,406.515
3.11057390,45.76314285,406.517
3.11057415,45.76314421,406.516
3.11057444,45.76314558,406.502
3.11057471,45.76314693,406.502
3.11057518,45.76314828,406.503
3.11057561,45.76314958,406.496
3.11057600,45.76315080,406.48
3.11057629,45.76315223,406.486
3.11057690,45.76315352,406.496
3.11057750,45.76315470,406.485
3.11057812,45.76315622,406.5
3.11057854,45.76315760,406.508
3.11057907,45.76315897,406.488
3.11057959,45.76316030,406.481
3.11058003,45.76316170,406.478
3.11058032,45.76316307,406.477
3.11058076,45.76316444,406.475
3.11058146,45.76316568,406.492
3.11058222,45.76316699,406.485
3.11058297,45.76316837,406.507
3.11058359,45.76316962,406.504
3.11058412,45.76317099,406.507
3.11058451,45.76317231,406.505
3.11058477,45.76317358,406.493
3.11058499,45.76317505,406.49
3.11058518,45.76317634,406.491
3.11058528,45.76317761,406.479
3.11058557,45.76317906,406.481
3.11058607,45.76318042,406.481
3.11058676,45.76318170,406.483
3.11058750,45.76318302,406.499
3.11058812,45.76318434,406.486
3.11058864,45.76318584,406.491
3.11058906,45.76318725,406.493
3.11058933,45.76318857,406.495
3.11058970,45.76319005,406.5
3.11059010,45.76319134,406.506
3.11059040,45.76319265,406.49
3.11059081,45.76319427,406.502
3.11059134,45.76319550,406.501
3.11059185,45.76319687,406.508
3.11059227,45.76319835,406.496
3.11059262,45.76319981,406.497
3.11059311,45.76320118,406.507
3.11059359,45.76320260,406.504
3.11059408,45.76320396,406.488
3.11059446,45.76320527,406.498
3.11059500,45.76320682,406.497
3.11059554,45.76320804,406.496
3.11059618,45.76320933,406.502
3.11059674,45.76321070,406.499
3.11059733,45.76321200,406.49
3.11059771,45.76321334,406.499
3.11059797,45.76321458,406.496
3.11059824,45.76321592,406.5
3.11059843,45.76321712,406.485
3.11059862,45.76321835,406.486
3.11059895,45.76321954,406.491
3.11059931,45.76322079,406.482
3.11059957,45.76322192,406.482
3.11060008,45.76322310,406.48
3.11060054,45.76322437,406.498
3.11060070,45.76322564,406.495
3.11060040,45.76322683,406.486
3.11059984,45.76322800,406.479
3.11059941,45.76322920,406.447
3.11059882,45.76323044,406.442
3.11059857,45.76323162,406.453
3.11059852,45.76323300,406.459
3.11059859,45.76323454,406.483
3.11059858,45.76323586,406.482
3.11059845,45.76323699,406.471
3.11059794,45.76323854,406.474
3.11059717,45.76323977,406.467
3.11059627,45.76324086,406.449
3.11059564,45.76324231,406.451
3.11059552,45.76324356,406.475
3.11059537,45.76324491,406.486
3.11059542,45.76324641,406.48
3.11059547,45.76324775,406.478
3.11059566,45.76324922,406.504
3.11059562,45.76325078,406.516
3.11059523,45.76325212,406.502
3.11059431,45.76325343,406.482
3.11059344,45.76325487,406.502
3.11059292,45.76325609,406.501
3.11059278,45.76325743,406.5
3.11059261,45.76325885,406.512
3.11059263,45.76326007,406.514
3.11059261,45.76326125,406.527
3.11059257,45.76326234,406.532
3.11059227,45.76326334,406.533
3.11059180,45.76326426,406.518
3.11059135,45.76326512,406.529
3.11059108,45.76326603,406.522
3.11059079,45.76326686,406.507
3.11059053,45.76326764,406.516
3.11059036,45.76326843,406.515
3.11059026,45.76326924,406.514
3.11059019,45.76327007,406.521
3.11058991,45.76327089,406.517
3.11058951,45.76327165,406.507
3.11058930,45.76327241,406.515
3.11058904,45.76327308,406.524
3.11058871,45.76327386,406.518
3.11058848,45.76327459,406.517
3.11058842,45.76327538,406.516
3.11058848,45.76327619,406.525
3.11058861,45.76327700,406.51
3.11058851,45.76327779,406.514
3.11058831,45.76327855,406.521
3.11058805,45.76327931,406.519
3.11058774,45.76328008,406.519
3.11058728,45.76328092,406.52
3.11058708,45.76328186,406.516
3.11058686,45.76328292,406.515
3.11058682,45.76328410,406.519
3.11058672,45.76328545,406.527
3.11058662,45.76328681,406.539
3.11058652,45.76328816,406.537
3.11058631,45.76328963,406.549
3.11058579,45.76329100,406.538
3.11058503,45.76329231,406.529
3.11058422,45.76329372,406.523
3.11058360,45.76329506,406.526
3.11058323,45.76329637,406.53
3.11058284,45.76329778,406.526
3.11058259,45.76329918,406.531
3.11058237,45.76330050,406.551
3.11058204,45.76330193,406.546
3.11058181,45.76330332,406.556
3.11058138,45.76330463,406.552
3.11058099,45.76330596,406.552
3.11058047,45.76330740,406.556
3.11057996,45.76330879,406.565
3.11057933,45.76331019,406.559
3.11057874,45.76331157,406.549
3.11057816,45.76331288,406.565
3.11057754,45.76331431,406.567
3.11057701,45.76331569,406.572
3.11057662,45.76331710,406.583
3.11057617,45.76331844,406.586
3.11057581,45.76331989,406.602
3.11057549,45.76332113,406.596
3.11057517,45.76332260,406.594
3.11057488,45.76332392,406.598
3.11057469,45.76332522,406.607
3.11057451,45.76332666,406.616
3.11057433,45.76332806,406.608
3.11057417,45.76332947,406.62
3.11057387,45.76333101,406.623
3.11057355,45.76333257,406.622
3.11057331,45.76333406,406.624
3.11057287,45.76333565,406.636
3.11057244,45.76333719,406.64
3.11057158,45.76333861,406.628
3.11057103,45.76334013,406.652
3.11057050,45.76334150,406.647
3.11057018,45.76334291,406.656
3.11056959,45.76334436,406.657
3.11056916,45.76334583,406.665
3.11056862,45.76334715,406.665
3.11056788,45.76334850,406.659
3.11056689,45.76334974,406.626
3.11056622,45.76335097,406.625
3.11056536,45.76335216,406.619
3.11056474,45.76335356,406.6
3.11056443,45.76335481,406.596
3.11056422,45.76335612,406.579
3.11056375,45.76335763,406.592
3.11056338,45.76335890,406.593
3.11056302,45.76336022,406.579
3.11056236,45.76336156,406.582
3.11056178,45.76336286,406.591
3.11056128,45.76336424,406.595
3.11056097,45.76336556,406.594
3.11056063,45.76336693,406.594
3.11056014,45.76336837,406.598
3.11055963,45.76336967,406.604
3.11055908,45.76337093,406.605
3.11055811,45.76337224,406.595
3.11055715,45.76337351,406.586
3.11055643,45.76337483,406.591
3.11055590,45.76337629,406.574
3.11055539,45.76337769,406.576
3.11055508,45.76337918,406.581
3.11055463,45.76338066,406.588
3.11055420,45.76338204,406.591
3.11055364,45.76338347,406.587
3.11055298,45.76338494,406.581
3.11055238,45.76338632,406.582
3.11055179,45.76338776,406.596
3.11055136,45.76338913,406.59
3.11055111,45.76339050,406.602
3.11055084,45.76339194,406.613
3.11055070,45.76339321,406.619
3.11055047,45.76339448,406.627
3.11055005,45.76339584,406.61
3.11054934,45.76339724,406.595
3.11054902,45.76339851,406.589
3.11054882,45.76339977,406.596
3.11054857,45.76340119,406.587
3.11054800,45.76340266,406.579
3.11054733,45.76340370,406.555
3.11054649,45.76340485,406.542
3.11054528,45.76340612,406.523
3.11054422,45.76340715,406.532
3.11054330,45.76340826,406.522
3.11054239,45.76340948,406.492
3.11054171,45.76341066,406.5
3.11054121,45.76341194,406.495
3.11054113,45.76341323,406.517
3.11054069,45.76341455,406.554
3.11053992,45.76341570,406.57
3.11053903,45.76341666,406.573
3.11053792,45.76341751,406.567
3.11053686,45.76341839,406.543
3.11053605,45.76341941,406.545
3.11053509,45.76342062,406.551
3.11053412,45.76342195,406.573
3.11053317,45.76342310,406.55
3.11053214,45.76342420,406.572
3.11053051,45.76342543,406.5
3.11052923,45.76342646,406.509
3.11052790,45.76342752,406.504
3.11052660,45.76342856,406.501
3.11052515,45.76342966,406.513
3.11052370,45.76343063,406.501
3.11052224,45.76343162,406.531
3.11052072,45.76343273,406.54
3.11051922,45.76343378,406.53
3.11051779,45.76343500,406.53
3.11051677,45.76343629,406.527
3.11051563,45.76343750,406.514
3.11051437,45.76343876,406.532
3.11051336,45.76343989,406.521
3.11051223,45.76344096,406.514
3.11051088,45.76344202,406.523
3.11050945,45.76344278,406.507
3.11050805,45.76344376,406.503
3.11050675,45.76344482,406.507
3.11050563,45.76344584,406.505
3.11050414,45.76344687,406.484
3.11050269,45.76344775,406.452
3.11050090,45.76344839,406.411
3.11049890,45.76344925,406.407
3.11049740,45.76345009,406.395
3.11049608,45.76345122,406.415
3.11049500,45.76345250,406.422
3.11049439,45.76345391,406.464
3.11049362,45.76345542,406.476
3.11049264,45.76345700,406.474
3.11049140,45.76345815,406.475
        </coordinates> 
      </LineString> 
    </Placemark> 
  </Document> 
</kml> 
