<?xml version="1.0" encoding="UTF-8"?> 
<kml xmlns="http://www.opengis.net/kml/2.2" 
     xmlns:gx="http://www.google.com/kml/ext/2.2" 
     xmlns:kml="http://www.opengis.net/kml/2.2"
     xmlns:atom="http://www.w3.org/2005/Atom"> 
  <Document> 
    <name>gps_traj.kml</name> 
    <Placemark> 
      <name>Trajectoire</name> 
      <LineString> 
        <tessellate>1</tessellate> 
        <coordinates> 
3.11032959,45.76325394,406.683
3.11032960,45.76325394,406.684
3.11032960,45.76325394,406.684
3.11032961,45.76325394,406.683
3.11032960,45.76325395,406.686
3.11032959,45.76325395,406.683
3.11032959,45.76325396,406.684
3.11032959,45.76325396,406.685
3.11032959,45.76325395,406.682
3.11032960,45.76325395,406.682
3.11032961,45.76325395,406.682
3.11032964,45.76325393,406.68
3.11032983,45.76325385,406.681
3.11033022,45.76325369,406.683
3.11033073,45.76325346,406.687
3.11033145,45.76325310,406.694
3.11033249,45.76325262,406.702
3.11033365,45.76325206,406.72
3.11033504,45.76325148,406.708
3.11033651,45.76325085,406.699
3.11033803,45.76325019,406.703
3.11033973,45.76324959,406.707
3.11034150,45.76324889,406.707
3.11034338,45.76324831,406.715
3.11034509,45.76324782,406.72
3.11034696,45.76324737,406.718
3.11034885,45.76324693,406.701
3.11035084,45.76324645,406.701
3.11035275,45.76324592,406.705
3.11035446,45.76324514,406.719
3.11035607,45.76324437,406.709
3.11035763,45.76324355,406.715
3.11035946,45.76324282,406.727
3.11036131,45.76324236,406.729
3.11036286,45.76324198,406.729
3.11036468,45.76324147,406.733
3.11036635,45.76324099,406.723
3.11036790,45.76324049,406.717
3.11036956,45.76323981,406.718
3.11037116,45.76323920,406.697
3.11037258,45.76323865,406.702
3.11037423,45.76323811,406.704
3.11037599,45.76323774,406.706
3.11037777,45.76323737,406.708
3.11037946,45.76323707,406.696
3.11038109,45.76323666,406.699
3.11038260,45.76323619,406.694
3.11038412,45.76323565,406.704
3.11038574,45.76323513,406.696
3.11038726,45.76323483,406.701
3.11038856,45.76323444,406.7
3.11038954,45.76323407,406.694
3.11039034,45.76323377,406.692
3.11039099,45.76323356,406.685
3.11039148,45.76323350,406.692
3.11039157,45.76323341,406.694
3.11039157,45.76323337,406.694
3.11039149,45.76323343,406.693
3.11039142,45.76323346,406.688
3.11039149,45.76323346,406.7
3.11039152,45.76323344,406.702
3.11039149,45.76323342,406.698
3.11039147,45.76323343,406.7
3.11039146,45.76323344,406.699
3.11039147,45.76323345,406.697
3.11039148,45.76323345,406.694
3.11039145,45.76323344,406.696
3.11039146,45.76323343,406.697
3.11039154,45.76323345,406.699
3.11039179,45.76323338,406.706
3.11039218,45.76323326,406.707
3.11039276,45.76323310,406.704
3.11039362,45.76323288,406.693
3.11039452,45.76323264,406.683
3.11039555,45.76323223,406.675
3.11039668,45.76323179,406.691
3.11039773,45.76323131,406.691
3.11039871,45.76323078,406.683
3.11039968,45.76323040,406.695
3.11040043,45.76323012,406.694
3.11040104,45.76322999,406.7
3.11040148,45.76322994,406.695
3.11040172,45.76322989,406.697
3.11040186,45.76322988,406.693
3.11040190,45.76322984,406.686
3.11040187,45.76322979,406.69
3.11040182,45.76322976,406.693
3.11040184,45.76322977,406.686
3.11040206,45.76322976,406.688
3.11040245,45.76322970,406.687
3.11040300,45.76322956,406.692
3.11040377,45.76322936,406.69
3.11040457,45.76322921,406.692
3.11040534,45.76322905,406.701
3.11040597,45.76322890,406.699
3.11040643,45.76322876,406.696
3.11040674,45.76322863,406.69
3.11040699,45.76322857,406.686
3.11040713,45.76322855,406.686
3.11040728,45.76322847,406.699
3.11040743,45.76322841,406.694
3.11040774,45.76322832,406.693
3.11040825,45.76322817,406.694
3.11040895,45.76322796,406.704
3.11040970,45.76322778,406.698
3.11041071,45.76322760,406.697
3.11041176,45.76322741,406.698
3.11041298,45.76322714,406.694
3.11041423,45.76322687,406.682
3.11041549,45.76322647,406.699
3.11041675,45.76322607,406.696
3.11041798,45.76322563,406.696
3.11041919,45.76322520,406.692
3.11042054,45.76322488,406.707
3.11042187,45.76322458,406.71
3.11042338,45.76322435,406.712
3.11042464,45.76322414,406.699
3.11042603,45.76322399,406.705
3.11042729,45.76322363,406.701
3.11042847,45.76322325,406.691
3.11042975,45.76322289,406.699
3.11043100,45.76322258,406.695
3.11043223,45.76322228,406.699
3.11043366,45.76322214,406.707
3.11043479,45.76322207,406.692
3.11043610,45.76322204,406.691
3.11043736,45.76322211,406.69
3.11043859,45.76322211,406.687
3.11043992,45.76322210,406.691
3.11044113,45.76322209,406.658
3.11044238,45.76322193,406.641
3.11044374,45.76322182,406.652
3.11044510,45.76322179,406.647
3.11044641,45.76322174,406.64
3.11044762,45.76322165,406.641
3.11044885,45.76322156,406.642
3.11045009,45.76322148,406.628
3.11045132,45.76322133,406.626
3.11045255,45.76322117,406.623
3.11045374,45.76322107,406.63
3.11045497,45.76322094,406.633
3.11045614,45.76322079,406.627
3.11045730,45.76322064,406.624
3.11045855,45.76322051,406.629
3.11045972,45.76322035,406.632
3.11046081,45.76322021,406.623
3.11046193,45.76322011,406.627
3.11046305,45.76321999,406.627
3.11046422,45.76321989,406.613
3.11046538,45.76321977,406.615
3.11046660,45.76321975,406.606
3.11046780,45.76321973,406.606
3.11046893,45.76321972,406.597
3.11047009,45.76321972,406.58
3.11047116,45.76321980,406.581
3.11047239,45.76321990,406.575
3.11047356,45.76321992,406.582
3.11047469,45.76321976,406.575
3.11047581,45.76321961,406.575
3.11047703,45.76321941,406.58
3.11047812,45.76321930,406.574
3.11047925,45.76321916,406.576
3.11048032,45.76321916,406.565
3.11048136,45.76321926,406.572
3.11048240,45.76321936,406.573
3.11048347,45.76321941,406.582
3.11048446,45.76321935,406.575
3.11048554,45.76321934,406.572
3.11048661,45.76321930,406.582
3.11048759,45.76321916,406.582
3.11048857,45.76321911,406.579
3.11048956,45.76321912,406.581
3.11049045,45.76321928,406.579
3.11049131,45.76321942,406.578
3.11049218,45.76321955,406.573
3.11049302,45.76321965,406.575
3.11049390,45.76321978,406.575
3.11049478,45.76321995,406.577
3.11049569,45.76322018,406.578
3.11049658,45.76322043,406.568
3.11049752,45.76322071,406.567
3.11049850,45.76322094,406.568
3.11049945,45.76322108,406.579
3.11050051,45.76322123,406.586
3.11050151,45.76322155,406.59
3.11050251,45.76322182,406.599
3.11050356,45.76322215,406.604
3.11050464,45.76322247,406.616
3.11050571,45.76322279,406.616
3.11050694,45.76322325,406.621
3.11050839,45.76322374,406.636
3.11050985,45.76322435,406.647
3.11051112,45.76322514,406.644
3.11051222,45.76322600,406.647
3.11051330,45.76322683,406.656
3.11051428,45.76322769,406.656
3.11051530,45.76322853,406.655
3.11051626,45.76322932,406.649
3.11051724,45.76323007,406.635
3.11051848,45.76323080,406.639
3.11051992,45.76323149,406.64
3.11052143,45.76323233,406.647
3.11052315,45.76323323,406.654
3.11052501,45.76323430,406.671
3.11052710,45.76323543,406.696
3.11052919,45.76323635,406.702
3.11053100,45.76323745,406.675
3.11053263,45.76323898,406.669
3.11053432,45.76324044,406.681
3.11053558,45.76324188,406.657
3.11053700,45.76324355,406.648
3.11053839,45.76324511,406.653
3.11053977,45.76324637,406.637
3.11054173,45.76324764,406.643
3.11054357,45.76324859,406.627
3.11054502,45.76324965,406.647
3.11054620,45.76325085,406.649
3.11054710,45.76325181,406.642
3.11054758,45.76325264,406.624
3.11054788,45.76325353,406.613
3.11054798,45.76325444,406.605
3.11054813,45.76325528,406.592
3.11054849,45.76325600,406.592
3.11054903,45.76325660,406.577
3.11054959,45.76325725,406.575
3.11055016,45.76325789,406.579
3.11055052,45.76325856,406.571
3.11055076,45.76325929,406.558
3.11055098,45.76326006,406.553
3.11055121,45.76326076,406.549
3.11055156,45.76326160,406.546
3.11055192,45.76326237,406.546
3.11055241,45.76326311,406.546
3.11055307,45.76326384,406.554
3.11055365,45.76326451,406.569
3.11055420,45.76326526,406.574
3.11055474,45.76326617,406.574
3.11055548,45.76326713,406.59
3.11055625,45.76326819,406.597
3.11055708,45.76326936,406.599
3.11055804,45.76327076,406.603
3.11055901,45.76327228,406.609
3.11055992,45.76327389,406.608
3.11056078,45.76327552,406.604
3.11056174,45.76327731,406.621
3.11056257,45.76327893,406.604
3.11056320,45.76328063,406.586
3.11056396,45.76328260,406.59
3.11056461,45.76328417,406.584
3.11056530,45.76328589,406.579
3.11056597,45.76328770,406.573
3.11056650,45.76328936,406.555
3.11056709,45.76329118,406.558
3.11056767,45.76329296,406.554
3.11056846,45.76329459,406.575
3.11056909,45.76329638,406.577
3.11056955,45.76329804,406.581
3.11056972,45.76329974,406.575
3.11056996,45.76330155,406.566
3.11057024,45.76330313,406.548
3.11057053,45.76330480,406.556
3.11057078,45.76330657,406.537
3.11057114,45.76330816,406.567
3.11057166,45.76330987,406.545
3.11057223,45.76331160,406.538
3.11057274,45.76331326,406.546
3.11057316,45.76331508,406.553
3.11057336,45.76331681,406.557
3.11057361,45.76331858,406.558
3.11057377,45.76332026,406.58
3.11057399,45.76332196,406.593
3.11057429,45.76332374,406.595
3.11057466,45.76332535,406.596
3.11057510,45.76332702,406.597
3.11057566,45.76332868,406.583
3.11057606,45.76333035,406.581
3.11057651,45.76333195,406.584
3.11057660,45.76333374,406.585
3.11057680,45.76333546,406.591
3.11057685,45.76333720,406.581
3.11057685,45.76333899,406.59
3.11057678,45.76334076,406.588
3.11057663,45.76334258,406.593
3.11057648,45.76334437,406.595
3.11057640,45.76334615,406.597
3.11057635,45.76334796,406.606
3.11057629,45.76334970,406.601
3.11057637,45.76335160,406.597
3.11057624,45.76335322,406.605
3.11057602,45.76335499,406.57
3.11057548,45.76335669,406.569
3.11057492,45.76335821,406.558
3.11057446,45.76335987,406.544
3.11057416,45.76336161,406.532
3.11057400,45.76336311,406.532
3.11057397,45.76336474,406.525
3.11057394,45.76336660,406.532
3.11057380,45.76336815,406.527
3.11057334,45.76336971,406.519
3.11057303,45.76337132,406.521
3.11057294,45.76337295,406.528
3.11057278,45.76337470,406.541
3.11057242,45.76337642,406.539
3.11057205,45.76337817,406.555
3.11057166,45.76338000,406.558
3.11057098,45.76338170,406.56
3.11057022,45.76338341,406.56
3.11056949,45.76338522,406.565
3.11056848,45.76338682,406.558
3.11056738,45.76338836,406.551
3.11056647,45.76339004,406.542
3.11056604,45.76339154,406.542
3.11056550,45.76339321,406.547
3.11056486,45.76339482,406.535
3.11056439,45.76339657,406.541
3.11056407,45.76339832,406.543
3.11056371,45.76340008,406.531
3.11056327,45.76340182,406.527
3.11056269,45.76340346,406.53
3.11056154,45.76340514,406.527
3.11056043,45.76340668,406.522
3.11055911,45.76340808,406.515
3.11055786,45.76340963,406.511
3.11055677,45.76341118,406.527
3.11055610,45.76341276,406.524
3.11055552,45.76341447,406.533
3.11055514,45.76341620,406.547
3.11055443,45.76341777,406.53
3.11055352,45.76341945,406.538
3.11055278,45.76342111,406.538
3.11055189,45.76342249,406.533
3.11055048,45.76342388,406.525
3.11054910,45.76342511,406.528
3.11054755,45.76342613,406.507
3.11054562,45.76342701,406.49
3.11054371,45.76342801,406.484
3.11054202,45.76342905,406.47
3.11054054,45.76343037,406.453
3.11053899,45.76343173,406.448
3.11053743,45.76343311,406.468
3.11053595,45.76343450,406.473
3.11053430,45.76343582,406.47
3.11053262,45.76343726,406.47
3.11053097,45.76343856,406.474
3.11052918,45.76343987,406.462
3.11052737,45.76344126,406.457
3.11052559,45.76344254,406.445
3.11052385,45.76344393,406.45
3.11052216,45.76344537,406.446
3.11052046,45.76344679,406.437
3.11051900,45.76344817,406.436
3.11051742,45.76344946,406.433
3.11051585,45.76345092,406.431
3.11051418,45.76345224,406.425
3.11051244,45.76345355,406.42
3.11051081,45.76345488,406.408
3.11050900,45.76345629,406.402
3.11050745,45.76345782,406.389
3.11050608,45.76345942,406.396
3.11050483,45.76346104,406.428
3.11050344,45.76346264,406.418
3.11050183,45.76346413,406.423
3.11050020,45.76346564,406.435
3.11049865,45.76346694,406.413
3.11049725,45.76346837,406.417
3.11049573,45.76346968,406.41
3.11049401,45.76347095,406.399
3.11049255,45.76347239,406.398
3.11049083,45.76347356,406.366
3.11048895,45.76347497,406.338
3.11048755,45.76347626,406.322
3.11048598,45.76347772,406.322
3.11048438,45.76347904,406.305
3.11048272,45.76348028,406.283
3.11048096,45.76348165,406.273
3.11047930,45.76348279,406.25
3.11047764,45.76348402,406.239
3.11047589,45.76348528,406.233
3.11047393,45.76348652,406.229
3.11047202,45.76348775,406.224
3.11047016,45.76348904,406.234
3.11046867,45.76349031,406.248
3.11046704,45.76349173,406.237
3.11046562,45.76349311,406.235
3.11046414,45.76349435,406.21
3.11046246,45.76349572,406.198
3.11046063,45.76349700,406.192
3.11045900,45.76349808,406.201
3.11045709,45.76349937,406.181
3.11045544,45.76350091,406.129
3.11045363,45.76350227,406.134
3.11045236,45.76350368,406.116
3.11045027,45.76350491,406.137
3.11044867,45.76350613,406.091
3.11044693,45.76350748,406.083
3.11044566,45.76350905,406.103
3.11044412,45.76351044,406.107
3.11044279,45.76351185,406.084
3.11044108,45.76351313,406.092
3.11043919,45.76351407,406.108
3.11043790,45.76351551,406.086
3.11043622,45.76351690,406.105
3.11043486,45.76351838,406.079
3.11043368,45.76352015,406.097
3.11043236,45.76352166,406.125
3.11043075,45.76352296,406.105
3.11042889,45.76352414,406.128
3.11042759,45.76352555,406.114
3.11042594,45.76352700,406.111
3.11042434,45.76352833,406.091
3.11042284,45.76352986,406.083
3.11042141,45.76353130,406.089
3.11042008,45.76353279,406.082
3.11041842,45.76353421,406.088
3.11041704,45.76353559,406.11
3.11041575,45.76353704,406.095
3.11041438,45.76353844,406.087
3.11041303,45.76353985,406.07
3.11041153,45.76354128,406.098
3.11041026,45.76354272,406.074
3.11040921,45.76354419,406.083
3.11040781,45.76354559,406.073
3.11040657,45.76354704,406.089
3.11040503,45.76354850,406.043
3.11040357,45.76354988,406.041
3.11040214,45.76355135,406.041
3.11040101,45.76355285,406.024
3.11039959,45.76355440,406.038
3.11039836,45.76355600,406.025
3.11039715,45.76355747,406.043
3.11039592,45.76355910,406.038
3.11039475,45.76356071,406.025
3.11039359,45.76356230,406.042
3.11039231,45.76356401,406.039
3.11039132,45.76356560,406.044
3.11039028,45.76356713,406.063
3.11038913,45.76356884,406.043
3.11038810,45.76357035,406.056
3.11038701,45.76357191,406.066
3.11038580,45.76357355,406.06
3.11038459,45.76357507,406.058
3.11038317,45.76357656,406.051
3.11038193,45.76357806,406.049
3.11038071,45.76357959,406.053
3.11037950,45.76358117,406.055
3.11037833,45.76358283,406.05
3.11037713,45.76358437,406.051
3.11037629,45.76358610,406.035
3.11037533,45.76358771,406.046
3.11037457,45.76358934,406.014
3.11037378,45.76359105,406.022
3.11037279,45.76359256,406.017
3.11037149,45.76359420,406.027
3.11037091,45.76359593,406.002
3.11037005,45.76359764,405.998
3.11036941,45.76359929,406.045
3.11036838,45.76360095,406.051
3.11036757,45.76360252,406.078
3.11036647,45.76360407,406.068
3.11036497,45.76360547,406.029
3.11036368,45.76360684,406.05
3.11036251,45.76360822,406.047
3.11036144,45.76360978,406.019
3.11036050,45.76361131,406.019
3.11035990,45.76361304,405.982
3.11035939,45.76361475,405.95
3.11035869,45.76361641,405.975
3.11035856,45.76361813,405.991
3.11035790,45.76361976,406.018
3.11035704,45.76362138,406.022
3.11035604,45.76362277,406.034
3.11035490,45.76362407,406.02
3.11035351,45.76362529,406.021
3.11035196,45.76362645,406.024
3.11035062,45.76362771,406.003
3.11034960,45.76362915,405.985
3.11034865,45.76363069,405.99
3.11034771,45.76363226,405.992
3.11034660,45.76363389,406.054
3.11034528,45.76363548,406.037
3.11034392,45.76363687,406.048
3.11034232,45.76363821,406.05
3.11034052,45.76363937,406.049
3.11033861,45.76364060,406.027
3.11033691,45.76364183,406.035
3.11033539,45.76364313,406.034
3.11033379,45.76364445,406.045
3.11033245,45.76364580,406.041
3.11033123,45.76364718,406.05
3.11033007,45.76364868,406.026
3.11032894,45.76365011,406.04
3.11032767,45.76365159,406.03
3.11032641,45.76365303,406.04
3.11032522,45.76365446,406.035
3.11032383,45.76365586,406.074
3.11032214,45.76365716,406.068
3.11032040,45.76365826,406.082
3.11031844,45.76365922,406.069
3.11031642,45.76366000,406.066
3.11031435,45.76366072,406.08
3.11031212,45.76366145,406.062
3.11031009,45.76366230,406.052
3.11030818,45.76366327,406.051
3.11030628,45.76366431,406.04
3.11030444,45.76366548,406.049
3.11030269,45.76366666,406.046
3.11030079,45.76366782,406.05
3.11029883,45.76366889,406.053
3.11029678,45.76366985,406.051
3.11029467,45.76367088,406.03
3.11029265,45.76367171,406.033
3.11029046,45.76367260,406.028
3.11028831,45.76367351,406.025
3.11028620,45.76367449,406.037
3.11028420,45.76367544,406.038
3.11028218,45.76367642,406.043
3.11028013,45.76367728,406.059
3.11027808,45.76367810,406.05
3.11027599,45.76367878,406.045
3.11027397,45.76367939,406.059
3.11027185,45.76367982,406.05
3.11026982,45.76368028,406.041
3.11026771,45.76368079,406.039
3.11026570,45.76368137,406.02
3.11026385,45.76368205,406.048
3.11026174,45.76368267,406.037
3.11025960,45.76368335,406.034
3.11025745,45.76368393,406.029
3.11025542,45.76368444,406.037
3.11025318,45.76368470,406.043
3.11025101,45.76368475,406.051
3.11024852,45.76368481,406.05
3.11024638,45.76368497,406.045
3.11024425,45.76368508,406.046
3.11024188,45.76368531,406.053
3.11023963,45.76368561,406.051
3.11023738,45.76368564,406.075
3.11023496,45.76368570,406.076
3.11023235,45.76368623,406.045
3.11023001,45.76368614,406.057
3.11022742,45.76368612,406.049
3.11022513,45.76368602,406.038
3.11022283,45.76368602,406.053
3.11022041,45.76368614,406.075
3.11021799,45.76368615,406.083
3.11021578,45.76368612,406.053
3.11021344,45.76368624,406.067
3.11021110,45.76368649,406.058
3.11020964,45.76368633,406.096
3.11020791,45.76368615,406.058
3.11020625,45.76368619,406.046
3.11020497,45.76368621,406.048
3.11020410,45.76368624,406.07
3.11020360,45.76368595,406.07
3.11020315,45.76368594,406.057
3.11020306,45.76368593,406.05
3.11020324,45.76368594,406.059
3.11020336,45.76368593,406.059
3.11020329,45.76368593,406.057
3.11020332,45.76368612,406.055
3.11020339,45.76368617,406.059
3.11020341,45.76368607,406.06
3.11020342,45.76368614,406.058
3.11020341,45.76368617,406.058
3.11020333,45.76368613,406.045
3.11020336,45.76368617,406.042
3.11020339,45.76368617,406.046
3.11020335,45.76368616,406.036
3.11020338,45.76368622,406.043
3.11020344,45.76368626,406.039
3.11020345,45.76368627,406.045
3.11020343,45.76368623,406.048
3.11020342,45.76368617,406.053
3.11020320,45.76368604,406.033
3.11020321,45.76368603,406.039
3.11020315,45.76368602,406.031
3.11020313,45.76368603,406.029
3.11020314,45.76368608,406.028
3.11020315,45.76368606,406.039
3.11020316,45.76368608,406.039
3.11020316,45.76368609,406.038
3.11020316,45.76368610,406.043
3.11020315,45.76368606,406.04
3.11020312,45.76368602,406.037
3.11020315,45.76368600,406.039
3.11020315,45.76368596,406.042
3.11020318,45.76368595,406.047
3.11020319,45.76368592,406.049
3.11020319,45.76368594,406.044
3.11020319,45.76368598,406.043
3.11020320,45.76368600,406.043
3.11020318,45.76368602,406.04
3.11020315,45.76368606,406.041
3.11020314,45.76368607,406.039
3.11020315,45.76368608,406.037
3.11020314,45.76368607,406.038
3.11020315,45.76368605,406.038
        </coordinates> 
      </LineString> 
    </Placemark> 
  </Document> 
</kml> 
